{
"type": "FeatureCollection",
"name": "fenceSurveyPoints",
"crs": { "type": "name", "properties": { "name": "urn:ogc:def:crs:OGC:1.3:CRS84" } },
"features": [
{ "type": "Feature", "properties": { "fenceSurveyPointId": "1", "type": "Pedestrian", "authority": "CMC", "material": "Metal", "condition": "Good", "elevation": "6.15" }, "geometry": { "type": "Point", "coordinates": [ 79.860828889350501, 6.906915760366665 ] } },
{ "type": "Feature", "properties": { "fenceSurveyPointId": "2", "type": "Pedestrian", "authority": "CMC", "material": "Iron", "condition": "Good", "elevation": "5.952" }, "geometry": { "type": "Point", "coordinates": [ 79.860718257213705, 6.906916361633725 ] } },
{ "type": "Feature", "properties": { "fenceSurveyPointId": "3", "type": "Pedestrian", "authority": "CMC", "material": "Iron", "condition": "Good", "elevation": "5.86" }, "geometry": { "type": "Point", "coordinates": [ 79.860625536279883, 6.906919049841642 ] } },
{ "type": "Feature", "properties": { "fenceSurveyPointId": "4", "type": "Pedestrian", "authority": "CMC", "material": "Iron", "condition": "Good", "elevation": "7.209" }, "geometry": { "type": "Point", "coordinates": [ 79.86042228540434, 6.898668558438048 ] } },
{ "type": "Feature", "properties": { "fenceSurveyPointId": "5", "type": "Pedestrian", "authority": "CMC", "material": "Iron", "condition": "Good", "elevation": "7.257" }, "geometry": { "type": "Point", "coordinates": [ 79.860414427981922, 6.898727036635028 ] } },
{ "type": "Feature", "properties": { "fenceSurveyPointId": "6", "type": "Pedestrian", "authority": "CMC", "material": "Iron", "condition": "Good", "elevation": "7.34" }, "geometry": { "type": "Point", "coordinates": [ 79.860345833281997, 6.898836513173212 ] } },
{ "type": "Feature", "properties": { "fenceSurveyPointId": "7", "type": "Pedestrian", "authority": "CMC", "material": "Iron", "condition": "Good", "elevation": "8.862" }, "geometry": { "type": "Point", "coordinates": [ 79.859234653916189, 6.901136584412458 ] } },
{ "type": "Feature", "properties": { "fenceSurveyPointId": "8", "type": "Pedestrian", "authority": "CMC", "material": "Iron", "condition": "Good", "elevation": "8.429" }, "geometry": { "type": "Point", "coordinates": [ 79.859217651467404, 6.901188959653132 ] } },
{ "type": "Feature", "properties": { "fenceSurveyPointId": "9", "type": "Pedestrian", "authority": "CMC", "material": "Iron", "condition": "Good", "elevation": "7.007" }, "geometry": { "type": "Point", "coordinates": [ 79.859190377078534, 6.901237924360173 ] } },
{ "type": "Feature", "properties": { "fenceSurveyPointId": "10", "type": "Pedestrian", "authority": "CMC", "material": "Iron", "condition": "Good", "elevation": "11.579" }, "geometry": { "type": "Point", "coordinates": [ 79.859170684181919, 6.90128725628393 ] } },
{ "type": "Feature", "properties": { "fenceSurveyPointId": "11", "type": "Pedestrian", "authority": "CMC", "material": "Iron", "condition": "Good", "elevation": "11.609" }, "geometry": { "type": "Point", "coordinates": [ 79.859147775917549, 6.901338318104011 ] } },
{ "type": "Feature", "properties": { "fenceSurveyPointId": "12", "type": "Pedestrian", "authority": "CMC", "material": "Iron", "condition": "Good", "elevation": "5.011" }, "geometry": { "type": "Point", "coordinates": [ 79.858418497346975, 6.905188960248662 ] } },
{ "type": "Feature", "properties": { "fenceSurveyPointId": "13", "type": "Pedestrian", "authority": "CMC", "material": "Iron", "condition": "Good", "elevation": "4.986" }, "geometry": { "type": "Point", "coordinates": [ 79.858420629943637, 6.90521384816594 ] } },
{ "type": "Feature", "properties": { "fenceSurveyPointId": "14", "type": "Pedestrian", "authority": "CMC", "material": "Iron", "condition": "Good", "elevation": "4.897" }, "geometry": { "type": "Point", "coordinates": [ 79.858419005751642, 6.905319474646337 ] } },
{ "type": "Feature", "properties": { "fenceSurveyPointId": "15", "type": "Pedestrian", "authority": "CMC", "material": "Iron", "condition": "Good", "elevation": "4.986" }, "geometry": { "type": "Point", "coordinates": [ 79.858456183785478, 6.905568420509457 ] } },
{ "type": "Feature", "properties": { "fenceSurveyPointId": "16", "type": "Pedestrian", "authority": "CMC", "material": "Iron", "condition": "Good", "elevation": "5.076" }, "geometry": { "type": "Point", "coordinates": [ 79.858476853343532, 6.905585224328477 ] } },
{ "type": "Feature", "properties": { "fenceSurveyPointId": "17", "type": "Pedestrian", "authority": "CMC", "material": "Iron", "condition": "Good", "elevation": "5.171" }, "geometry": { "type": "Point", "coordinates": [ 79.858523071408982, 6.905631852914889 ] } },
{ "type": "Feature", "properties": { "fenceSurveyPointId": "18", "type": "Pedestrian", "authority": "CMC", "material": "Metal", "condition": "Good", "elevation": "5.268" }, "geometry": { "type": "Point", "coordinates": [ 79.85857514525091, 6.90569169421251 ] } },
{ "type": "Feature", "properties": { "fenceSurveyPointId": "19", "type": "Pedestrian", "authority": "CMC", "material": "Metal", "condition": "Good", "elevation": "5.459" }, "geometry": { "type": "Point", "coordinates": [ 79.85862063914702, 6.905743195080269 ] } },
{ "type": "Feature", "properties": { "fenceSurveyPointId": "20", "type": "Pedestrian", "authority": "CMC", "material": "Iron", "condition": "Good", "elevation": "5.58" }, "geometry": { "type": "Point", "coordinates": [ 79.858690835909769, 6.905822005379447 ] } },
{ "type": "Feature", "properties": { "fenceSurveyPointId": "21", "type": "Pedestrian", "authority": "CMC", "material": "Iron", "condition": "Good", "elevation": "5.597" }, "geometry": { "type": "Point", "coordinates": [ 79.858723611551667, 6.905857712364051 ] } },
{ "type": "Feature", "properties": { "fenceSurveyPointId": "22", "type": "Pedestrian", "authority": "CMC", "material": "Iron", "condition": "Good", "elevation": "5.682" }, "geometry": { "type": "Point", "coordinates": [ 79.85874215946599, 6.905876808779175 ] } },
{ "type": "Feature", "properties": { "fenceSurveyPointId": "23", "type": "Pedestrian", "authority": "CMC", "material": "Metal", "condition": "Good", "elevation": "5.756" }, "geometry": { "type": "Point", "coordinates": [ 79.858782371452733, 6.905922512535029 ] } },
{ "type": "Feature", "properties": { "fenceSurveyPointId": "24", "type": "Pedestrian", "authority": "CMC", "material": "Iron", "condition": "Good", "elevation": "6.056" }, "geometry": { "type": "Point", "coordinates": [ 79.858833367605286, 6.906043919282396 ] } },
{ "type": "Feature", "properties": { "fenceSurveyPointId": "25", "type": "Pedestrian", "authority": "CMC", "material": "Iron", "condition": "Good", "elevation": "5.866" }, "geometry": { "type": "Point", "coordinates": [ 79.858830312993035, 6.905990393312236 ] } },
{ "type": "Feature", "properties": { "fenceSurveyPointId": "26", "type": "Pedestrian", "authority": "CMC", "material": "Metal", "condition": "Good", "elevation": "6.078" }, "geometry": { "type": "Point", "coordinates": [ 79.859013931720654, 6.906189021515319 ] } },
{ "type": "Feature", "properties": { "fenceSurveyPointId": "27", "type": "Pedestrian", "authority": "CMC", "material": "Metal", "condition": "Good", "elevation": "5.954" }, "geometry": { "type": "Point", "coordinates": [ 79.859099241341312, 6.906205515686205 ] } },
{ "type": "Feature", "properties": { "fenceSurveyPointId": "28", "type": "Pedestrian", "authority": "CMC", "material": "Iron", "condition": "Good", "elevation": "5.749" }, "geometry": { "type": "Point", "coordinates": [ 79.859228342815186, 6.906062754493967 ] } },
{ "type": "Feature", "properties": { "fenceSurveyPointId": "29", "type": "Pedestrian", "authority": "CMC", "material": "Iron", "condition": "Good", "elevation": "5.319" }, "geometry": { "type": "Point", "coordinates": [ 79.859199347447699, 6.905952819300173 ] } },
{ "type": "Feature", "properties": { "fenceSurveyPointId": "30", "type": "Pedestrian", "authority": "CMC", "material": "Iron", "condition": "Good", "elevation": "5.434" }, "geometry": { "type": "Point", "coordinates": [ 79.859219390403695, 6.905881597196822 ] } },
{ "type": "Feature", "properties": { "fenceSurveyPointId": "31", "type": "Pedestrian", "authority": "CMC", "material": "Metal", "condition": "Good", "elevation": "6.925" }, "geometry": { "type": "Point", "coordinates": [ 79.860663528257518, 6.909148575969705 ] } },
{ "type": "Feature", "properties": { "fenceSurveyPointId": "32", "type": "Pedestrian", "authority": "CMC", "material": "Metal", "condition": "Good", "elevation": "6.927" }, "geometry": { "type": "Point", "coordinates": [ 79.860662448401925, 6.909037356229321 ] } },
{ "type": "Feature", "properties": { "fenceSurveyPointId": "33", "type": "Pedestrian", "authority": "CMC", "material": "Metal", "condition": "Good", "elevation": "6.844" }, "geometry": { "type": "Point", "coordinates": [ 79.860653458767032, 6.90919973482783 ] } },
{ "type": "Feature", "properties": { "fenceSurveyPointId": "34", "type": "Pedestrian", "authority": "CMC", "material": "Metal", "condition": "Good", "elevation": "6.852" }, "geometry": { "type": "Point", "coordinates": [ 79.860640645265875, 6.90922394299397 ] } },
{ "type": "Feature", "properties": { "fenceSurveyPointId": "35", "type": "Pedestrian", "authority": "CMC", "material": "Metal", "condition": "Good", "elevation": "6.868" }, "geometry": { "type": "Point", "coordinates": [ 79.860620014032222, 6.909243524670463 ] } },
{ "type": "Feature", "properties": { "fenceSurveyPointId": "36", "type": "Pedestrian", "authority": "CMC", "material": "Metal", "condition": "Good", "elevation": "6.885" }, "geometry": { "type": "Point", "coordinates": [ 79.860585770626912, 6.909265069442433 ] } },
{ "type": "Feature", "properties": { "fenceSurveyPointId": "37", "type": "Pedestrian", "authority": "CMC", "material": "Metal", "condition": "Good", "elevation": "6.949" }, "geometry": { "type": "Point", "coordinates": [ 79.860521484741525, 6.909292705085187 ] } },
{ "type": "Feature", "properties": { "fenceSurveyPointId": "38", "type": "Pedestrian", "authority": "CMC", "material": "Metal", "condition": "Good", "elevation": "6.893" }, "geometry": { "type": "Point", "coordinates": [ 79.8607523600067, 6.908966639050034 ] } },
{ "type": "Feature", "properties": { "fenceSurveyPointId": "39", "type": "Pedestrian", "authority": "CMC", "material": "Metal", "condition": "Good", "elevation": "6.921" }, "geometry": { "type": "Point", "coordinates": [ 79.86077347845989, 6.909074732568526 ] } },
{ "type": "Feature", "properties": { "fenceSurveyPointId": "40", "type": "Pedestrian", "authority": "CMC", "material": "Metal", "condition": "Good", "elevation": "6.866" }, "geometry": { "type": "Point", "coordinates": [ 79.860790514299211, 6.909127390249313 ] } },
{ "type": "Feature", "properties": { "fenceSurveyPointId": "41", "type": "Pedestrian", "authority": "CMC", "material": "Metal", "condition": "Good", "elevation": "6.859" }, "geometry": { "type": "Point", "coordinates": [ 79.860801158173786, 6.909149202131224 ] } },
{ "type": "Feature", "properties": { "fenceSurveyPointId": "42", "type": "Pedestrian", "authority": "CMC", "material": "Metal", "condition": "Good", "elevation": "6.774" }, "geometry": { "type": "Point", "coordinates": [ 79.860859266645761, 6.909204922619419 ] } },
{ "type": "Feature", "properties": { "fenceSurveyPointId": "43", "type": "Pedestrian", "authority": "CMC", "material": "Metal", "condition": "Good", "elevation": "6.547" }, "geometry": { "type": "Point", "coordinates": [ 79.862043716018619, 6.90925023730852 ] } },
{ "type": "Feature", "properties": { "fenceSurveyPointId": "44", "type": "Pedestrian", "authority": "CMC", "material": "Metal", "condition": "Good", "elevation": "6.571" }, "geometry": { "type": "Point", "coordinates": [ 79.862095283269653, 6.909258654982855 ] } },
{ "type": "Feature", "properties": { "fenceSurveyPointId": "45", "type": "Pedestrian", "authority": "CMC", "material": "Iron", "condition": "Moderate", "elevation": "6.627" }, "geometry": { "type": "Point", "coordinates": [ 79.862829346597408, 6.909491151700987 ] } },
{ "type": "Feature", "properties": { "fenceSurveyPointId": "46", "type": "Pedestrian", "authority": "CMC", "material": "Iron", "condition": "Good", "elevation": "6.649" }, "geometry": { "type": "Point", "coordinates": [ 79.862863581790762, 6.909506842075412 ] } },
{ "type": "Feature", "properties": { "fenceSurveyPointId": "47", "type": "Pedestrian", "authority": "CMC", "material": "Iron", "condition": "Good", "elevation": "6.532" }, "geometry": { "type": "Point", "coordinates": [ 79.863411018885486, 6.909739341812229 ] } },
{ "type": "Feature", "properties": { "fenceSurveyPointId": "48", "type": "Pedestrian", "authority": "CMC", "material": "Iron", "condition": "Good", "elevation": "6.538" }, "geometry": { "type": "Point", "coordinates": [ 79.863461159869047, 6.909717773034353 ] } },
{ "type": "Feature", "properties": { "fenceSurveyPointId": "49", "type": "Pedestrian", "authority": "CMC", "material": "Iron", "condition": "Good", "elevation": "6.623" }, "geometry": { "type": "Point", "coordinates": [ 79.863499077135245, 6.909677165307805 ] } },
{ "type": "Feature", "properties": { "fenceSurveyPointId": "50", "type": "Pedestrian", "authority": "CMC", "material": "Iron", "condition": "Good", "elevation": "6.698" }, "geometry": { "type": "Point", "coordinates": [ 79.863630341268234, 6.909954068687428 ] } },
{ "type": "Feature", "properties": { "fenceSurveyPointId": "51", "type": "Pedestrian", "authority": "CMC", "material": "Iron", "condition": "Good", "elevation": "6.652" }, "geometry": { "type": "Point", "coordinates": [ 79.863597020755165, 6.909890755407001 ] } },
{ "type": "Feature", "properties": { "fenceSurveyPointId": "52", "type": "Pedestrian", "authority": "CMC", "material": "Iron", "condition": "Good", "elevation": "6.671" }, "geometry": { "type": "Point", "coordinates": [ 79.863596793813016, 6.909886423809433 ] } },
{ "type": "Feature", "properties": { "fenceSurveyPointId": "53", "type": "Pedestrian", "authority": "CMC", "material": "Iron", "condition": "Good", "elevation": "6.686" }, "geometry": { "type": "Point", "coordinates": [ 79.86359182962974, 6.909818698060584 ] } },
{ "type": "Feature", "properties": { "fenceSurveyPointId": "54", "type": "Pedestrian", "authority": "CMC", "material": "Iron", "condition": "Good", "elevation": "7.159" }, "geometry": { "type": "Point", "coordinates": [ 79.862822066984606, 6.905482018608454 ] } },
{ "type": "Feature", "properties": { "fenceSurveyPointId": "55", "type": "Pedestrian", "authority": "CMC", "material": "Iron", "condition": "Good", "elevation": "7.098" }, "geometry": { "type": "Point", "coordinates": [ 79.862862039652043, 6.905492330855336 ] } },
{ "type": "Feature", "properties": { "fenceSurveyPointId": "56", "type": "Pedestrian", "authority": "CMC", "material": "Iron", "condition": "Good", "elevation": "7.163" }, "geometry": { "type": "Point", "coordinates": [ 79.862901477949848, 6.90550292238006 ] } },
{ "type": "Feature", "properties": { "fenceSurveyPointId": "57", "type": "Pedestrian", "authority": "CMC", "material": "Iron", "condition": "Good", "elevation": "5.245" }, "geometry": { "type": "Point", "coordinates": [ 79.859109979699809, 6.90576027701087 ] } },
{ "type": "Feature", "properties": { "fenceSurveyPointId": "58", "type": "Pedestrian", "authority": "CMC", "material": "Iron", "condition": "Good", "elevation": "5.248" }, "geometry": { "type": "Point", "coordinates": [ 79.859081452467308, 6.905773685782499 ] } },
{ "type": "Feature", "properties": { "fenceSurveyPointId": "59", "type": "Pedestrian", "authority": "CMC", "material": "Iron", "condition": "Good", "elevation": "5.33" }, "geometry": { "type": "Point", "coordinates": [ 79.859029547732575, 6.905795087979475 ] } },
{ "type": "Feature", "properties": { "fenceSurveyPointId": "60", "type": "Pedestrian", "authority": "CMC", "material": "Iron", "condition": "Good", "elevation": "5.421" }, "geometry": { "type": "Point", "coordinates": [ 79.85895266744248, 6.905808602619162 ] } },
{ "type": "Feature", "properties": { "fenceSurveyPointId": "61", "type": "Pedestrian", "authority": "CMC", "material": "Iron", "condition": "Good", "elevation": "5.412" }, "geometry": { "type": "Point", "coordinates": [ 79.858896847112121, 6.905805375671588 ] } },
{ "type": "Feature", "properties": { "fenceSurveyPointId": "62", "type": "Pedestrian", "authority": "CMC", "material": "Iron", "condition": "Good", "elevation": "5.359" }, "geometry": { "type": "Point", "coordinates": [ 79.858870213212299, 6.905798814111099 ] } },
{ "type": "Feature", "properties": { "fenceSurveyPointId": "63", "type": "Pedestrian", "authority": "CMC", "material": "Iron", "condition": "Good", "elevation": "5.407" }, "geometry": { "type": "Point", "coordinates": [ 79.858827800885535, 6.905782140257147 ] } },
{ "type": "Feature", "properties": { "fenceSurveyPointId": "64", "type": "Pedestrian", "authority": "CMC", "material": "Iron", "condition": "Good", "elevation": "5.408" }, "geometry": { "type": "Point", "coordinates": [ 79.858776715498763, 6.905744598661736 ] } },
{ "type": "Feature", "properties": { "fenceSurveyPointId": "65", "type": "Pedestrian", "authority": "CMC", "material": "Iron", "condition": "Good", "elevation": "5.295" }, "geometry": { "type": "Point", "coordinates": [ 79.858726999222583, 6.905691498272283 ] } },
{ "type": "Feature", "properties": { "fenceSurveyPointId": "66", "type": "Pedestrian", "authority": "CMC", "material": "Iron", "condition": "Good", "elevation": "5.172" }, "geometry": { "type": "Point", "coordinates": [ 79.858645349468091, 6.905578875668059 ] } },
{ "type": "Feature", "properties": { "fenceSurveyPointId": "67", "type": "Pedestrian", "authority": "CMC", "material": "Metal", "condition": "Good", "elevation": "5.197" }, "geometry": { "type": "Point", "coordinates": [ 79.858677101241469, 6.905591848885902 ] } },
{ "type": "Feature", "properties": { "fenceSurveyPointId": "68", "type": "Pedestrian", "authority": "CMC", "material": "Metal", "condition": "Good", "elevation": "5.229" }, "geometry": { "type": "Point", "coordinates": [ 79.858659854259344, 6.905555014407346 ] } },
{ "type": "Feature", "properties": { "fenceSurveyPointId": "69", "type": "Pedestrian", "authority": "CMC", "material": "Metal", "condition": "Good", "elevation": "5.265" }, "geometry": { "type": "Point", "coordinates": [ 79.858636472051273, 6.905504433193763 ] } },
{ "type": "Feature", "properties": { "fenceSurveyPointId": "70", "type": "Pedestrian", "authority": "CMC", "material": "Metal", "condition": "Good", "elevation": "5.217" }, "geometry": { "type": "Point", "coordinates": [ 79.858620134408724, 6.905465249523427 ] } },
{ "type": "Feature", "properties": { "fenceSurveyPointId": "71", "type": "Pedestrian", "authority": "CMC", "material": "Metal", "condition": "Good", "elevation": "5.165" }, "geometry": { "type": "Point", "coordinates": [ 79.858606029102447, 6.905427381252336 ] } },
{ "type": "Feature", "properties": { "fenceSurveyPointId": "72", "type": "Pedestrian", "authority": "CMC", "material": "Iron", "condition": "Good", "elevation": "5.217" }, "geometry": { "type": "Point", "coordinates": [ 79.858574977870987, 6.905304466694719 ] } },
{ "type": "Feature", "properties": { "fenceSurveyPointId": "73", "type": "Pedestrian", "authority": "CMC", "material": "Iron", "condition": "Good", "elevation": "5.212" }, "geometry": { "type": "Point", "coordinates": [ 79.858564776794253, 6.905250176474832 ] } },
{ "type": "Feature", "properties": { "fenceSurveyPointId": "74", "type": "Pedestrian", "authority": "CMC", "material": "Iron", "condition": "Good", "elevation": "5.081" }, "geometry": { "type": "Point", "coordinates": [ 79.85855182479888, 6.905219516963503 ] } },
{ "type": "Feature", "properties": { "fenceSurveyPointId": "75", "type": "Pedestrian", "authority": "CMC", "material": "Iron", "condition": "Good", "elevation": "5.038" }, "geometry": { "type": "Point", "coordinates": [ 79.858542673629316, 6.905122812354149 ] } },
{ "type": "Feature", "properties": { "fenceSurveyPointId": "76", "type": "Pedestrian", "authority": "CMC", "material": "Iron", "condition": "Good", "elevation": "5.049" }, "geometry": { "type": "Point", "coordinates": [ 79.858537664620499, 6.905074002589849 ] } },
{ "type": "Feature", "properties": { "fenceSurveyPointId": "77", "type": "Pedestrian", "authority": "CMC", "material": "Iron", "condition": "Good", "elevation": "5.122" }, "geometry": { "type": "Point", "coordinates": [ 79.858550122929429, 6.90506036398665 ] } },
{ "type": "Feature", "properties": { "fenceSurveyPointId": "78", "type": "Pedestrian", "authority": "CMC", "material": "Iron", "condition": "Good", "elevation": "5.053" }, "geometry": { "type": "Point", "coordinates": [ 79.858486439014939, 6.90371046636099 ] } },
{ "type": "Feature", "properties": { "fenceSurveyPointId": "79", "type": "Pedestrian", "authority": "CMC", "material": "Iron", "condition": "Good", "elevation": "5.038" }, "geometry": { "type": "Point", "coordinates": [ 79.858512421663647, 6.903632356605978 ] } },
{ "type": "Feature", "properties": { "fenceSurveyPointId": "80", "type": "Pedestrian", "authority": "CMC", "material": "Iron", "condition": "Good", "elevation": "9.401" }, "geometry": { "type": "Point", "coordinates": [ 79.859245636732552, 6.901405218777088 ] } },
{ "type": "Feature", "properties": { "fenceSurveyPointId": "81", "type": "Pedestrian", "authority": "CMC", "material": "Iron", "condition": "Good", "elevation": "8.419" }, "geometry": { "type": "Point", "coordinates": [ 79.859265981429743, 6.90133220687996 ] } },
{ "type": "Feature", "properties": { "fenceSurveyPointId": "82", "type": "Pedestrian", "authority": "CMC", "material": "Iron", "condition": "Good", "elevation": "7.275" }, "geometry": { "type": "Point", "coordinates": [ 79.859285311416428, 6.90127398588297 ] } },
{ "type": "Feature", "properties": { "fenceSurveyPointId": "83", "type": "Pedestrian", "authority": "CMC", "material": "Iron", "condition": "Good", "elevation": "7.331" }, "geometry": { "type": "Point", "coordinates": [ 79.859301226211898, 6.901222594135862 ] } }
]
}
