{"type":"FeatureCollection","features":[{"type":"Feature","properties":{"ID":"3023","Elevation":"7.308","Length(cm)":"50","Width(cm)":"50","Material":"Metal","Depth(m)":"1","Condition":"Good"},"geometry":{"type":"Point","coordinates":[79.86012034336795,6.899065704103937]}},{"type":"Feature","properties":{"ID":"3040","Elevation":"7.62","Length(cm)":"50","Width(cm)":"50","Material":"Metal","Depth(m)":"1","Condition":"Good"},"geometry":{"type":"Point","coordinates":[79.85969481910185,6.899672334279239]}},{"type":"Feature","properties":{"ID":"3158","Elevation":"4.952","Length(cm)":"50","Width(cm)":"50","Material":"Metal","Depth(m)":"1","Condition":"Good"},"geometry":{"type":"Point","coordinates":[79.85847576070405,6.903321681435642]}},{"type":"Feature","properties":{"ID":"3179","Elevation":"4.81","Length(cm)":"50","Width(cm)":"50","Material":"Metal","Depth(m)":"1","Condition":"Good"},"geometry":{"type":"Point","coordinates":[79.8582282950744,6.904139531605655]}},{"type":"Feature","properties":{"ID":"4177","Elevation":"6.948","Length(cm)":"50","Width(cm)":"50","Material":"Concrete","Depth(m)":"1","Condition":"Good"},"geometry":{"type":"Point","coordinates":[79.86077941693324,6.908941554039359]}},{"type":"Feature","properties":{"ID":"5044","Elevation":"7.293","Length(cm)":"30","Width(cm)":"40","Material":"Metal","Depth(m)":"1","Condition":"Good"},"geometry":{"type":"Point","coordinates":[79.8608388283443,6.905361001447685]}}]}