{"type":"FeatureCollection","features":[{"type":"Feature","properties":{"ID":"100","Elevation":"7.337","Authority":"CMC","Condition":"Moderate","Material":"Metal"},"geometry":{"type":"Point","coordinates":[79.86429579649624,6.911922215733068]}},{"type":"Feature","properties":{"ID":"102","Elevation":"7.249","Authority":"CMC","Condition":"Good","Material":"Metal"},"geometry":{"type":"Point","coordinates":[79.86421049636326,6.911895378203369]}},{"type":"Feature","properties":{"ID":"103","Elevation":"7.147","Authority":"CMC","Condition":"Good","Material":"Metal"},"geometry":{"type":"Point","coordinates":[79.86412087833314,6.911883695981325]}},{"type":"Feature","properties":{"ID":"106","Elevation":"7.139","Authority":"CMC","Condition":"Good","Material":"Metal"},"geometry":{"type":"Point","coordinates":[79.86399836903186,6.911882023631873]}},{"type":"Feature","properties":{"ID":"110","Elevation":"7.204","Authority":"CMC","Condition":"Good","Material":"Metal"},"geometry":{"type":"Point","coordinates":[79.86390871246174,6.911885721898147]}},{"type":"Feature","properties":{"ID":"170","Elevation":"4.849","Authority":"CMC","Condition":"Moderate","Material":"Metal"},"geometry":{"type":"Point","coordinates":[79.85823095072483,6.91203529884713]}},{"type":"Feature","properties":{"ID":"173","Elevation":"4.593","Authority":"CMC","Condition":"Good","Material":"Metal"},"geometry":{"type":"Point","coordinates":[79.85811439836746,6.91232730511255]}},{"type":"Feature","properties":{"ID":"180","Elevation":"5.264","Authority":"CMC","Condition":"Good","Material":"Metal"},"geometry":{"type":"Point","coordinates":[79.85826671481908,6.911540133082562]}},{"type":"Feature","properties":{"ID":"248","Elevation":"7.335","Authority":"CMC","Condition":"Good","Material":"Metal"},"geometry":{"type":"Point","coordinates":[79.86406237635913,6.911740275782926]}},{"type":"Feature","properties":{"ID":"249","Elevation":"7.287","Authority":"CMC","Condition":"Good","Material":"Metal"},"geometry":{"type":"Point","coordinates":[79.86372592444411,6.911742407155584]}},{"type":"Feature","properties":{"ID":"250","Elevation":"7.226","Authority":"CMC","Condition":"Moderate","Material":"Metal"},"geometry":{"type":"Point","coordinates":[79.86339187525289,6.911746685871527]}},{"type":"Feature","properties":{"ID":"251","Elevation":"7.063","Authority":"CMC","Condition":"Good","Material":"Metal"},"geometry":{"type":"Point","coordinates":[79.86313823127247,6.911749400523994]}},{"type":"Feature","properties":{"ID":"252","Elevation":"6.854","Authority":"CMC","Condition":"Good","Material":"Metal"},"geometry":{"type":"Point","coordinates":[79.86285705980552,6.911753635570455]}},{"type":"Feature","properties":{"ID":"253","Elevation":"6.797","Authority":"CMC","Condition":"Good","Material":"Metal"},"geometry":{"type":"Point","coordinates":[79.86262686748425,6.91175700978939]}},{"type":"Feature","properties":{"ID":"254","Elevation":"6.727","Authority":"CMC","Condition":"Good","Material":"Metal"},"geometry":{"type":"Point","coordinates":[79.86228863289467,6.911749877624611]}},{"type":"Feature","properties":{"ID":"255","Elevation":"6.71","Authority":"CMC","Condition":"Good","Material":"Metal"},"geometry":{"type":"Point","coordinates":[79.86202043952491,6.911729045285371]}},{"type":"Feature","properties":{"ID":"256","Elevation":"6.715","Authority":"CMC","Condition":"Good","Material":"Metal"},"geometry":{"type":"Point","coordinates":[79.86180269719087,6.911704376363792]}},{"type":"Feature","properties":{"ID":"257","Elevation":"6.767","Authority":"CMC","Condition":"Good","Material":"Metal"},"geometry":{"type":"Point","coordinates":[79.86150167474918,6.911680062792966]}},{"type":"Feature","properties":{"ID":"258","Elevation":"6.66","Authority":"CMC","Condition":"Good","Material":"Metal"},"geometry":{"type":"Point","coordinates":[79.86119567053592,6.911686735738083]}},{"type":"Feature","properties":{"ID":"259","Elevation":"6.588","Authority":"CMC","Condition":"Good","Material":"Metal"},"geometry":{"type":"Point","coordinates":[79.86092558742808,6.911698206536368]}},{"type":"Feature","properties":{"ID":"260","Elevation":"6.534","Authority":"CMC","Condition":"Good","Material":"Metal"},"geometry":{"type":"Point","coordinates":[79.86059855701575,6.9117133744121775]}},{"type":"Feature","properties":{"ID":"261","Elevation":"6.292","Authority":"CMC","Condition":"Good","Material":"Metal"},"geometry":{"type":"Point","coordinates":[79.86024884541912,6.9117271963766065]}},{"type":"Feature","properties":{"ID":"262","Elevation":"5.871","Authority":"CMC","Condition":"Good","Material":"Metal"},"geometry":{"type":"Point","coordinates":[79.85995306719663,6.91174248720716]}},{"type":"Feature","properties":{"ID":"263","Elevation":"5.607","Authority":"CMC","Condition":"Good","Material":"Metal"},"geometry":{"type":"Point","coordinates":[79.8596376659762,6.911756483234647]}},{"type":"Feature","properties":{"ID":"264","Elevation":"5.277","Authority":"CMC","Condition":"Good","Material":"Metal"},"geometry":{"type":"Point","coordinates":[79.85936606663635,6.911765970004161]}},{"type":"Feature","properties":{"ID":"265","Elevation":"4.958","Authority":"CMC","Condition":"Good","Material":"Metal"},"geometry":{"type":"Point","coordinates":[79.85905522636095,6.91177963082344]}},{"type":"Feature","properties":{"ID":"266","Elevation":"4.867","Authority":"CMC","Condition":"Good","Material":"Metal"},"geometry":{"type":"Point","coordinates":[79.85874660841887,6.911790429379298]}},{"type":"Feature","properties":{"ID":"267","Elevation":"4.82","Authority":"CMC","Condition":"Good","Material":"Metal"},"geometry":{"type":"Point","coordinates":[79.85843196087481,6.911798367857826]}},{"type":"Feature","properties":{"ID":"1006","Elevation":"7.037","Authority":"CMC","Condition":"Good","Material":"Metal"},"geometry":{"type":"Point","coordinates":[79.8638153172771,6.907493390968222]}},{"type":"Feature","properties":{"ID":"1012","Elevation":"7.171","Authority":"CMC","Condition":"Good","Material":"Metal"},"geometry":{"type":"Point","coordinates":[79.86404345243756,6.9075992314405985]}},{"type":"Feature","properties":{"ID":"1054","Elevation":"7.262","Authority":"CMC","Condition":"Moderate","Material":"Metal"},"geometry":{"type":"Point","coordinates":[79.86275817206446,6.904990313726635]}},{"type":"Feature","properties":{"ID":"1060","Elevation":"7.3","Authority":"CMC","Condition":"Good","Material":"Metal"},"geometry":{"type":"Point","coordinates":[79.86289340305298,6.905217348554356]}},{"type":"Feature","properties":{"ID":"1072","Elevation":"7.282","Authority":"CMC","Condition":"Good","Material":"Metal"},"geometry":{"type":"Point","coordinates":[79.86325226734859,6.905623040471171]}},{"type":"Feature","properties":{"ID":"1077","Elevation":"7.143","Authority":"CMC","Condition":"Good","Material":"Metal"},"geometry":{"type":"Point","coordinates":[79.86342583170709,6.9058331404408815]}},{"type":"Feature","properties":{"ID":"1090","Elevation":"7.306","Authority":"CMC","Condition":"Moderate","Material":"Metal"},"geometry":{"type":"Point","coordinates":[79.86375415072104,6.906252915422938]}},{"type":"Feature","properties":{"ID":"1096","Elevation":"7.3","Authority":"CMC","Condition":"Moderate","Material":"Metal"},"geometry":{"type":"Point","coordinates":[79.86390239240819,6.906480598874797]}},{"type":"Feature","properties":{"ID":"1104","Elevation":"7.364","Authority":"CMC","Condition":"Good","Material":"Metal"},"geometry":{"type":"Point","coordinates":[79.86409862225314,6.906837350600963]}},{"type":"Feature","properties":{"ID":"1111","Elevation":"7.437","Authority":"CMC","Condition":"Good","Material":"Metal"},"geometry":{"type":"Point","coordinates":[79.8642143939283,6.907124694889557]}},{"type":"Feature","properties":{"ID":"1118","Elevation":"7.388","Authority":"CMC","Condition":"Good","Material":"Metal"},"geometry":{"type":"Point","coordinates":[79.86443954761118,6.907639069458972]}},{"type":"Feature","properties":{"ID":"1126","Elevation":"7.473","Authority":"CMC","Condition":"Good","Material":"Metal"},"geometry":{"type":"Point","coordinates":[79.86462618350376,6.907794679347504]}},{"type":"Feature","properties":{"ID":"1133","Elevation":"7.377","Authority":"CMC","Condition":"Moderate","Material":"Metal"},"geometry":{"type":"Point","coordinates":[79.86479829948357,6.907807423395008]}},{"type":"Feature","properties":{"ID":"1136","Elevation":"7.439","Authority":"CMC","Condition":"Good","Material":"Metal"},"geometry":{"type":"Point","coordinates":[79.86491534511006,6.9081007649340815]}},{"type":"Feature","properties":{"ID":"1141","Elevation":"7.412","Authority":"CMC","Condition":"Moderate","Material":"Metal"},"geometry":{"type":"Point","coordinates":[79.86478321040838,6.9082734242164605]}},{"type":"Feature","properties":{"ID":"1146","Elevation":"7.347","Authority":"CMC","Condition":"Good","Material":"Metal"},"geometry":{"type":"Point","coordinates":[79.86460793006589,6.9083679223949845]}},{"type":"Feature","properties":{"ID":"1154","Elevation":"7.205","Authority":"CMC","Condition":"Good","Material":"Metal"},"geometry":{"type":"Point","coordinates":[79.86441099335032,6.9086345586469]}},{"type":"Feature","properties":{"ID":"1158","Elevation":"7.032","Authority":"CMC","Condition":"Good","Material":"Metal"},"geometry":{"type":"Point","coordinates":[79.86420072191576,6.908928232250751]}},{"type":"Feature","properties":{"ID":"1166","Elevation":"6.951","Authority":"CMC","Condition":"Good","Material":"Metal"},"geometry":{"type":"Point","coordinates":[79.86399004243846,6.909222221416833]}},{"type":"Feature","properties":{"ID":"1173","Elevation":"6.811","Authority":"CMC","Condition":"Moderate","Material":"Metal"},"geometry":{"type":"Point","coordinates":[79.86377953658484,6.909510460013407]}},{"type":"Feature","properties":{"ID":"1183","Elevation":"6.586","Authority":"CMC","Condition":"Good","Material":"Metal"},"geometry":{"type":"Point","coordinates":[79.86360785269027,6.909814614605396]}},{"type":"Feature","properties":{"ID":"1203","Elevation":"6.875","Authority":"CMC","Condition":"Good","Material":"Metal"},"geometry":{"type":"Point","coordinates":[79.86461472751414,6.911261171030195]}},{"type":"Feature","properties":{"ID":"1204","Elevation":"7.444","Authority":"CMC","Condition":"Good","Material":"Metal"},"geometry":{"type":"Point","coordinates":[79.86448846114507,6.911411697223332]}},{"type":"Feature","properties":{"ID":"1205","Elevation":"7.301","Authority":"CMC","Condition":"Good","Material":"Metal"},"geometry":{"type":"Point","coordinates":[79.86444723661704,6.911294224781888]}},{"type":"Feature","properties":{"ID":"1208","Elevation":"7.235","Authority":"CMC","Condition":"Good","Material":"Metal"},"geometry":{"type":"Point","coordinates":[79.86439774711256,6.911155243455787]}},{"type":"Feature","properties":{"ID":"1211","Elevation":"7.312","Authority":"CMC","Condition":"Good","Material":"Metal"},"geometry":{"type":"Point","coordinates":[79.86425070791653,6.910908420171551]}},{"type":"Feature","properties":{"ID":"1214","Elevation":"7.303","Authority":"CMC","Condition":"Good","Material":"Metal"},"geometry":{"type":"Point","coordinates":[79.86406719688858,6.910660975446529]}},{"type":"Feature","properties":{"ID":"1217","Elevation":"7.219","Authority":"CMC","Condition":"Good","Material":"Metal"},"geometry":{"type":"Point","coordinates":[79.8638848279492,6.91044559612573]}},{"type":"Feature","properties":{"ID":"1220","Elevation":"7.142","Authority":"CMC","Condition":"Good","Material":"Metal"},"geometry":{"type":"Point","coordinates":[79.86370540021522,6.9102535962010245]}},{"type":"Feature","properties":{"ID":"1222","Elevation":"6.941","Authority":"CMC","Condition":"Good","Material":"Metal"},"geometry":{"type":"Point","coordinates":[79.86351451391673,6.9100446836404466]}},{"type":"Feature","properties":{"ID":"1225","Elevation":"6.742","Authority":"CMC","Condition":"Good","Material":"Metal"},"geometry":{"type":"Point","coordinates":[79.86333145399558,6.909850144865118]}},{"type":"Feature","properties":{"ID":"1230","Elevation":"6.813","Authority":"CMC","Condition":"Good","Material":"Metal"},"geometry":{"type":"Point","coordinates":[79.86358754916206,6.909554931991105]}},{"type":"Feature","properties":{"ID":"1231","Elevation":"6.907","Authority":"CMC","Condition":"Good","Material":"Metal"},"geometry":{"type":"Point","coordinates":[79.86376027701915,6.909310267329555]}},{"type":"Feature","properties":{"ID":"1235","Elevation":"6.928","Authority":"CMC","Condition":"Good","Material":"Metal"},"geometry":{"type":"Point","coordinates":[79.86396890802035,6.909018245543606]}},{"type":"Feature","properties":{"ID":"1243","Elevation":"7.15","Authority":"CMC","Condition":"Good","Material":"Metal"},"geometry":{"type":"Point","coordinates":[79.8642041941363,6.908707557517907]}},{"type":"Feature","properties":{"ID":"1244","Elevation":"6.991","Authority":"CMC","Condition":"Good","Material":"Metal"},"geometry":{"type":"Point","coordinates":[79.86420774613386,6.908681278945905]}},{"type":"Feature","properties":{"ID":"1246","Elevation":"7.219","Authority":"CMC","Condition":"Good","Material":"Metal"},"geometry":{"type":"Point","coordinates":[79.86442283631216,6.90839429665208]}},{"type":"Feature","properties":{"ID":"1269","Elevation":"7.019","Authority":"CMC","Condition":"Good","Material":"Metal"},"geometry":{"type":"Point","coordinates":[79.86433521956762,6.911336996436786]}},{"type":"Feature","properties":{"ID":"2002","Elevation":"7.301","Authority":"CMC","Condition":"Good","Material":"Metal"},"geometry":{"type":"Point","coordinates":[79.86417961549232,6.907784366766538]}},{"type":"Feature","properties":{"ID":"2010","Elevation":"7.178","Authority":"CMC","Condition":"Good","Material":"Metal"},"geometry":{"type":"Point","coordinates":[79.86395284227322,6.907699597034038]}},{"type":"Feature","properties":{"ID":"2016","Elevation":"6.842","Authority":"CMC","Condition":"Good","Material":"Fiber"},"geometry":{"type":"Point","coordinates":[79.8636812192827,6.907571520103993]}},{"type":"Feature","properties":{"ID":"2025","Elevation":"6.899","Authority":"CMC","Condition":"Good","Material":"Fiber"},"geometry":{"type":"Point","coordinates":[79.86353105764914,6.907505071510666]}},{"type":"Feature","properties":{"ID":"2034","Elevation":"6.869","Authority":"CMC","Condition":"Good","Material":"Fiber"},"geometry":{"type":"Point","coordinates":[79.86329998006174,6.907423846797073]}},{"type":"Feature","properties":{"ID":"2037","Elevation":"6.941","Authority":"CMC","Condition":"Good","Material":"Fiber"},"geometry":{"type":"Point","coordinates":[79.86317997629178,6.907380757355388]}},{"type":"Feature","properties":{"ID":"2043","Elevation":"7.074","Authority":"CMC","Condition":"Good","Material":"Fiber"},"geometry":{"type":"Point","coordinates":[79.86297835615939,6.907310683589219]}},{"type":"Feature","properties":{"ID":"2059","Elevation":"7.019","Authority":"CMC","Condition":"Good","Material":"Fiber"},"geometry":{"type":"Point","coordinates":[79.86272409563261,6.907230463073766]}},{"type":"Feature","properties":{"ID":"2061","Elevation":"6.948","Authority":"CMC","Condition":"Good","Material":"Concreate"},"geometry":{"type":"Point","coordinates":[79.8626768780257,6.907209304482202]}},{"type":"Feature","properties":{"ID":"2065","Elevation":"6.903","Authority":"CMC","Condition":"Good","Material":"Fiber"},"geometry":{"type":"Point","coordinates":[79.86249275919211,6.907166408438885]}},{"type":"Feature","properties":{"ID":"2075","Elevation":"7.001","Authority":"CMC","Condition":"Good","Material":"Fiber"},"geometry":{"type":"Point","coordinates":[79.86227242835596,6.907147883652437]}},{"type":"Feature","properties":{"ID":"2078","Elevation":"7.25","Authority":"CMC","Condition":"Good","Material":"Fiber"},"geometry":{"type":"Point","coordinates":[79.86208448518767,6.9071175938411145]}},{"type":"Feature","properties":{"ID":"2085","Elevation":"7.05","Authority":"CMC","Condition":"Good","Material":"Fiber"},"geometry":{"type":"Point","coordinates":[79.86190069088394,6.9071036419341665]}},{"type":"Feature","properties":{"ID":"2089","Elevation":"6.941","Authority":"CMC","Condition":"Good","Material":"Concreate"},"geometry":{"type":"Point","coordinates":[79.86177579021705,6.907094622407117]}},{"type":"Feature","properties":{"ID":"2090","Elevation":"6.952","Authority":"CMC","Condition":"Good","Material":"Fiber"},"geometry":{"type":"Point","coordinates":[79.86170331890563,6.907083162638841]}},{"type":"Feature","properties":{"ID":"2095","Elevation":"6.806","Authority":"CMC","Condition":"Good","Material":"Metal"},"geometry":{"type":"Point","coordinates":[79.86145065355923,6.907067649738768]}},{"type":"Feature","properties":{"ID":"2107","Elevation":"6.347","Authority":"CMC","Condition":"Weak","Material":"Fiber"},"geometry":{"type":"Point","coordinates":[79.86098226561543,6.907036992884308]}},{"type":"Feature","properties":{"ID":"2118","Elevation":"5.852","Authority":"CMC","Condition":"Weak","Material":"Fiber"},"geometry":{"type":"Point","coordinates":[79.86046775201163,6.90706674754609]}},{"type":"Feature","properties":{"ID":"2128","Elevation":"5.829","Authority":"CMC","Condition":"Good","Material":"Metal"},"geometry":{"type":"Point","coordinates":[79.86025093262477,6.907160766395117]}},{"type":"Feature","properties":{"ID":"2134","Elevation":"6.088","Authority":"CMC","Condition":"Good","Material":"Metal"},"geometry":{"type":"Point","coordinates":[79.86017823564539,6.907374689002303]}},{"type":"Feature","properties":{"ID":"2140","Elevation":"7.242","Authority":"CMC","Condition":"Good","Material":"Metal"},"geometry":{"type":"Point","coordinates":[79.86404321422309,6.90759605720909]}},{"type":"Feature","properties":{"ID":"2143","Elevation":"7.17","Authority":"CMC","Condition":"Good","Material":"Metal"},"geometry":{"type":"Point","coordinates":[79.86396298676806,6.907580785240253]}},{"type":"Feature","properties":{"ID":"2144","Elevation":"7.015","Authority":"CMC","Condition":"Good","Material":"Metal"},"geometry":{"type":"Point","coordinates":[79.86381768208359,6.907491695582368]}},{"type":"Feature","properties":{"ID":"2154","Elevation":"6.991","Authority":"CMC","Condition":"Good","Material":"Metal"},"geometry":{"type":"Point","coordinates":[79.86358984781735,6.907394147191376]}},{"type":"Feature","properties":{"ID":"2160","Elevation":"7.06","Authority":"CMC","Condition":"Weak","Material":"Metal"},"geometry":{"type":"Point","coordinates":[79.86333597802,6.90728937844726]}},{"type":"Feature","properties":{"ID":"2167","Elevation":"7.007","Authority":"CMC","Condition":"Good","Material":"Metal"},"geometry":{"type":"Point","coordinates":[79.86307682439266,6.907208117941413]}},{"type":"Feature","properties":{"ID":"2174","Elevation":"7.01","Authority":"CMC","Condition":"Good","Material":"Metal"},"geometry":{"type":"Point","coordinates":[79.86281440103741,6.907133379429402]}},{"type":"Feature","properties":{"ID":"2182","Elevation":"7.072","Authority":"CMC","Condition":"Good","Material":"Metal"},"geometry":{"type":"Point","coordinates":[79.8625501144618,6.90706776068177]}},{"type":"Feature","properties":{"ID":"2189","Elevation":"6.983","Authority":"CMC","Condition":"Good","Material":"Metal"},"geometry":{"type":"Point","coordinates":[79.86230210169234,6.907018258887311]}},{"type":"Feature","properties":{"ID":"2192","Elevation":"7.125","Authority":"CMC","Condition":"Good","Material":"Metal"},"geometry":{"type":"Point","coordinates":[79.86205103105468,6.906992142993274]}},{"type":"Feature","properties":{"ID":"2199","Elevation":"6.971","Authority":"CMC","Condition":"Good","Material":"Metal"},"geometry":{"type":"Point","coordinates":[79.8617799693004,6.906972779220229]}},{"type":"Feature","properties":{"ID":"2207","Elevation":"6.964","Authority":"CMC","Condition":"Good","Material":"Metal"},"geometry":{"type":"Point","coordinates":[79.8614942454311,6.906950918662202]}},{"type":"Feature","properties":{"ID":"2225","Elevation":"6.577","Authority":"CMC","Condition":"Good","Material":"Concreate"},"geometry":{"type":"Point","coordinates":[79.86118638810896,6.906925326265997]}},{"type":"Feature","properties":{"ID":"2231","Elevation":"6.466","Authority":"CMC","Condition":"Good","Material":"Metal"},"geometry":{"type":"Point","coordinates":[79.86093577163054,6.906917213467898]}},{"type":"Feature","properties":{"ID":"2232","Elevation":"6.343","Authority":"CMC","Condition":"Good","Material":"Metal"},"geometry":{"type":"Point","coordinates":[79.8609221278582,6.90691682557957]}},{"type":"Feature","properties":{"ID":"2234","Elevation":"6.207","Authority":"CMC","Condition":"Good","Material":"Metal"},"geometry":{"type":"Point","coordinates":[79.86083427243909,6.906916032927295]}},{"type":"Feature","properties":{"ID":"2240","Elevation":"5.933","Authority":"CMC","Condition":"Good","Material":"Metal"},"geometry":{"type":"Point","coordinates":[79.86058270233379,6.906914500752648]}},{"type":"Feature","properties":{"ID":"2248","Elevation":"5.848","Authority":"CMC","Condition":"Good","Material":"Fiber"},"geometry":{"type":"Point","coordinates":[79.86036394148043,6.906997150032356]}},{"type":"Feature","properties":{"ID":"2250","Elevation":"5.764","Authority":"CMC","Condition":"Good","Material":"Metal"},"geometry":{"type":"Point","coordinates":[79.86029294914553,6.906917759702504]}},{"type":"Feature","properties":{"ID":"2256","Elevation":"5.713","Authority":"CMC","Condition":"Good","Material":"Metal"},"geometry":{"type":"Point","coordinates":[79.86001442260176,6.906931483668828]}},{"type":"Feature","properties":{"ID":"2264","Elevation":"6.022","Authority":"CMC","Condition":"Good","Material":"Fiber"},"geometry":{"type":"Point","coordinates":[79.86019505569271,6.907088132415838]}},{"type":"Feature","properties":{"ID":"3000","Elevation":"7.282","Authority":"CMC","Condition":"Good","Material":"Metal"},"geometry":{"type":"Point","coordinates":[79.86033680805095,6.898843530593347]}},{"type":"Feature","properties":{"ID":"3020","Elevation":"7.395","Authority":"CMC","Condition":"Good","Material":"Metal"},"geometry":{"type":"Point","coordinates":[79.86012041852918,6.899040729998517]}},{"type":"Feature","properties":{"ID":"3027","Elevation":"7.459","Authority":"CMC","Condition":"Good","Material":"Metal"},"geometry":{"type":"Point","coordinates":[79.85993682074832,6.899213271193076]}},{"type":"Feature","properties":{"ID":"3032","Elevation":"7.567","Authority":"CMC","Condition":"Good","Material":"Metal"},"geometry":{"type":"Point","coordinates":[79.85979441912303,6.899413515016106]}},{"type":"Feature","properties":{"ID":"3038","Elevation":"7.74","Authority":"CMC","Condition":"Good","Material":"Metal"},"geometry":{"type":"Point","coordinates":[79.85967350822807,6.899659761001501]}},{"type":"Feature","properties":{"ID":"3058","Elevation":"7.494","Authority":"CMC","Condition":"Good","Material":"Metal"},"geometry":{"type":"Point","coordinates":[79.85959628592303,6.899898594998192]}},{"type":"Feature","properties":{"ID":"3070","Elevation":"7.537","Authority":"CMC","Condition":"Good","Material":"Metal"},"geometry":{"type":"Point","coordinates":[79.85950405639868,6.900177962932063]}},{"type":"Feature","properties":{"ID":"3075","Elevation":"7.596","Authority":"CMC","Condition":"Good","Material":"Metal"},"geometry":{"type":"Point","coordinates":[79.8594230533507,6.900444223298877]}},{"type":"Feature","properties":{"ID":"3082","Elevation":"7.386","Authority":"CMC","Condition":"Good","Material":"Metal"},"geometry":{"type":"Point","coordinates":[79.85934324050558,6.900703170877272]}},{"type":"Feature","properties":{"ID":"3089","Elevation":"2.702","Authority":"CMC","Condition":"Good","Material":"Metal"},"geometry":{"type":"Point","coordinates":[79.85928166279668,6.900950859919672]}},{"type":"Feature","properties":{"ID":"3098","Elevation":"8.409","Authority":"CMC","Condition":"Good","Material":"Metal"},"geometry":{"type":"Point","coordinates":[79.85919014050455,6.901224514491938]}},{"type":"Feature","properties":{"ID":"3099","Elevation":"9.136","Authority":"CMC","Condition":"Good","Material":"Metal"},"geometry":{"type":"Point","coordinates":[79.85916731310037,6.9012429797498624]}},{"type":"Feature","properties":{"ID":"3110","Elevation":"6.935","Authority":"CMC","Condition":"Good","Material":"Metal"},"geometry":{"type":"Point","coordinates":[79.85907351245838,6.901548548461476]}},{"type":"Feature","properties":{"ID":"3111","Elevation":"6.813","Authority":"CMC","Condition":"Good","Material":"Metal"},"geometry":{"type":"Point","coordinates":[79.85905735430424,6.901599433370913]}},{"type":"Feature","properties":{"ID":"3114","Elevation":"6.406","Authority":"CMC","Condition":"Good","Material":"Metal"},"geometry":{"type":"Point","coordinates":[79.85899114730279,6.901802969969604]}},{"type":"Feature","properties":{"ID":"3123","Elevation":"6.009","Authority":"CMC","Condition":"Good","Material":"Metal"},"geometry":{"type":"Point","coordinates":[79.85891754689989,6.902039975169186]}},{"type":"Feature","properties":{"ID":"3128","Elevation":"5.654","Authority":"CMC","Condition":"Good","Material":"Metal"},"geometry":{"type":"Point","coordinates":[79.85883402161072,6.902304720452237]}},{"type":"Feature","properties":{"ID":"3131","Elevation":"5.427","Authority":"CMC","Condition":"Good","Material":"Metal"},"geometry":{"type":"Point","coordinates":[79.85873756293348,6.9026042528457925]}},{"type":"Feature","properties":{"ID":"3137","Elevation":"5.455","Authority":"CMC","Condition":"Poor","Material":"Metal"},"geometry":{"type":"Point","coordinates":[79.8586692506102,6.902815525328635]}},{"type":"Feature","properties":{"ID":"3146","Elevation":"5.351","Authority":"CMC","Condition":"Good","Material":"Metal"},"geometry":{"type":"Point","coordinates":[79.8585714382222,6.903061471662623]}},{"type":"Feature","properties":{"ID":"3159","Elevation":"5.029","Authority":"CMC","Condition":"Good","Material":"Metal"},"geometry":{"type":"Point","coordinates":[79.85846200716756,6.903354830366159]}},{"type":"Feature","properties":{"ID":"3166","Elevation":"5.13","Authority":"CMC","Condition":"Good","Material":"Metal"},"geometry":{"type":"Point","coordinates":[79.85840417429371,6.903579089293717]}},{"type":"Feature","properties":{"ID":"3171","Elevation":"4.988","Authority":"CMC","Condition":"Good","Material":"Metal"},"geometry":{"type":"Point","coordinates":[79.85831383847635,6.903865594621262]}},{"type":"Feature","properties":{"ID":"3175","Elevation":"5.106","Authority":"CMC","Condition":"Good","Material":"Metal"},"geometry":{"type":"Point","coordinates":[79.85828044832698,6.904054844418223]}},{"type":"Feature","properties":{"ID":"3185","Elevation":"5.177","Authority":"CMC","Condition":"Good","Material":"Metal"},"geometry":{"type":"Point","coordinates":[79.85831444995087,6.90424771421271]}},{"type":"Feature","properties":{"ID":"3190","Elevation":"5.315","Authority":"CMC","Condition":"Good","Material":"Metal"},"geometry":{"type":"Point","coordinates":[79.8583531748313,6.904496816770644]}},{"type":"Feature","properties":{"ID":"3196","Elevation":"5.266","Authority":"CMC","Condition":"Good","Material":"Metal"},"geometry":{"type":"Point","coordinates":[79.85837507356256,6.904758346921008]}},{"type":"Feature","properties":{"ID":"3200","Elevation":"5.038","Authority":"CMC","Condition":"Good","Material":"Metal"},"geometry":{"type":"Point","coordinates":[79.85839720747873,6.905033992214347]}},{"type":"Feature","properties":{"ID":"3215","Elevation":"4.941","Authority":"CMC","Condition":"Good","Material":"Metal"},"geometry":{"type":"Point","coordinates":[79.85841692770565,6.9053132225661225]}},{"type":"Feature","properties":{"ID":"3224","Elevation":"5.209","Authority":"CMC","Condition":"Poor","Material":"Metal"},"geometry":{"type":"Point","coordinates":[79.85850549528179,6.905643727497284]}},{"type":"Feature","properties":{"ID":"3225","Elevation":"5.227","Authority":"CMC","Condition":"Good","Material":"Metal"},"geometry":{"type":"Point","coordinates":[79.85852425387787,6.9056427056906795]}},{"type":"Feature","properties":{"ID":"3232","Elevation":"5.584","Authority":"CMC","Condition":"Good","Material":"Metal"},"geometry":{"type":"Point","coordinates":[79.85867730612156,6.905814139847973]}},{"type":"Feature","properties":{"ID":"3245","Elevation":"5.967","Authority":"CMC","Condition":"Good","Material":"Metal"},"geometry":{"type":"Point","coordinates":[79.85882693379637,6.906001996842834]}},{"type":"Feature","properties":{"ID":"3313","Elevation":"6.226","Authority":"CMC","Condition":"Good","Material":"Metal"},"geometry":{"type":"Point","coordinates":[79.86008554437073,6.907230325708173]}},{"type":"Feature","properties":{"ID":"3315","Elevation":"6.211","Authority":"CMC","Condition":"Good","Material":"Metal"},"geometry":{"type":"Point","coordinates":[79.8599960843456,6.9070901279744135]}},{"type":"Feature","properties":{"ID":"3316","Elevation":"6.11","Authority":"CMC","Condition":"Good","Material":"Metal"},"geometry":{"type":"Point","coordinates":[79.85992351993144,6.906976682079248]}},{"type":"Feature","properties":{"ID":"3318","Elevation":"6.1","Authority":"CMC","Condition":"Good","Material":"Metal"},"geometry":{"type":"Point","coordinates":[79.85980601609509,6.906796211203638]}},{"type":"Feature","properties":{"ID":"3322","Elevation":"6.072","Authority":"CMC","Condition":"Good","Material":"Metal"},"geometry":{"type":"Point","coordinates":[79.85966165432286,6.906608066178606]}},{"type":"Feature","properties":{"ID":"3326","Elevation":"6.137","Authority":"CMC","Condition":"Good","Material":"Metal"},"geometry":{"type":"Point","coordinates":[79.85950979531482,6.906408703559398]}},{"type":"Feature","properties":{"ID":"3327","Elevation":"5.922","Authority":"CMC","Condition":"Good","Material":"Metal"},"geometry":{"type":"Point","coordinates":[79.85936362619067,6.906214804229436]}},{"type":"Feature","properties":{"ID":"3336","Elevation":"5.421","Authority":"CMC","Condition":"Good","Material":"Metal"},"geometry":{"type":"Point","coordinates":[79.85920173237314,6.905982952113204]}},{"type":"Feature","properties":{"ID":"4070","Elevation":"6.899","Authority":"CMC","Condition":"Good","Material":"Metal"},"geometry":{"type":"Point","coordinates":[79.86038199452634,6.909313685846386]}},{"type":"Feature","properties":{"ID":"4076","Elevation":"7.211","Authority":"CMC","Condition":"Good","Material":"Metal"},"geometry":{"type":"Point","coordinates":[79.86008114524158,6.909430564071403]}},{"type":"Feature","properties":{"ID":"4081","Elevation":"7.324","Authority":"CMC","Condition":"Good","Material":"Metal"},"geometry":{"type":"Point","coordinates":[79.85995540126024,6.9094833088525185]}},{"type":"Feature","properties":{"ID":"4082","Elevation":"7.283","Authority":"CMC","Condition":"Good","Material":"Metal"},"geometry":{"type":"Point","coordinates":[79.85994149814356,6.909490696620744]}},{"type":"Feature","properties":{"ID":"4084","Elevation":"7.272","Authority":"CMC","Condition":"Good","Material":"Metal"},"geometry":{"type":"Point","coordinates":[79.85985034330733,6.909535008339042]}},{"type":"Feature","properties":{"ID":"4090","Elevation":"7.241","Authority":"CMC","Condition":"Good","Material":"Metal"},"geometry":{"type":"Point","coordinates":[79.85994957734668,6.909632039943714]}},{"type":"Feature","properties":{"ID":"4091","Elevation":"7.188","Authority":"CMC","Condition":"Good","Material":"Metal"},"geometry":{"type":"Point","coordinates":[79.85995250092171,6.909636204925955]}},{"type":"Feature","properties":{"ID":"4112","Elevation":"6.752","Authority":"CMC","Condition":"Good","Material":"Metal"},"geometry":{"type":"Point","coordinates":[79.86094973552774,6.909333674919119]}},{"type":"Feature","properties":{"ID":"4117","Elevation":"6.524","Authority":"CMC","Condition":"Good","Material":"Metal"},"geometry":{"type":"Point","coordinates":[79.86118881281021,6.90931568832846]}},{"type":"Feature","properties":{"ID":"4122","Elevation":"7.193","Authority":"CMC","Condition":"Good","Material":"Metal"},"geometry":{"type":"Point","coordinates":[79.86149996886145,6.90931113188888]}},{"type":"Feature","properties":{"ID":"4154","Elevation":"3.828","Authority":"CMC","Condition":"Good","Material":"Metal"},"geometry":{"type":"Point","coordinates":[79.86044521424022,6.907813815689221]}},{"type":"Feature","properties":{"ID":"4156","Elevation":"6.874","Authority":"CMC","Condition":"Good","Material":"Metal"},"geometry":{"type":"Point","coordinates":[79.86056616749673,6.908040461987264]}},{"type":"Feature","properties":{"ID":"4165","Elevation":"6.965","Authority":"CMC","Condition":"Good","Material":"Metal"},"geometry":{"type":"Point","coordinates":[79.86064352878017,6.90831322956649]}},{"type":"Feature","properties":{"ID":"4168","Elevation":"6.877","Authority":"CMC","Condition":"Good","Material":"Metal"},"geometry":{"type":"Point","coordinates":[79.86068921904305,6.908573277362042]}},{"type":"Feature","properties":{"ID":"4173","Elevation":"6.864","Authority":"CMC","Condition":"Good","Material":"Metal"},"geometry":{"type":"Point","coordinates":[79.8607416593925,6.90885205524746]}},{"type":"Feature","properties":{"ID":"4183","Elevation":"6.904","Authority":"CMC","Condition":"Good","Material":"Metal"},"geometry":{"type":"Point","coordinates":[79.86079365625069,6.909126220815367]}},{"type":"Feature","properties":{"ID":"4194","Elevation":"6.745","Authority":"CMC","Condition":"Good","Material":"Metal"},"geometry":{"type":"Point","coordinates":[79.86088921950875,6.909207783217208]}},{"type":"Feature","properties":{"ID":"4202","Elevation":"6.531","Authority":"CMC","Condition":"Good","Material":"Metal"},"geometry":{"type":"Point","coordinates":[79.86153053296066,6.909189031955952]}},{"type":"Feature","properties":{"ID":"4221","Elevation":"6.621","Authority":"CMC","Condition":"Good","Material":"Metal"},"geometry":{"type":"Point","coordinates":[79.86208853419785,6.909239382380706]}},{"type":"Feature","properties":{"ID":"4271","Elevation":"6.881","Authority":"CMC","Condition":"Good","Material":"Metal"},"geometry":{"type":"Point","coordinates":[79.86255140175072,6.909507373696321]}},{"type":"Feature","properties":{"ID":"4272","Elevation":"6.83","Authority":"CMC","Condition":"Good","Material":"Metal"},"geometry":{"type":"Point","coordinates":[79.86242675752581,6.909463425152967]}},{"type":"Feature","properties":{"ID":"4274","Elevation":"7.356","Authority":"CMC","Condition":"Good","Material":"Metal"},"geometry":{"type":"Point","coordinates":[79.86216577835829,6.909380551032403]}},{"type":"Feature","properties":{"ID":"4296","Elevation":"7.049","Authority":"CMC","Condition":"Good","Material":"Metal"},"geometry":{"type":"Point","coordinates":[79.86313387530996,6.909766994871324]}},{"type":"Feature","properties":{"ID":"4298","Elevation":"6.808","Authority":"CMC","Condition":"Good","Material":"Metal"},"geometry":{"type":"Point","coordinates":[79.86333143238632,6.909847260396087]}},{"type":"Feature","properties":{"ID":"4301","Elevation":"7.042","Authority":"CMC","Condition":"Good","Material":"Metal"},"geometry":{"type":"Point","coordinates":[79.86351549432331,6.91004301273172]}},{"type":"Feature","properties":{"ID":"4303","Elevation":"7.31","Authority":"CMC","Condition":"Good","Material":"Metal"},"geometry":{"type":"Point","coordinates":[79.86370498891014,6.910251036500584]}},{"type":"Feature","properties":{"ID":"4306","Elevation":"7.355","Authority":"CMC","Condition":"Moderate","Material":"Metal"},"geometry":{"type":"Point","coordinates":[79.86388583541329,6.910443970478503]}},{"type":"Feature","properties":{"ID":"4313","Elevation":"7.339","Authority":"CMC","Condition":"Good","Material":"Metal"},"geometry":{"type":"Point","coordinates":[79.8640668857525,6.910658081380482]}},{"type":"Feature","properties":{"ID":"4317","Elevation":"7.395","Authority":"CMC","Condition":"Good","Material":"Metal"},"geometry":{"type":"Point","coordinates":[79.86424805899595,6.910907275795579]}},{"type":"Feature","properties":{"ID":"4320","Elevation":"7.318","Authority":"CMC","Condition":"Moderate","Material":"Metal"},"geometry":{"type":"Point","coordinates":[79.86439878357605,6.911152650358846]}},{"type":"Feature","properties":{"ID":"4324","Elevation":"7.587","Authority":"CMC","Condition":"Moderate","Material":"Metal"},"geometry":{"type":"Point","coordinates":[79.86448874058041,6.9114122493260846]}},{"type":"Feature","properties":{"ID":"4335","Elevation":"8.449","Authority":"CMC","Condition":"Good","Material":"Metal"},"geometry":{"type":"Point","coordinates":[79.86452350690213,6.911698507234565]}},{"type":"Feature","properties":{"ID":"4407","Elevation":"6.686","Authority":"CMC","Condition":"Good","Material":"Metal"},"geometry":{"type":"Point","coordinates":[79.86360867638119,6.909814453425743]}},{"type":"Feature","properties":{"ID":"5087","Elevation":"7.635","Authority":"CMC","Condition":"Good","Material":"Metal"},"geometry":{"type":"Point","coordinates":[79.86261292103563,6.905316961271017]}},{"type":"Feature","properties":{"ID":"5096","Elevation":"7.284","Authority":"CMC","Condition":"Good","Material":"Metal"},"geometry":{"type":"Point","coordinates":[79.86242042421084,6.905264744920748]}},{"type":"Feature","properties":{"ID":"5104","Elevation":"7.299","Authority":"CMC","Condition":"Good","Material":"Metal"},"geometry":{"type":"Point","coordinates":[79.8621351121489,6.905269225276332]}},{"type":"Feature","properties":{"ID":"5123","Elevation":"7.463","Authority":"CMC","Condition":"Good","Material":"Metal"},"geometry":{"type":"Point","coordinates":[79.8615929901628,6.9052448567666085]}},{"type":"Feature","properties":{"ID":"5126","Elevation":"7.23","Authority":"CMC","Condition":"Good","Material":"Metal"},"geometry":{"type":"Point","coordinates":[79.86128730971664,6.905245291886362]}},{"type":"Feature","properties":{"ID":"5132","Elevation":"7.537","Authority":"CMC","Condition":"Good","Material":"Metal"},"geometry":{"type":"Point","coordinates":[79.86096867566252,6.905248776248075]}},{"type":"Feature","properties":{"ID":"5139","Elevation":"7.617","Authority":"CMC","Condition":"Good","Material":"Metal"},"geometry":{"type":"Point","coordinates":[79.86071964002288,6.905284809960062]}},{"type":"Feature","properties":{"ID":"5152","Elevation":"9.862","Authority":"CMC","Condition":"Good","Material":"Metal"},"geometry":{"type":"Point","coordinates":[79.86014029682272,6.905353320966918]}},{"type":"Feature","properties":{"ID":"5153","Elevation":"6.681","Authority":"CMC","Condition":"Good","Material":"Metal"},"geometry":{"type":"Point","coordinates":[79.8600453202884,6.905362243805756]}},{"type":"Feature","properties":{"ID":"5155","Elevation":"5.815","Authority":"CMC","Condition":"Good","Material":"Metal"},"geometry":{"type":"Point","coordinates":[79.85987093450187,6.905401187413173]}},{"type":"Feature","properties":{"ID":"5162","Elevation":"5.276","Authority":"CMC","Condition":"Good","Material":"Metal"},"geometry":{"type":"Point","coordinates":[79.85961485833863,6.905489452160711]}},{"type":"Feature","properties":{"ID":"5178","Elevation":"5.068","Authority":"CMC","Condition":"Good","Material":"Metal"},"geometry":{"type":"Point","coordinates":[79.8591893506988,6.905712588057918]}},{"type":"Feature","properties":{"ID":"5190","Elevation":"5.391","Authority":"CMC","Condition":"Good","Material":"Metal"},"geometry":{"type":"Point","coordinates":[79.85899084644784,6.9057918035644485]}},{"type":"Feature","properties":{"ID":"5249","Elevation":"5.063","Authority":"CMC","Condition":"Good","Material":"Fiber"},"geometry":{"type":"Point","coordinates":[79.85851727651499,6.903639093260661]}},{"type":"Feature","properties":{"ID":"5256","Elevation":"5.439","Authority":"CMC","Condition":"Good","Material":"Fiber"},"geometry":{"type":"Point","coordinates":[79.85862398592381,6.903326044697847]}},{"type":"Feature","properties":{"ID":"5264","Elevation":"5.584","Authority":"CMC","Condition":"Good","Material":"Fiber"},"geometry":{"type":"Point","coordinates":[79.85868681619995,6.903142466634055]}},{"type":"Feature","properties":{"ID":"5267","Elevation":"5.406","Authority":"CMC","Condition":"Good","Material":"Fiber"},"geometry":{"type":"Point","coordinates":[79.8587443082032,6.902972920639403]}},{"type":"Feature","properties":{"ID":"5270","Elevation":"5","Authority":"CMC","Condition":"Good","Material":"Fiber"},"geometry":{"type":"Point","coordinates":[79.8588112156366,6.902786402669867]}},{"type":"Feature","properties":{"ID":"5275","Elevation":"5.77","Authority":"CMC","Condition":"Good","Material":"Fiber"},"geometry":{"type":"Point","coordinates":[79.8588469474068,6.9026730565494]}},{"type":"Feature","properties":{"ID":"5276","Elevation":"5.884","Authority":"CMC","Condition":"Good","Material":"Fiber"},"geometry":{"type":"Point","coordinates":[79.85889754233912,6.902532920193153]}},{"type":"Feature","properties":{"ID":"5281","Elevation":"5.788","Authority":"CMC","Condition":"Good","Material":"Fiber"},"geometry":{"type":"Point","coordinates":[79.85894348461507,6.902393796632744]}},{"type":"Feature","properties":{"ID":"5284","Elevation":"5.936","Authority":"CMC","Condition":"Good","Material":"Fiber"},"geometry":{"type":"Point","coordinates":[79.85901079314452,6.902182142385113]}},{"type":"Feature","properties":{"ID":"5287","Elevation":"6.222","Authority":"CMC","Condition":"Good","Material":"Fiber"},"geometry":{"type":"Point","coordinates":[79.85906559041358,6.902011641713265]}},{"type":"Feature","properties":{"ID":"5295","Elevation":"8.857","Authority":"CMC","Condition":"Good","Material":"Fiber"},"geometry":{"type":"Point","coordinates":[79.85922298004415,6.901522993594072]}},{"type":"Feature","properties":{"ID":"5301","Elevation":"7.39","Authority":"CMC","Condition":"Good","Material":"Fiber"},"geometry":{"type":"Point","coordinates":[79.85926532132744,6.901378998405996]}},{"type":"Feature","properties":{"ID":"5307","Elevation":"7.402","Authority":"CMC","Condition":"Good","Material":"Fiber"},"geometry":{"type":"Point","coordinates":[79.85931116344095,6.901230669738959]}},{"type":"Feature","properties":{"ID":"5310","Elevation":"7.476","Authority":"CMC","Condition":"Good","Material":"Fiber"},"geometry":{"type":"Point","coordinates":[79.85934186080185,6.901137920779845]}},{"type":"Feature","properties":{"ID":"5313","Elevation":"7.551","Authority":"CMC","Condition":"Good","Material":"Fiber"},"geometry":{"type":"Point","coordinates":[79.85939587157462,6.900966921205169]}},{"type":"Feature","properties":{"ID":"5314","Elevation":"7.565","Authority":"CMC","Condition":"Good","Material":"Fiber"},"geometry":{"type":"Point","coordinates":[79.85942839272039,6.9008620774289815]}},{"type":"Feature","properties":{"ID":"5319","Elevation":"6.299","Authority":"CMC","Condition":"Good","Material":"Fiber"},"geometry":{"type":"Point","coordinates":[79.85948898145415,6.90071920232509]}},{"type":"Feature","properties":{"ID":"5325","Elevation":"7.663","Authority":"CMC","Condition":"Good","Material":"Fiber"},"geometry":{"type":"Point","coordinates":[79.85955309958398,6.90045839804954]}},{"type":"Feature","properties":{"ID":"5326","Elevation":"7.694","Authority":"CMC","Condition":"Good","Material":"Fiber"},"geometry":{"type":"Point","coordinates":[79.85958651686242,6.90035801372253]}},{"type":"Feature","properties":{"ID":"5327","Elevation":"7.7","Authority":"CMC","Condition":"Good","Material":"Fiber"},"geometry":{"type":"Point","coordinates":[79.85960544476694,6.900297106427473]}},{"type":"Feature","properties":{"ID":"5331","Elevation":"7.731","Authority":"CMC","Condition":"Good","Material":"Fiber"},"geometry":{"type":"Point","coordinates":[79.85963196127629,6.900214051556739]}},{"type":"Feature","properties":{"ID":"5332","Elevation":"7.746","Authority":"CMC","Condition":"Good","Material":"Fiber"},"geometry":{"type":"Point","coordinates":[79.85967906344325,6.900064341799774]}},{"type":"Feature","properties":{"ID":"5337","Elevation":"7.771","Authority":"CMC","Condition":"Good","Material":"Fiber"},"geometry":{"type":"Point","coordinates":[79.85972139904176,6.8999419480644875]}},{"type":"Feature","properties":{"ID":"5341","Elevation":"7.646","Authority":"CMC","Condition":"Good","Material":"Fiber"},"geometry":{"type":"Point","coordinates":[79.85975773506567,6.899824651575452]}},{"type":"Feature","properties":{"ID":"5348","Elevation":"8.105","Authority":"CMC","Condition":"Good","Material":"Fiber"},"geometry":{"type":"Point","coordinates":[79.85981688464227,6.899667803603195]}},{"type":"Feature","properties":{"ID":"5350","Elevation":"8.061","Authority":"CMC","Condition":"Good","Material":"Fiber"},"geometry":{"type":"Point","coordinates":[79.85987436775592,6.899544715573859]}},{"type":"Feature","properties":{"ID":"5354","Elevation":"7.778","Authority":"CMC","Condition":"Good","Material":"Fiber"},"geometry":{"type":"Point","coordinates":[79.85994437224736,6.8994127089573105]}},{"type":"Feature","properties":{"ID":"5367","Elevation":"7.502","Authority":"CMC","Condition":"Good","Material":"Fiber"},"geometry":{"type":"Point","coordinates":[79.86025852186602,6.899090075625178]}},{"type":"Feature","properties":{"ID":"6000","Elevation":"6.892999496","Authority":"CMC","Condition":"Good","Material":"Metal"},"geometry":{"type":"Point","coordinates":[79.86266815468849,6.904719703969997]}},{"type":"Feature","properties":{"ID":"6001","Elevation":"7.312999573","Authority":"CMC","Condition":"Good","Material":"Metal"},"geometry":{"type":"Point","coordinates":[79.86263286930378,6.904449422437762]}},{"type":"Feature","properties":{"ID":"6002","Elevation":"7.149999554","Authority":"CMC","Condition":"Good","Material":"Metal"},"geometry":{"type":"Point","coordinates":[79.86257855662164,6.903714791146649]}},{"type":"Feature","properties":{"ID":"6003","Elevation":"7.029999668","Authority":"CMC","Condition":"Good","Material":"Metal"},"geometry":{"type":"Point","coordinates":[79.86258502296974,6.903944102885289]}},{"type":"Feature","properties":{"ID":"6004","Elevation":"7.244999733","Authority":"CMC","Condition":"Good","Material":"Metal"},"geometry":{"type":"Point","coordinates":[79.86261044293194,6.904205118163796]}},{"type":"Feature","properties":{"ID":"6005","Elevation":"6.789999897","Authority":"CMC","Condition":"Good","Material":"Metal"},"geometry":{"type":"Point","coordinates":[79.86257544235943,6.903312050340891]}},{"type":"Feature","properties":{"ID":"6006","Elevation":"7.182000008","Authority":"CMC","Condition":"Good","Material":"Metal"},"geometry":{"type":"Point","coordinates":[79.86247910036535,6.903099151380521]}},{"type":"Feature","properties":{"ID":"6007","Elevation":"6.977999535","Authority":"CMC","Condition":"Good","Material":"Metal"},"geometry":{"type":"Point","coordinates":[79.8623774076705,6.902911126899705]}},{"type":"Feature","properties":{"ID":"6008","Elevation":"6.682999458","Authority":"CMC","Condition":"Good","Material":"Metal"},"geometry":{"type":"Point","coordinates":[79.86227585125405,6.902644117273015]}},{"type":"Feature","properties":{"ID":"6009","Elevation":"6.662999954","Authority":"CMC","Condition":"Good","Material":"Metal"},"geometry":{"type":"Point","coordinates":[79.86170531607895,6.901175462975138]}},{"type":"Feature","properties":{"ID":"6010","Elevation":"6.666999664","Authority":"CMC","Condition":"Good","Material":"Metal"},"geometry":{"type":"Point","coordinates":[79.86156763801623,6.900890100905016]}},{"type":"Feature","properties":{"ID":"6011","Elevation":"6.747999992","Authority":"CMC","Condition":"Good","Material":"Metal"},"geometry":{"type":"Point","coordinates":[79.86148538787138,6.900675466563079]}},{"type":"Feature","properties":{"ID":"6012","Elevation":"6.442999687","Authority":"CMC","Condition":"Good","Material":"Metal"},"geometry":{"type":"Point","coordinates":[79.86175549159239,6.90176976568912]}},{"type":"Feature","properties":{"ID":"6013","Elevation":"6.868999329","Authority":"CMC","Condition":"Good","Material":"Metal"},"geometry":{"type":"Point","coordinates":[79.86138186652688,6.900450673317785]}},{"type":"Feature","properties":{"ID":"6014","Elevation":"6.610999908","Authority":"CMC","Condition":"Good","Material":"Metal"},"geometry":{"type":"Point","coordinates":[79.86179918878841,6.901404097753404]}},{"type":"Feature","properties":{"ID":"6015","Elevation":"6.548000183","Authority":"CMC","Condition":"Good","Material":"Metal"},"geometry":{"type":"Point","coordinates":[79.86199391233488,6.901879237888947]}},{"type":"Feature","properties":{"ID":"6016","Elevation":"6.970999565","Authority":"CMC","Condition":"Good","Material":"Metal"},"geometry":{"type":"Point","coordinates":[79.86116782350904,6.899950307446193]}},{"type":"Feature","properties":{"ID":"6017","Elevation":"7.670999374","Authority":"CMC","Condition":"Good","Material":"Metal"},"geometry":{"type":"Point","coordinates":[79.86057229166549,6.898734160076523]}},{"type":"Feature","properties":{"ID":"6018","Elevation":"7.129999962","Authority":"CMC","Condition":"Good","Material":"Metal"},"geometry":{"type":"Point","coordinates":[79.86080345838685,6.898968131937251]}},{"type":"Feature","properties":{"ID":"6019","Elevation":"7.406999435","Authority":"CMC","Condition":"Good","Material":"Metal"},"geometry":{"type":"Point","coordinates":[79.86039953453248,6.898366717839039]}},{"type":"Feature","properties":{"ID":"6020","Elevation":"7.170999374","Authority":"CMC","Condition":"Good","Material":"Metal"},"geometry":{"type":"Point","coordinates":[79.86038389860971,6.898624800610285]}},{"type":"Feature","properties":{"ID":"6021","Elevation":"7.388999786","Authority":"CMC","Condition":"Good","Material":"Metal"},"geometry":{"type":"Point","coordinates":[79.8604265279317,6.898362575024696]}},{"type":"Feature","properties":{"ID":"6022","Elevation":"7.301999893","Authority":"CMC","Condition":"Good","Material":"Metal"},"geometry":{"type":"Point","coordinates":[79.86071729154953,6.898660946029989]}},{"type":"Feature","properties":{"ID":"6023","Elevation":"7.433999863","Authority":"CMC","Condition":"Good","Material":"Metal"},"geometry":{"type":"Point","coordinates":[79.86028165660943,6.898178766029932]}},{"type":"Feature","properties":{"ID":"6024","Elevation":"6.942000237","Authority":"CMC","Condition":"Good","Material":"Metal"},"geometry":{"type":"Point","coordinates":[79.86104895659304,6.89967868015006]}},{"type":"Feature","properties":{"ID":"6025","Elevation":"7.069999542","Authority":"CMC","Condition":"Good","Material":"Metal"},"geometry":{"type":"Point","coordinates":[79.8608809805384,6.899288225113582]}},{"type":"Feature","properties":{"ID":"6026","Elevation":"7.114999619","Authority":"CMC","Condition":"Good","Material":"Metal"},"geometry":{"type":"Point","coordinates":[79.86059232437721,6.8989994093573435]}},{"type":"Feature","properties":{"ID":"6027","Elevation":"7.294999924","Authority":"CMC","Condition":"Good","Material":"Metal"},"geometry":{"type":"Point","coordinates":[79.86031321387262,6.898158564188082]}}]}