{"type":"FeatureCollection","features":[{"type":"Feature","properties":{"ID":"141","Elevation":"4.794","Diameter (":"600","Length (cm":null,"Width (cm)":null,"Depth(m)":"1.5","Condition":"Good","Material":"Metal"},"geometry":{"type":"Point","coordinates":[79.85932163738967,6.911884697426407]}},{"type":"Feature","properties":{"ID":"143","Elevation":"4.813","Diameter (":"600","Length (cm":null,"Width (cm)":null,"Depth(m)":"1.5","Condition":"Good","Material":"Metal"},"geometry":{"type":"Point","coordinates":[79.85921521343147,6.911860856507139]}},{"type":"Feature","properties":{"ID":"144","Elevation":"4.662","Diameter (":"600","Length (cm":null,"Width (cm)":null,"Depth(m)":"1.5","Condition":"Good","Material":"Metal"},"geometry":{"type":"Point","coordinates":[79.8589563826236,6.911874210505457]}},{"type":"Feature","properties":{"ID":"164","Elevation":"4.459","Diameter (":"600","Length (cm":null,"Width (cm)":null,"Depth(m)":"1.5","Condition":"Good","Material":"Metal"},"geometry":{"type":"Point","coordinates":[79.85828133341785,6.91193559853368]}},{"type":"Feature","properties":{"ID":"165","Elevation":"4.438","Diameter (":"600","Length (cm":null,"Width (cm)":null,"Depth(m)":"1.5","Condition":"Good","Material":"Metal"},"geometry":{"type":"Point","coordinates":[79.85828901127059,6.9119330092142075]}},{"type":"Feature","properties":{"ID":"183","Elevation":"4.517","Diameter (":"600","Length (cm":null,"Width (cm)":null,"Depth(m)":"1.5","Condition":"Good","Material":"Metal"},"geometry":{"type":"Point","coordinates":[79.85847945418891,6.911657990668315]}},{"type":"Feature","properties":{"ID":"186","Elevation":"4.449","Diameter (":"600","Length (cm":null,"Width (cm)":null,"Depth(m)":"1.5","Condition":"Good","Material":"Metal"},"geometry":{"type":"Point","coordinates":[79.85869347588576,6.911692790088702]}},{"type":"Feature","properties":{"ID":"189","Elevation":"4.681","Diameter (":"600","Length (cm":null,"Width (cm)":null,"Depth(m)":"1.5","Condition":"Good","Material":"Metal"},"geometry":{"type":"Point","coordinates":[79.85894968200886,6.911712588478555]}},{"type":"Feature","properties":{"ID":"191","Elevation":"4.644","Diameter (":"600","Length (cm":null,"Width (cm)":null,"Depth(m)":"1.5","Condition":"Good","Material":"Metal"},"geometry":{"type":"Point","coordinates":[79.85913457441829,6.911678711241874]}},{"type":"Feature","properties":{"ID":"194","Elevation":"4.874","Diameter (":"600","Length (cm":null,"Width (cm)":null,"Depth(m)":"1.5","Condition":"Good","Material":"Metal"},"geometry":{"type":"Point","coordinates":[79.85918287044696,6.911722567920039]}},{"type":"Feature","properties":{"ID":"195","Elevation":"4.876","Diameter (":"600","Length (cm":null,"Width (cm)":null,"Depth(m)":"1.5","Condition":"Good","Material":"Metal"},"geometry":{"type":"Point","coordinates":[79.85924214737486,6.911697897713622]}},{"type":"Feature","properties":{"ID":"198","Elevation":"5.161","Diameter (":"600","Length (cm":null,"Width (cm)":null,"Depth(m)":"1.5","Condition":"Good","Material":"Metal"},"geometry":{"type":"Point","coordinates":[79.85960521411154,6.9116793189325465]}},{"type":"Feature","properties":{"ID":"201","Elevation":"5.453","Diameter (":"600","Length (cm":null,"Width (cm)":null,"Depth(m)":"1.5","Condition":"Good","Material":"Metal"},"geometry":{"type":"Point","coordinates":[79.85985707515721,6.911667307466902]}},{"type":"Feature","properties":{"ID":"210","Elevation":"6.21","Diameter (":"600","Length (cm":null,"Width (cm)":null,"Depth(m)":"1.5","Condition":"Good","Material":"Metal"},"geometry":{"type":"Point","coordinates":[79.86078210832136,6.9116334968510715]}},{"type":"Feature","properties":{"ID":"215","Elevation":"6.29","Diameter (":"600","Length (cm":null,"Width (cm)":null,"Depth(m)":"1.5","Condition":"Good","Material":"Metal"},"geometry":{"type":"Point","coordinates":[79.86147032224363,6.911562744779591]}},{"type":"Feature","properties":{"ID":"220","Elevation":"6.225","Diameter (":"600","Length (cm":null,"Width (cm)":null,"Depth(m)":"2.5","Condition":"Good","Material":"Metal"},"geometry":{"type":"Point","coordinates":[79.861880826479,6.911601753994584]}},{"type":"Feature","properties":{"ID":"226","Elevation":"6.439","Diameter (":"600","Length (cm":null,"Width (cm)":null,"Depth(m)":"1.5","Condition":"Good","Material":"Metal"},"geometry":{"type":"Point","coordinates":[79.8624263433263,6.911647803510651]}},{"type":"Feature","properties":{"ID":"230","Elevation":"6.561","Diameter (":"600","Length (cm":null,"Width (cm)":null,"Depth(m)":"1.5","Condition":"Good","Material":"Metal"},"geometry":{"type":"Point","coordinates":[79.8627688619403,6.911647990417785]}},{"type":"Feature","properties":{"ID":"236","Elevation":"7.009","Diameter (":"600","Length (cm":null,"Width (cm)":null,"Depth(m)":"1.5","Condition":"Good","Material":"Metal"},"geometry":{"type":"Point","coordinates":[79.86318582726948,6.911597259120175]}},{"type":"Feature","properties":{"ID":"244","Elevation":"7.164","Diameter (":"600","Length (cm":null,"Width (cm)":null,"Depth(m)":"1.5","Condition":"Good","Material":"Metal"},"geometry":{"type":"Point","coordinates":[79.86426157555677,6.911611138321135]}},{"type":"Feature","properties":{"ID":"1038","Elevation":"7.351","Diameter (":"600","Length (cm":null,"Width (cm)":null,"Depth(m)":"1.5","Condition":"Good","Material":"Metal"},"geometry":{"type":"Point","coordinates":[79.86348348043884,6.906123890889891]}},{"type":"Feature","properties":{"ID":"1041","Elevation":"7.359","Diameter (":null,"Length (cm":"120","Width (cm)":"60","Depth(m)":"2.3","Condition":"Good","Material":"Metal"},"geometry":{"type":"Point","coordinates":[79.86336074261163,6.905959089705733]}},{"type":"Feature","properties":{"ID":"1047","Elevation":"7.404","Diameter (":null,"Length (cm":"150","Width (cm)":"45","Depth(m)":"1.9","Condition":"Good","Material":"Metal"},"geometry":{"type":"Point","coordinates":[79.86307549400107,6.905609518470775]}},{"type":"Feature","properties":{"ID":"1055","Elevation":"7.278","Diameter (":"600","Length (cm":null,"Width (cm)":null,"Depth(m)":"1.5","Condition":"Good","Material":"Metal"},"geometry":{"type":"Point","coordinates":[79.86277622005343,6.905024825813066]}},{"type":"Feature","properties":{"ID":"1057","Elevation":"7.295","Diameter (":"600","Length (cm":null,"Width (cm)":null,"Depth(m)":"1.5","Condition":"Good","Material":"Metal"},"geometry":{"type":"Point","coordinates":[79.86280866802693,6.90508999106267]}},{"type":"Feature","properties":{"ID":"1058","Elevation":"7.333","Diameter (":"600","Length (cm":null,"Width (cm)":null,"Depth(m)":"1.5","Condition":"Good","Material":"Metal"},"geometry":{"type":"Point","coordinates":[79.86288630063008,6.905184177588803]}},{"type":"Feature","properties":{"ID":"1062","Elevation":"7.274","Diameter (":"600","Length (cm":null,"Width (cm)":null,"Depth(m)":"1.5","Condition":"Good","Material":"Metal"},"geometry":{"type":"Point","coordinates":[79.86299458381302,6.905337196438399]}},{"type":"Feature","properties":{"ID":"1063","Elevation":"7.333","Diameter (":"600","Length (cm":null,"Width (cm)":null,"Depth(m)":"1.5","Condition":"Good","Material":"Metal"},"geometry":{"type":"Point","coordinates":[79.86302893857723,6.905351729606863]}},{"type":"Feature","properties":{"ID":"1064","Elevation":"7.296","Diameter (":"600","Length (cm":null,"Width (cm)":null,"Depth(m)":"1.5","Condition":"Good","Material":"Metal"},"geometry":{"type":"Point","coordinates":[79.86304425431729,6.9053861189052075]}},{"type":"Feature","properties":{"ID":"1065","Elevation":"7.16","Diameter (":"600","Length (cm":null,"Width (cm)":null,"Depth(m)":"1.5","Condition":"Good","Material":"Metal"},"geometry":{"type":"Point","coordinates":[79.86308670201583,6.905426889646772]}},{"type":"Feature","properties":{"ID":"1066","Elevation":"7.139","Diameter (":null,"Length (cm":"80","Width (cm)":"80","Depth(m)":"1","Condition":"Good","Material":"Metal"},"geometry":{"type":"Point","coordinates":[79.86310839995011,6.905435973307223]}},{"type":"Feature","properties":{"ID":"1068","Elevation":"7.174","Diameter (":"600","Length (cm":null,"Width (cm)":null,"Depth(m)":"1.5","Condition":"Good","Material":"Metal"},"geometry":{"type":"Point","coordinates":[79.86312551663279,6.905474887100934]}},{"type":"Feature","properties":{"ID":"1070","Elevation":"7.286","Diameter (":"600","Length (cm":null,"Width (cm)":null,"Depth(m)":"1.5","Condition":"Good","Material":"Metal"},"geometry":{"type":"Point","coordinates":[79.86320316149825,6.905562744147756]}},{"type":"Feature","properties":{"ID":"1073","Elevation":"7.265","Diameter (":"600","Length (cm":null,"Width (cm)":null,"Depth(m)":"1.5","Condition":"Good","Material":"Metal"},"geometry":{"type":"Point","coordinates":[79.86327990158816,6.905650599452328]}},{"type":"Feature","properties":{"ID":"1075","Elevation":"7.179","Diameter (":"600","Length (cm":null,"Width (cm)":null,"Depth(m)":"1.5","Condition":"Good","Material":"Metal"},"geometry":{"type":"Point","coordinates":[79.86339544597026,6.905791877423177]}},{"type":"Feature","properties":{"ID":"1079","Elevation":"7.163","Diameter (":null,"Length (cm":"150","Width (cm)":"50","Depth(m)":"2.5","Condition":"Good","Material":"Metal"},"geometry":{"type":"Point","coordinates":[79.86347580188033,6.905881548048615]}},{"type":"Feature","properties":{"ID":"1080","Elevation":"7.156","Diameter (":"600","Length (cm":null,"Width (cm)":null,"Depth(m)":"1.5","Condition":"Good","Material":"Metal"},"geometry":{"type":"Point","coordinates":[79.86346584556591,6.905883337400911]}},{"type":"Feature","properties":{"ID":"1082","Elevation":"7.3","Diameter (":"600","Length (cm":null,"Width (cm)":null,"Depth(m)":"1.5","Condition":"Good","Material":"Metal"},"geometry":{"type":"Point","coordinates":[79.86356694439097,6.906008311907896]}},{"type":"Feature","properties":{"ID":"1085","Elevation":"7.171","Diameter (":null,"Length (cm":"80","Width (cm)":"80","Depth(m)":"1","Condition":"Good","Material":"Metal"},"geometry":{"type":"Point","coordinates":[79.86366802073128,6.906145041080158]}},{"type":"Feature","properties":{"ID":"1086","Elevation":"7.211","Diameter (":"600","Length (cm":null,"Width (cm)":null,"Depth(m)":"1.5","Condition":"Good","Material":"Metal"},"geometry":{"type":"Point","coordinates":[79.8636878900326,6.906164067522953]}},{"type":"Feature","properties":{"ID":"1089","Elevation":"7.352","Diameter (":"600","Length (cm":null,"Width (cm)":null,"Depth(m)":"1.5","Condition":"Good","Material":"Metal"},"geometry":{"type":"Point","coordinates":[79.86376008721187,6.906261860378621]}},{"type":"Feature","properties":{"ID":"1091","Elevation":"7.352","Diameter (":"600","Length (cm":null,"Width (cm)":null,"Depth(m)":"1.5","Condition":"Good","Material":"Metal"},"geometry":{"type":"Point","coordinates":[79.86381423684834,6.906334300809267]}},{"type":"Feature","properties":{"ID":"1094","Elevation":"7.305","Diameter (":"600","Length (cm":null,"Width (cm)":null,"Depth(m)":"1.5","Condition":"Good","Material":"Metal"},"geometry":{"type":"Point","coordinates":[79.86388367806357,6.906453789405149]}},{"type":"Feature","properties":{"ID":"1097","Elevation":"7.329","Diameter (":"600","Length (cm":null,"Width (cm)":null,"Depth(m)":"1.5","Condition":"Good","Material":"Metal"},"geometry":{"type":"Point","coordinates":[79.86394862474606,6.906557897828846]}},{"type":"Feature","properties":{"ID":"1101","Elevation":"7.258","Diameter (":"600","Length (cm":null,"Width (cm)":null,"Depth(m)":"1.5","Condition":"Good","Material":"Metal"},"geometry":{"type":"Point","coordinates":[79.86403248399476,6.906708157135425]}},{"type":"Feature","properties":{"ID":"1103","Elevation":"7.341","Diameter (":"600","Length (cm":null,"Width (cm)":null,"Depth(m)":"1.5","Condition":"Good","Material":"Metal"},"geometry":{"type":"Point","coordinates":[79.8640901507001,6.906833952642737]}},{"type":"Feature","properties":{"ID":"1109","Elevation":"7.383","Diameter (":null,"Length (cm":"150","Width (cm)":"90","Depth(m)":"2.6","Condition":"Good","Material":"Metal"},"geometry":{"type":"Point","coordinates":[79.86419381007737,6.907039406614578]}},{"type":"Feature","properties":{"ID":"1110","Elevation":"7.445","Diameter (":null,"Length (cm":"150","Width (cm)":"90","Depth(m)":"2.6","Condition":"Good","Material":"Metal"},"geometry":{"type":"Point","coordinates":[79.86422980654318,6.907141651189895]}},{"type":"Feature","properties":{"ID":"1129","Elevation":"7.488","Diameter (":"600","Length (cm":null,"Width (cm)":null,"Depth(m)":"1.5","Condition":"Good","Material":"Metal"},"geometry":{"type":"Point","coordinates":[79.86471167794566,6.907818922005546]}},{"type":"Feature","properties":{"ID":"1130","Elevation":"7.592","Diameter (":null,"Length (cm":"150","Width (cm)":"90","Depth(m)":"2.6","Condition":"Good","Material":"Metal"},"geometry":{"type":"Point","coordinates":[79.86473524625879,6.90779636184736]}},{"type":"Feature","properties":{"ID":"1163","Elevation":"6.908","Diameter (":"600","Length (cm":null,"Width (cm)":null,"Depth(m)":"1.5","Condition":"Good","Material":"Metal"},"geometry":{"type":"Point","coordinates":[79.86406685128358,6.909076347696782]}},{"type":"Feature","properties":{"ID":"1174","Elevation":"6.807","Diameter (":"600","Length (cm":null,"Width (cm)":null,"Depth(m)":"1.5","Condition":"Good","Material":"Metal"},"geometry":{"type":"Point","coordinates":[79.86375020014115,6.909530558650072]}},{"type":"Feature","properties":{"ID":"1182","Elevation":"6.62","Diameter (":null,"Length (cm":"150","Width (cm)":"40","Depth(m)":"1.5","Condition":"Good","Material":"Metal"},"geometry":{"type":"Point","coordinates":[79.86360943923528,6.909798839191651]}},{"type":"Feature","properties":{"ID":"1185","Elevation":"6.628","Diameter (":null,"Length (cm":"150","Width (cm)":"75","Depth(m)":"2","Condition":"Good","Material":"Metal"},"geometry":{"type":"Point","coordinates":[79.86362365950373,6.9099326894194375]}},{"type":"Feature","properties":{"ID":"1194","Elevation":"6.88","Diameter (":"600","Length (cm":null,"Width (cm)":null,"Depth(m)":"1.5","Condition":"Good","Material":"Metal"},"geometry":{"type":"Point","coordinates":[79.86432056930431,6.910771322059244]}},{"type":"Feature","properties":{"ID":"1197","Elevation":"7.097","Diameter (":null,"Length (cm":"80","Width (cm)":"80","Depth(m)":"1","Condition":"Good","Material":"Metal"},"geometry":{"type":"Point","coordinates":[79.86443067578837,6.91091801479499]}},{"type":"Feature","properties":{"ID":"1200","Elevation":"6.837","Diameter (":"600","Length (cm":null,"Width (cm)":null,"Depth(m)":"1.5","Condition":"Good","Material":"Metal"},"geometry":{"type":"Point","coordinates":[79.86447930349304,6.911039271960687]}},{"type":"Feature","properties":{"ID":"1206","Elevation":"7.331","Diameter (":"600","Length (cm":null,"Width (cm)":null,"Depth(m)":"1.5","Condition":"Good","Material":"Metal"},"geometry":{"type":"Point","coordinates":[79.86444358239687,6.911265255955619]}},{"type":"Feature","properties":{"ID":"1226","Elevation":"6.372","Diameter (":"600","Length (cm":null,"Width (cm)":null,"Depth(m)":"1.5","Condition":"Good","Material":"Metal"},"geometry":{"type":"Point","coordinates":[79.8633715657183,6.909750460321587]}},{"type":"Feature","properties":{"ID":"1229","Elevation":"6.506","Diameter (":"600","Length (cm":null,"Width (cm)":null,"Depth(m)":"1.5","Condition":"Good","Material":"Metal"},"geometry":{"type":"Point","coordinates":[79.86344309267517,6.909726183730703]}},{"type":"Feature","properties":{"ID":"1233","Elevation":"6.826","Diameter (":null,"Length (cm":"150","Width (cm)":"90","Depth(m)":"2.5","Condition":"Good","Material":"Metal"},"geometry":{"type":"Point","coordinates":[79.86384223461162,6.909192560600399]}},{"type":"Feature","properties":{"ID":"1242","Elevation":"7.132","Diameter (":null,"Length (cm":"150","Width (cm)":"50","Depth(m)":"2","Condition":"Good","Material":"Metal"},"geometry":{"type":"Point","coordinates":[79.86413802278086,6.908765435885421]}},{"type":"Feature","properties":{"ID":"1248","Elevation":"7.339","Diameter (":null,"Length (cm":"80","Width (cm)":"80","Depth(m)":"1","Condition":"Good","Material":"Metal"},"geometry":{"type":"Point","coordinates":[79.86445645661117,6.9083247911025865]}},{"type":"Feature","properties":{"ID":"2000","Elevation":"7.28","Diameter (":"600","Length (cm":null,"Width (cm)":null,"Depth(m)":"1.5","Condition":"Good","Material":"Metal"},"geometry":{"type":"Point","coordinates":[79.8643424070443,6.907875180670819]}},{"type":"Feature","properties":{"ID":"2003","Elevation":"7.267","Diameter (":"600","Length (cm":null,"Width (cm)":null,"Depth(m)":"1.5","Condition":"Good","Material":"Metal"},"geometry":{"type":"Point","coordinates":[79.86416707701427,6.907769052583221]}},{"type":"Feature","properties":{"ID":"2004","Elevation":"7.053","Diameter (":"600","Length (cm":null,"Width (cm)":null,"Depth(m)":"1.5","Condition":"Good","Material":"Metal"},"geometry":{"type":"Point","coordinates":[79.86410921956349,6.907742719758875]}},{"type":"Feature","properties":{"ID":"2006","Elevation":"7.029","Diameter (":"600","Length (cm":null,"Width (cm)":null,"Depth(m)":"1.5","Condition":"Good","Material":"Metal"},"geometry":{"type":"Point","coordinates":[79.86405403321265,6.907738997280133]}},{"type":"Feature","properties":{"ID":"2047","Elevation":"6.848","Diameter (":"600","Length (cm":null,"Width (cm)":null,"Depth(m)":"1.5","Condition":"Good","Material":"Metal"},"geometry":{"type":"Point","coordinates":[79.86291850223026,6.90726392072168]}},{"type":"Feature","properties":{"ID":"2049","Elevation":"6.638","Diameter (":"600","Length (cm":null,"Width (cm)":null,"Depth(m)":"1.5","Condition":"Good","Material":"Metal"},"geometry":{"type":"Point","coordinates":[79.86286404028846,6.907354237265392]}},{"type":"Feature","properties":{"ID":"2050","Elevation":"6.515","Diameter (":"600","Length (cm":null,"Width (cm)":null,"Depth(m)":"1.5","Condition":"Good","Material":"Metal"},"geometry":{"type":"Point","coordinates":[79.86282214322831,6.9074979262302865]}},{"type":"Feature","properties":{"ID":"2051","Elevation":"6.388","Diameter (":"600","Length (cm":null,"Width (cm)":null,"Depth(m)":"1.5","Condition":"Good","Material":"Metal"},"geometry":{"type":"Point","coordinates":[79.86278207137312,6.907633480803127]}},{"type":"Feature","properties":{"ID":"2052","Elevation":"6.269","Diameter (":"600","Length (cm":null,"Width (cm)":null,"Depth(m)":"1.5","Condition":"Good","Material":"Metal"},"geometry":{"type":"Point","coordinates":[79.86274474342076,6.907753669072411]}},{"type":"Feature","properties":{"ID":"2056","Elevation":"6.869","Diameter (":null,"Length (cm":"50","Width (cm)":"40","Depth(m)":"1","Condition":"Good","Material":"Metal"},"geometry":{"type":"Point","coordinates":[79.86282445265981,6.9072375183920265]}},{"type":"Feature","properties":{"ID":"2062","Elevation":"6.997","Diameter (":"600","Length (cm":null,"Width (cm)":null,"Depth(m)":"1.5","Condition":"Good","Material":"Metal"},"geometry":{"type":"Point","coordinates":[79.86264451070164,6.907177495645596]}},{"type":"Feature","properties":{"ID":"2069","Elevation":"6.975","Diameter (":"600","Length (cm":null,"Width (cm)":null,"Depth(m)":"1.5","Condition":"Good","Material":"Metal"},"geometry":{"type":"Point","coordinates":[79.86237859483343,6.907126350067855]}},{"type":"Feature","properties":{"ID":"2070","Elevation":"6.927","Diameter (":"600","Length (cm":null,"Width (cm)":null,"Depth(m)":"1.5","Condition":"Good","Material":"Metal"},"geometry":{"type":"Point","coordinates":[79.86235687253637,6.907129925248011]}},{"type":"Feature","properties":{"ID":"2072","Elevation":"6.852","Diameter (":"600","Length (cm":null,"Width (cm)":null,"Depth(m)":"1.5","Condition":"Good","Material":"Metal"},"geometry":{"type":"Point","coordinates":[79.862344939893,6.907218514860615]}},{"type":"Feature","properties":{"ID":"2073","Elevation":"6.759","Diameter (":"600","Length (cm":null,"Width (cm)":null,"Depth(m)":"1.5","Condition":"Good","Material":"Metal"},"geometry":{"type":"Point","coordinates":[79.86237475162754,6.907242985678255]}},{"type":"Feature","properties":{"ID":"2088","Elevation":"7.126","Diameter (":"600","Length (cm":null,"Width (cm)":null,"Depth(m)":"1.5","Condition":"Good","Material":"Metal"},"geometry":{"type":"Point","coordinates":[79.86183294280244,6.907153333861158]}},{"type":"Feature","properties":{"ID":"2098","Elevation":"6.577","Diameter (":"600","Length (cm":null,"Width (cm)":null,"Depth(m)":"1.5","Condition":"Good","Material":"Metal"},"geometry":{"type":"Point","coordinates":[79.86126659672124,6.907119695294459]}},{"type":"Feature","properties":{"ID":"2100","Elevation":"6.381","Diameter (":"600","Length (cm":null,"Width (cm)":null,"Depth(m)":"1.5","Condition":"Good","Material":"Metal"},"geometry":{"type":"Point","coordinates":[79.86125341833836,6.907385507400473]}},{"type":"Feature","properties":{"ID":"2106","Elevation":"6.244","Diameter (":"600","Length (cm":null,"Width (cm)":null,"Depth(m)":"1.5","Condition":"Good","Material":"Metal"},"geometry":{"type":"Point","coordinates":[79.86099624926396,6.907020617392626]}},{"type":"Feature","properties":{"ID":"2117","Elevation":"5.593","Diameter (":"600","Length (cm":null,"Width (cm)":null,"Depth(m)":"1.5","Condition":"Good","Material":"Metal"},"geometry":{"type":"Point","coordinates":[79.86047504289684,6.907039508706688]}},{"type":"Feature","properties":{"ID":"2137","Elevation":"7.329","Diameter (":null,"Length (cm":"150","Width (cm)":"60","Depth(m)":"2.4","Condition":"Good","Material":"Concreate"},"geometry":{"type":"Point","coordinates":[79.86406521501462,6.907569931500178]}},{"type":"Feature","properties":{"ID":"2139","Elevation":"7.346","Diameter (":"600","Length (cm":null,"Width (cm)":null,"Depth(m)":"1.5","Condition":"Good","Material":"Metal"},"geometry":{"type":"Point","coordinates":[79.86405250957793,6.907589799788781]}},{"type":"Feature","properties":{"ID":"2146","Elevation":"6.935","Diameter (":"600","Length (cm":null,"Width (cm)":null,"Depth(m)":"1.5","Condition":"Good","Material":"Metal"},"geometry":{"type":"Point","coordinates":[79.86379121435422,6.907488028064926]}},{"type":"Feature","properties":{"ID":"2150","Elevation":"6.818","Diameter (":"600","Length (cm":null,"Width (cm)":null,"Depth(m)":"1.5","Condition":"Good","Material":"Metal"},"geometry":{"type":"Point","coordinates":[79.86373605924787,6.907468029842762]}},{"type":"Feature","properties":{"ID":"2161","Elevation":"7.059","Diameter (":"600","Length (cm":null,"Width (cm)":null,"Depth(m)":"1.5","Condition":"Good","Material":"Metal"},"geometry":{"type":"Point","coordinates":[79.8632840406979,6.907266429577662]}},{"type":"Feature","properties":{"ID":"2162","Elevation":"7.001","Diameter (":"600","Length (cm":null,"Width (cm)":null,"Depth(m)":"1.5","Condition":"Good","Material":"Metal"},"geometry":{"type":"Point","coordinates":[79.86319090978198,6.907232795402824]}},{"type":"Feature","properties":{"ID":"2166","Elevation":"6.974","Diameter (":"600","Length (cm":null,"Width (cm)":null,"Depth(m)":"1.5","Condition":"Good","Material":"Metal"},"geometry":{"type":"Point","coordinates":[79.86308236420429,6.907216311651223]}},{"type":"Feature","properties":{"ID":"2171","Elevation":"6.881","Diameter (":"600","Length (cm":null,"Width (cm)":null,"Depth(m)":"1.5","Condition":"Good","Material":"Metal"},"geometry":{"type":"Point","coordinates":[79.86287980204561,6.907156245645292]}},{"type":"Feature","properties":{"ID":"2172","Elevation":"6.837","Diameter (":"600","Length (cm":null,"Width (cm)":null,"Depth(m)":"1.5","Condition":"Good","Material":"Metal"},"geometry":{"type":"Point","coordinates":[79.86287077653982,6.907144473626243]}},{"type":"Feature","properties":{"ID":"2178","Elevation":"7.243","Diameter (":null,"Length (cm":"100","Width (cm)":"50","Depth(m)":"2.4","Condition":"Good","Material":"Metal"},"geometry":{"type":"Point","coordinates":[79.86267995957444,6.90709347214572]}},{"type":"Feature","properties":{"ID":"2179","Elevation":"7.028","Diameter (":"600","Length (cm":null,"Width (cm)":null,"Depth(m)":"1.5","Condition":"Good","Material":"Metal"},"geometry":{"type":"Point","coordinates":[79.86261116304836,6.907109616022451]}},{"type":"Feature","properties":{"ID":"2180","Elevation":"7.093","Diameter (":"600","Length (cm":null,"Width (cm)":null,"Depth(m)":"1.5","Condition":"Good","Material":"Metal"},"geometry":{"type":"Point","coordinates":[79.86260940898174,6.90708067796486]}},{"type":"Feature","properties":{"ID":"2181","Elevation":"7.051","Diameter (":"600","Length (cm":null,"Width (cm)":null,"Depth(m)":"1.5","Condition":"Good","Material":"Metal"},"geometry":{"type":"Point","coordinates":[79.8625387733327,6.907112189861459]}},{"type":"Feature","properties":{"ID":"2188","Elevation":"7.067","Diameter (":"600","Length (cm":null,"Width (cm)":null,"Depth(m)":"1.5","Condition":"Good","Material":"Metal"},"geometry":{"type":"Point","coordinates":[79.86231905125251,6.9070358149658695]}},{"type":"Feature","properties":{"ID":"2193","Elevation":"7.052","Diameter (":"600","Length (cm":null,"Width (cm)":null,"Depth(m)":"1.5","Condition":"Good","Material":"Metal"},"geometry":{"type":"Point","coordinates":[79.86197530136303,6.906995370414108]}},{"type":"Feature","properties":{"ID":"2200","Elevation":"7.085","Diameter (":"600","Length (cm":null,"Width (cm)":null,"Depth(m)":"1.5","Condition":"Good","Material":"Metal"},"geometry":{"type":"Point","coordinates":[79.86175546479038,6.906978672851741]}},{"type":"Feature","properties":{"ID":"2203","Elevation":"7.172","Diameter (":null,"Length (cm":"50","Width (cm)":"50","Depth(m)":"1","Condition":"Good","Material":"Metal"},"geometry":{"type":"Point","coordinates":[79.86167316741911,6.906957718115445]}},{"type":"Feature","properties":{"ID":"2210","Elevation":"6.938","Diameter (":"600","Length (cm":null,"Width (cm)":null,"Depth(m)":"1.5","Condition":"Good","Material":"Metal"},"geometry":{"type":"Point","coordinates":[79.86143973447444,6.906953653243202]}},{"type":"Feature","properties":{"ID":"2214","Elevation":"6.881","Diameter (":"600","Length (cm":null,"Width (cm)":null,"Depth(m)":"1.5","Condition":"Good","Material":"Metal"},"geometry":{"type":"Point","coordinates":[79.86123991321426,6.906880028708824]}},{"type":"Feature","properties":{"ID":"2215","Elevation":"6.938","Diameter (":"600","Length (cm":null,"Width (cm)":null,"Depth(m)":"1.5","Condition":"Good","Material":"Metal"},"geometry":{"type":"Point","coordinates":[79.86124300137229,6.906685629727221]}},{"type":"Feature","properties":{"ID":"2217","Elevation":"7.116","Diameter (":"600","Length (cm":null,"Width (cm)":null,"Depth(m)":"1.5","Condition":"Good","Material":"Metal"},"geometry":{"type":"Point","coordinates":[79.8612344191827,6.906443285266587]}},{"type":"Feature","properties":{"ID":"2222","Elevation":"6.757","Diameter (":null,"Length (cm":"100","Width (cm)":"100","Depth(m)":"2.3","Condition":"Good","Material":"Metal"},"geometry":{"type":"Point","coordinates":[79.86122901382616,6.906901708795211]}},{"type":"Feature","properties":{"ID":"3001","Elevation":"7.276","Diameter (":null,"Length (cm":"100","Width (cm)":"60","Depth(m)":"2.4","Condition":"Good","Material":"Metal"},"geometry":{"type":"Point","coordinates":[79.86040772403669,6.89865612474055]}},{"type":"Feature","properties":{"ID":"3012","Elevation":"7.214","Diameter (":"600","Length (cm":null,"Width (cm)":null,"Depth(m)":"1.5","Condition":"Good","Material":"Metal"},"geometry":{"type":"Point","coordinates":[79.86037744685319,6.898742319116762]}},{"type":"Feature","properties":{"ID":"3022","Elevation":"7.354","Diameter (":"600","Length (cm":null,"Width (cm)":null,"Depth(m)":"1.5","Condition":"Good","Material":"Metal"},"geometry":{"type":"Point","coordinates":[79.860138035653,6.899073261094496]}},{"type":"Feature","properties":{"ID":"3022","Elevation":"7.354","Diameter (":"600","Length (cm":null,"Width (cm)":null,"Depth(m)":"1.5","Condition":"Good","Material":"Metal"},"geometry":{"type":"Point","coordinates":[79.860138035653,6.899073261094496]}},{"type":"Feature","properties":{"ID":"3029","Elevation":"7.592","Diameter (":"600","Length (cm":null,"Width (cm)":null,"Depth(m)":"1.5","Condition":"Good","Material":"Metal"},"geometry":{"type":"Point","coordinates":[79.85987142817744,6.899271340473876]}},{"type":"Feature","properties":{"ID":"3043","Elevation":"7.447","Diameter (":null,"Length (cm":"100","Width (cm)":"50","Depth(m)":"2.5","Condition":"Good","Material":"Metal"},"geometry":{"type":"Point","coordinates":[79.85957052349464,6.899730814774035]}},{"type":"Feature","properties":{"ID":"3047","Elevation":"7.454","Diameter (":"600","Length (cm":null,"Width (cm)":null,"Depth(m)":"1.5","Condition":"Good","Material":"Metal"},"geometry":{"type":"Point","coordinates":[79.85953643946502,6.899768644666822]}},{"type":"Feature","properties":{"ID":"3060","Elevation":"7.628","Diameter (":"600","Length (cm":null,"Width (cm)":null,"Depth(m)":"1.5","Condition":"Good","Material":"Metal"},"geometry":{"type":"Point","coordinates":[79.85966948050923,6.8998250878349765]}},{"type":"Feature","properties":{"ID":"3061","Elevation":"7.651","Diameter (":"600","Length (cm":null,"Width (cm)":null,"Depth(m)":"1.5","Condition":"Good","Material":"Metal"},"geometry":{"type":"Point","coordinates":[79.85969000771728,6.899835842148473]}},{"type":"Feature","properties":{"ID":"3065","Elevation":"7.585","Diameter (":null,"Length (cm":"100","Width (cm)":"60","Depth(m)":"1.9","Condition":"Good","Material":"Metal"},"geometry":{"type":"Point","coordinates":[79.8595276983152,6.90004180740812]}},{"type":"Feature","properties":{"ID":"3077","Elevation":"7.568","Diameter (":"600","Length (cm":null,"Width (cm)":null,"Depth(m)":"1.5","Condition":"Good","Material":"Metal"},"geometry":{"type":"Point","coordinates":[79.8594399046054,6.900489185816601]}},{"type":"Feature","properties":{"ID":"3112","Elevation":"6.835","Diameter (":null,"Length (cm":"100","Width (cm)":"60","Depth(m)":"2.3","Condition":"Good","Material":"Metal"},"geometry":{"type":"Point","coordinates":[79.85899986362176,6.901702691924495]}},{"type":"Feature","properties":{"ID":"3113","Elevation":"6.622","Diameter (":null,"Length (cm":"90","Width (cm)":"45","Depth(m)":"1.8","Condition":"Good","Material":"Metal"},"geometry":{"type":"Point","coordinates":[79.85900248787742,6.901749498804831]}},{"type":"Feature","properties":{"ID":"3119","Elevation":"6.251","Diameter (":"600","Length (cm":null,"Width (cm)":null,"Depth(m)":"1.5","Condition":"Good","Material":"Metal"},"geometry":{"type":"Point","coordinates":[79.85899124773317,6.901896465323364]}},{"type":"Feature","properties":{"ID":"3120","Elevation":"6.16","Diameter (":"600","Length (cm":null,"Width (cm)":null,"Depth(m)":"1.5","Condition":"Good","Material":"Metal"},"geometry":{"type":"Point","coordinates":[79.85890651222694,6.901934613654333]}},{"type":"Feature","properties":{"ID":"3132","Elevation":"5.462","Diameter (":"600","Length (cm":null,"Width (cm)":null,"Depth(m)":"1.5","Condition":"Good","Material":"Metal"},"geometry":{"type":"Point","coordinates":[79.85874829279219,6.902637683992054]}},{"type":"Feature","properties":{"ID":"3147","Elevation":"5.23","Diameter (":"600","Length (cm":null,"Width (cm)":null,"Depth(m)":"1.5","Condition":"Good","Material":"Metal"},"geometry":{"type":"Point","coordinates":[79.85857451987643,6.903086876806452]}},{"type":"Feature","properties":{"ID":"3156","Elevation":"5.179","Diameter (":"600","Length (cm":null,"Width (cm)":null,"Depth(m)":"1.5","Condition":"Good","Material":"Metal"},"geometry":{"type":"Point","coordinates":[79.85853184059489,6.903298053906342]}},{"type":"Feature","properties":{"ID":"3157","Elevation":"5.229","Diameter (":"600","Length (cm":null,"Width (cm)":null,"Depth(m)":"1.5","Condition":"Good","Material":"Metal"},"geometry":{"type":"Point","coordinates":[79.85855495705746,6.903303378974524]}},{"type":"Feature","properties":{"ID":"3160","Elevation":"5.112","Diameter (":null,"Length (cm":"60","Width (cm)":"50","Depth(m)":"1","Condition":"Good","Material":"Metal"},"geometry":{"type":"Point","coordinates":[79.85845896426156,6.903389130173026]}},{"type":"Feature","properties":{"ID":"3165","Elevation":"4.968","Diameter (":"600","Length (cm":null,"Width (cm)":null,"Depth(m)":"1.5","Condition":"Good","Material":"Metal"},"geometry":{"type":"Point","coordinates":[79.85841751659993,6.903538669740082]}},{"type":"Feature","properties":{"ID":"3169","Elevation":"5.128","Diameter (":null,"Length (cm":"100","Width (cm)":"60","Depth(m)":"1.7","Condition":"Good","Material":"Metal"},"geometry":{"type":"Point","coordinates":[79.8583297321382,6.903745492108779]}},{"type":"Feature","properties":{"ID":"3170","Elevation":"5.067","Diameter (":null,"Length (cm":"150","Width (cm)":"75","Depth(m)":"2.6","Condition":"Good","Material":"Metal"},"geometry":{"type":"Point","coordinates":[79.8583341384633,6.903768991923182]}},{"type":"Feature","properties":{"ID":"3172","Elevation":"5","Diameter (":"600","Length (cm":null,"Width (cm)":null,"Depth(m)":"1.5","Condition":"Good","Material":"Metal"},"geometry":{"type":"Point","coordinates":[79.85832817798254,6.9039039787440295]}},{"type":"Feature","properties":{"ID":"3173","Elevation":"5.084","Diameter (":null,"Length (cm":"150","Width (cm)":"90","Depth(m)":"2.4","Condition":"Good","Material":"Metal"},"geometry":{"type":"Point","coordinates":[79.8583148495459,6.903927806097145]}},{"type":"Feature","properties":{"ID":"3180","Elevation":"4.949","Diameter (":"600","Length (cm":null,"Width (cm)":null,"Depth(m)":"1.5","Condition":"Good","Material":"Metal"},"geometry":{"type":"Point","coordinates":[79.85825831459995,6.9041592559383345]}},{"type":"Feature","properties":{"ID":"3184","Elevation":"5.221","Diameter (":null,"Length (cm":"150","Width (cm)":"75","Depth(m)":"2.5","Condition":"Good","Material":"Metal"},"geometry":{"type":"Point","coordinates":[79.85829793691852,6.904252601311135]}},{"type":"Feature","properties":{"ID":"3194","Elevation":"5.286","Diameter (":"600","Length (cm":null,"Width (cm)":null,"Depth(m)":"1.5","Condition":"Good","Material":"Metal"},"geometry":{"type":"Point","coordinates":[79.85835795932343,6.9046339129969505]}},{"type":"Feature","properties":{"ID":"3195","Elevation":"5.354","Diameter (":"600","Length (cm":null,"Width (cm)":null,"Depth(m)":"1.5","Condition":"Good","Material":"Metal"},"geometry":{"type":"Point","coordinates":[79.85835430104481,6.904766806482449]}},{"type":"Feature","properties":{"ID":"3197","Elevation":"5.212","Diameter (":"600","Length (cm":null,"Width (cm)":null,"Depth(m)":"1.5","Condition":"Good","Material":"Metal"},"geometry":{"type":"Point","coordinates":[79.85842265105721,6.904846020137728]}},{"type":"Feature","properties":{"ID":"3199","Elevation":"5.229","Diameter (":null,"Length (cm":"100","Width (cm)":"60","Depth(m)":"2.3","Condition":"Good","Material":"Metal"},"geometry":{"type":"Point","coordinates":[79.85837211578169,6.904912734785367]}},{"type":"Feature","properties":{"ID":"3219","Elevation":"5.031","Diameter (":"600","Length (cm":null,"Width (cm)":null,"Depth(m)":"1.5","Condition":"Good","Material":"Metal"},"geometry":{"type":"Point","coordinates":[79.85849511157643,6.9055856121241925]}},{"type":"Feature","properties":{"ID":"3222","Elevation":"5.233","Diameter (":"600","Length (cm":null,"Width (cm)":null,"Depth(m)":"1.5","Condition":"Good","Material":"Metal"},"geometry":{"type":"Point","coordinates":[79.85844981931281,6.905621955467111]}},{"type":"Feature","properties":{"ID":"3226","Elevation":"5.348","Diameter (":null,"Length (cm":"150","Width (cm)":"75","Depth(m)":"2.5","Condition":"Good","Material":"Metal"},"geometry":{"type":"Point","coordinates":[79.85854633305395,6.905674567288991]}},{"type":"Feature","properties":{"ID":"3234","Elevation":"5.679","Diameter (":null,"Length (cm":"150","Width (cm)":"75","Depth(m)":"2.5","Condition":"Good","Material":"Metal"},"geometry":{"type":"Point","coordinates":[79.85871008510486,6.9058762768483275]}},{"type":"Feature","properties":{"ID":"3240","Elevation":"5.521","Diameter (":null,"Length (cm":"90","Width (cm)":"90","Depth(m)":"1","Condition":"Good","Material":"Metal"},"geometry":{"type":"Point","coordinates":[79.85875545571079,6.905874402053211]}},{"type":"Feature","properties":{"ID":"3246","Elevation":"6.043","Diameter (":null,"Length (cm":"150","Width (cm)":"75","Depth(m)":"2.5","Condition":"Good","Material":"Metal"},"geometry":{"type":"Point","coordinates":[79.85882895102972,6.906016332427524]}},{"type":"Feature","properties":{"ID":"3250","Elevation":"5.947","Diameter (":"600","Length (cm":null,"Width (cm)":null,"Depth(m)":"1.5","Condition":"Good","Material":"Metal"},"geometry":{"type":"Point","coordinates":[79.85889323126345,6.906024286594199]}},{"type":"Feature","properties":{"ID":"3253","Elevation":"5.819","Diameter (":"600","Length (cm":null,"Width (cm)":null,"Depth(m)":"1.5","Condition":"Good","Material":"Metal"},"geometry":{"type":"Point","coordinates":[79.85896324079827,6.905989012535128]}},{"type":"Feature","properties":{"ID":"3254","Elevation":"5.835","Diameter (":"600","Length (cm":null,"Width (cm)":null,"Depth(m)":"1.5","Condition":"Good","Material":"Metal"},"geometry":{"type":"Point","coordinates":[79.859078953371,6.906014128068389]}},{"type":"Feature","properties":{"ID":"3257","Elevation":"5.861","Diameter (":"600","Length (cm":null,"Width (cm)":null,"Depth(m)":"1.5","Condition":"Good","Material":"Metal"},"geometry":{"type":"Point","coordinates":[79.8591027732814,6.906119333339454]}},{"type":"Feature","properties":{"ID":"3257","Elevation":"5.861","Diameter (":"600","Length (cm":null,"Width (cm)":null,"Depth(m)":"1.5","Condition":"Good","Material":"Metal"},"geometry":{"type":"Point","coordinates":[79.8591027732814,6.906119333339454]}},{"type":"Feature","properties":{"ID":"3261","Elevation":"6.094","Diameter (":"600","Length (cm":null,"Width (cm)":null,"Depth(m)":"1.5","Condition":"Good","Material":"Metal"},"geometry":{"type":"Point","coordinates":[79.85903099910402,6.906201695193499]}},{"type":"Feature","properties":{"ID":"3264","Elevation":"6.032","Diameter (":null,"Length (cm":"150","Width (cm)":"75","Depth(m)":"2","Condition":"Good","Material":"Metal"},"geometry":{"type":"Point","coordinates":[79.85907794958977,6.906211062722043]}},{"type":"Feature","properties":{"ID":"3273","Elevation":"5.779","Diameter (":null,"Length (cm":"90","Width (cm)":"90","Depth(m)":"1","Condition":"Good","Material":"Metal"},"geometry":{"type":"Point","coordinates":[79.85925738434503,6.906266148758382]}},{"type":"Feature","properties":{"ID":"3279","Elevation":"6.084","Diameter (":null,"Length (cm":"100","Width (cm)":"60","Depth(m)":"1.5","Condition":"Good","Material":"Metal"},"geometry":{"type":"Point","coordinates":[79.85942737307901,6.906584223674747]}},{"type":"Feature","properties":{"ID":"3281","Elevation":"5.914","Diameter (":"600","Length (cm":null,"Width (cm)":null,"Depth(m)":"1.5","Condition":"Good","Material":"Metal"},"geometry":{"type":"Point","coordinates":[79.8594847167177,6.906576431201422]}},{"type":"Feature","properties":{"ID":"3282","Elevation":"5.976","Diameter (":"600","Length (cm":null,"Width (cm)":null,"Depth(m)":"1.5","Condition":"Good","Material":"Metal"},"geometry":{"type":"Point","coordinates":[79.85952724293574,6.90654341897195]}},{"type":"Feature","properties":{"ID":"3287","Elevation":"6.231","Diameter (":"600","Length (cm":null,"Width (cm)":null,"Depth(m)":"1.5","Condition":"Good","Material":"Metal"},"geometry":{"type":"Point","coordinates":[79.85945055247896,6.906735460959645]}},{"type":"Feature","properties":{"ID":"3293","Elevation":"5.88","Diameter (":"600","Length (cm":null,"Width (cm)":null,"Depth(m)":"1.5","Condition":"Good","Material":"Metal"},"geometry":{"type":"Point","coordinates":[79.85974930938954,6.906980687281807]}},{"type":"Feature","properties":{"ID":"3297","Elevation":"5.871","Diameter (":"600","Length (cm":null,"Width (cm)":null,"Depth(m)":"1.5","Condition":"Good","Material":"Metal"},"geometry":{"type":"Point","coordinates":[79.85983027975726,6.90708926663682]}},{"type":"Feature","properties":{"ID":"3300","Elevation":"5.922","Diameter (":"600","Length (cm":null,"Width (cm)":null,"Depth(m)":"1.5","Condition":"Good","Material":"Metal"},"geometry":{"type":"Point","coordinates":[79.85993280526743,6.907158925082815]}},{"type":"Feature","properties":{"ID":"3301","Elevation":"5.902","Diameter (":"600","Length (cm":null,"Width (cm)":null,"Depth(m)":"1.5","Condition":"Good","Material":"Metal"},"geometry":{"type":"Point","coordinates":[79.85993548211916,6.907192539661723]}},{"type":"Feature","properties":{"ID":"3304","Elevation":"5.874","Diameter (":"600","Length (cm":null,"Width (cm)":null,"Depth(m)":"1.5","Condition":"Good","Material":"Metal"},"geometry":{"type":"Point","coordinates":[79.85996794857913,6.9072761419158155]}},{"type":"Feature","properties":{"ID":"3307","Elevation":"6.021","Diameter (":null,"Length (cm":"150","Width (cm)":"75","Depth(m)":"2.1","Condition":"Good","Material":"Metal"},"geometry":{"type":"Point","coordinates":[79.85995085170597,6.907335144818666]}},{"type":"Feature","properties":{"ID":"3324","Elevation":"6","Diameter (":null,"Length (cm":"100","Width (cm)":"60","Depth(m)":"2.1","Condition":"Good","Material":"Metal"},"geometry":{"type":"Point","coordinates":[79.85957990234564,6.906501347974549]}},{"type":"Feature","properties":{"ID":"3335","Elevation":"5.722","Diameter (":"600","Length (cm":null,"Width (cm)":null,"Depth(m)":"1.5","Condition":"Good","Material":"Metal"},"geometry":{"type":"Point","coordinates":[79.85922035749928,6.906018342497009]}},{"type":"Feature","properties":{"ID":"4000","Elevation":"6.025","Diameter (":"600","Length (cm":null,"Width (cm)":null,"Depth(m)":"1.5","Condition":"Good","Material":"Metal"},"geometry":{"type":"Point","coordinates":[79.86011393432655,6.907490376424561]}},{"type":"Feature","properties":{"ID":"4002","Elevation":"6.172","Diameter (":"600","Length (cm":null,"Width (cm)":null,"Depth(m)":"1.5","Condition":"Good","Material":"Metal"},"geometry":{"type":"Point","coordinates":[79.86021024899308,6.907618507098218]}},{"type":"Feature","properties":{"ID":"4008","Elevation":"6.396","Diameter (":null,"Length (cm":"100","Width (cm)":"60","Depth(m)":"2.5","Condition":"Good","Material":"Metal"},"geometry":{"type":"Point","coordinates":[79.8603230203679,6.9078604188356785]}},{"type":"Feature","properties":{"ID":"4011","Elevation":"6.347","Diameter (":"600","Length (cm":null,"Width (cm)":null,"Depth(m)":"1.5","Condition":"Good","Material":"Metal"},"geometry":{"type":"Point","coordinates":[79.8603820920737,6.907956197651405]}},{"type":"Feature","properties":{"ID":"4013","Elevation":"6.525","Diameter (":"600","Length (cm":null,"Width (cm)":null,"Depth(m)":"1.5","Condition":"Good","Material":"Metal"},"geometry":{"type":"Point","coordinates":[79.86043265060447,6.908060821345016]}},{"type":"Feature","properties":{"ID":"4016","Elevation":"6.495","Diameter (":"600","Length (cm":null,"Width (cm)":null,"Depth(m)":"1.5","Condition":"Good","Material":"Metal"},"geometry":{"type":"Point","coordinates":[79.86048855588244,6.908071779295224]}},{"type":"Feature","properties":{"ID":"4017","Elevation":"6.529","Diameter (":"600","Length (cm":null,"Width (cm)":null,"Depth(m)":"1.5","Condition":"Good","Material":"Metal"},"geometry":{"type":"Point","coordinates":[79.86048643567678,6.90804510106513]}},{"type":"Feature","properties":{"ID":"4020","Elevation":"6.607","Diameter (":"600","Length (cm":null,"Width (cm)":null,"Depth(m)":"1.5","Condition":"Good","Material":"Metal"},"geometry":{"type":"Point","coordinates":[79.86054085306928,6.908246211231729]}},{"type":"Feature","properties":{"ID":"4022","Elevation":"6.728","Diameter (":"600","Length (cm":null,"Width (cm)":null,"Depth(m)":"1.5","Condition":"Good","Material":"Metal"},"geometry":{"type":"Point","coordinates":[79.86054959489962,6.90845708949117]}},{"type":"Feature","properties":{"ID":"4023","Elevation":"6.674","Diameter (":"600","Length (cm":null,"Width (cm)":null,"Depth(m)":"1.5","Condition":"Good","Material":"Metal"},"geometry":{"type":"Point","coordinates":[79.86056107848441,6.908451595888022]}},{"type":"Feature","properties":{"ID":"4024","Elevation":"6.67","Diameter (":"600","Length (cm":null,"Width (cm)":null,"Depth(m)":"1.5","Condition":"Good","Material":"Metal"},"geometry":{"type":"Point","coordinates":[79.86056989305824,6.908446006734367]}},{"type":"Feature","properties":{"ID":"4025","Elevation":"6.774","Diameter (":null,"Length (cm":"100","Width (cm)":"60","Depth(m)":"2","Condition":"Good","Material":"Metal"},"geometry":{"type":"Point","coordinates":[79.86054916945814,6.908555918679341]}},{"type":"Feature","properties":{"ID":"4033","Elevation":"6.748","Diameter (":"600","Length (cm":null,"Width (cm)":null,"Depth(m)":"1.5","Condition":"Good","Material":"Metal"},"geometry":{"type":"Point","coordinates":[79.86061579312913,6.908695746956471]}},{"type":"Feature","properties":{"ID":"4036","Elevation":"6.8","Diameter (":"600","Length (cm":null,"Width (cm)":null,"Depth(m)":"1.5","Condition":"Good","Material":"Metal"},"geometry":{"type":"Point","coordinates":[79.86055727478315,6.9087543176345445]}},{"type":"Feature","properties":{"ID":"4037","Elevation":"6.757","Diameter (":"600","Length (cm":null,"Width (cm)":null,"Depth(m)":"1.5","Condition":"Good","Material":"Metal"},"geometry":{"type":"Point","coordinates":[79.86055818115997,6.90873939993386]}},{"type":"Feature","properties":{"ID":"4048","Elevation":"6.95","Diameter (":"600","Length (cm":null,"Width (cm)":null,"Depth(m)":"1.5","Condition":"Good","Material":"Metal"},"geometry":{"type":"Point","coordinates":[79.86065613265703,6.909098559018027]}},{"type":"Feature","properties":{"ID":"4061","Elevation":"6.8","Diameter (":"600","Length (cm":null,"Width (cm)":null,"Depth(m)":"1.5","Condition":"Good","Material":"Metal"},"geometry":{"type":"Point","coordinates":[79.86056483558245,6.909282661273078]}},{"type":"Feature","properties":{"ID":"4066","Elevation":"7.038","Diameter (":"600","Length (cm":null,"Width (cm)":null,"Depth(m)":"1.5","Condition":"Good","Material":"Metal"},"geometry":{"type":"Point","coordinates":[79.86047796356831,6.909264319699891]}},{"type":"Feature","properties":{"ID":"4072","Elevation":"6.943","Diameter (":"600","Length (cm":null,"Width (cm)":null,"Depth(m)":"1.5","Condition":"Good","Material":"Metal"},"geometry":{"type":"Point","coordinates":[79.86026706151385,6.909367265289504]}},{"type":"Feature","properties":{"ID":"4073","Elevation":"6.969","Diameter (":"600","Length (cm":null,"Width (cm)":null,"Depth(m)":"1.5","Condition":"Good","Material":"Metal"},"geometry":{"type":"Point","coordinates":[79.86024682003809,6.909372380359575]}},{"type":"Feature","properties":{"ID":"4075","Elevation":"7.176","Diameter (":null,"Length (cm":"100","Width (cm)":"60","Depth(m)":"2.1","Condition":"Good","Material":"Metal"},"geometry":{"type":"Point","coordinates":[79.86017492085618,6.909387884918221]}},{"type":"Feature","properties":{"ID":"4086","Elevation":"7.091","Diameter (":null,"Length (cm":"100","Width (cm)":"60","Depth(m)":"2.5","Condition":"Good","Material":"Metal"},"geometry":{"type":"Point","coordinates":[79.85985233573695,6.909571632613666]}},{"type":"Feature","properties":{"ID":"4093","Elevation":"7.014","Diameter (":"600","Length (cm":null,"Width (cm)":null,"Depth(m)":"1.5","Condition":"Good","Material":"Metal"},"geometry":{"type":"Point","coordinates":[79.86003190302874,6.90955859571395]}},{"type":"Feature","properties":{"ID":"4095","Elevation":"6.968","Diameter (":null,"Length (cm":"100","Width (cm)":"60","Depth(m)":"2.1","Condition":"Good","Material":"Metal"},"geometry":{"type":"Point","coordinates":[79.86015639050763,6.909547532510797]}},{"type":"Feature","properties":{"ID":"4102","Elevation":"6.899","Diameter (":"600","Length (cm":null,"Width (cm)":null,"Depth(m)":"1.5","Condition":"Good","Material":"Metal"},"geometry":{"type":"Point","coordinates":[79.8607418698438,6.909363385659505]}},{"type":"Feature","properties":{"ID":"4104","Elevation":"6.843","Diameter (":"600","Length (cm":null,"Width (cm)":null,"Depth(m)":"1.5","Condition":"Good","Material":"Metal"},"geometry":{"type":"Point","coordinates":[79.86077912765573,6.909312911991202]}},{"type":"Feature","properties":{"ID":"4105","Elevation":"6.938","Diameter (":"600","Length (cm":null,"Width (cm)":null,"Depth(m)":"1.5","Condition":"Good","Material":"Metal"},"geometry":{"type":"Point","coordinates":[79.86072861506402,6.909273662687817]}},{"type":"Feature","properties":{"ID":"4106","Elevation":"6.948","Diameter (":"600","Length (cm":null,"Width (cm)":null,"Depth(m)":"1.5","Condition":"Good","Material":"Metal"},"geometry":{"type":"Point","coordinates":[79.86070130337437,6.909271259259565]}},{"type":"Feature","properties":{"ID":"4113","Elevation":"6.728","Diameter (":"600","Length (cm":null,"Width (cm)":null,"Depth(m)":"1.5","Condition":"Good","Material":"Metal"},"geometry":{"type":"Point","coordinates":[79.86097408379263,6.909329110233212]}},{"type":"Feature","properties":{"ID":"4116","Elevation":"6.63","Diameter (":"600","Length (cm":null,"Width (cm)":null,"Depth(m)":"1.5","Condition":"Good","Material":"Metal"},"geometry":{"type":"Point","coordinates":[79.86120313108115,6.909313545728957]}},{"type":"Feature","properties":{"ID":"4119","Elevation":"6.372","Diameter (":"600","Length (cm":null,"Width (cm)":null,"Depth(m)":"1.5","Condition":"Good","Material":"Metal"},"geometry":{"type":"Point","coordinates":[79.86129938318932,6.909286333065484]}},{"type":"Feature","properties":{"ID":"4127","Elevation":"6.664","Diameter (":"600","Length (cm":null,"Width (cm)":null,"Depth(m)":"1.5","Condition":"Good","Material":"Metal"},"geometry":{"type":"Point","coordinates":[79.86165587798135,6.9094190320818605]}},{"type":"Feature","properties":{"ID":"4138","Elevation":"6.663","Diameter (":"600","Length (cm":null,"Width (cm)":null,"Depth(m)":"1.5","Condition":"Good","Material":"Metal"},"geometry":{"type":"Point","coordinates":[79.86200382720173,6.909473952484972]}},{"type":"Feature","properties":{"ID":"4142","Elevation":"6.648","Diameter (":"600","Length (cm":null,"Width (cm)":null,"Depth(m)":"1.5","Condition":"Good","Material":"Metal"},"geometry":{"type":"Point","coordinates":[79.86213741597216,6.909501154262303]}},{"type":"Feature","properties":{"ID":"4146","Elevation":"6.634","Diameter (":"600","Length (cm":null,"Width (cm)":null,"Depth(m)":"1.5","Condition":"Good","Material":"Metal"},"geometry":{"type":"Point","coordinates":[79.86224193303084,6.909533092535999]}},{"type":"Feature","properties":{"ID":"4152","Elevation":"6.536","Diameter (":null,"Length (cm":"100","Width (cm)":"60","Depth(m)":"2.2","Condition":"Good","Material":"Metal"},"geometry":{"type":"Point","coordinates":[79.86242267274861,6.909606861045221]}},{"type":"Feature","properties":{"ID":"4155","Elevation":"6.879","Diameter (":null,"Length (cm":"100","Width (cm)":"60","Depth(m)":"2.2","Condition":"Good","Material":"Metal"},"geometry":{"type":"Point","coordinates":[79.8605530175046,6.90796213224555]}},{"type":"Feature","properties":{"ID":"4160","Elevation":"6.636","Diameter (":"600","Length (cm":null,"Width (cm)":null,"Depth(m)":"1.5","Condition":"Good","Material":"Metal"},"geometry":{"type":"Point","coordinates":[79.86060713179275,6.908048045639036]}},{"type":"Feature","properties":{"ID":"4164","Elevation":"6.68","Diameter (":"600","Length (cm":null,"Width (cm)":null,"Depth(m)":"1.5","Condition":"Good","Material":"Metal"},"geometry":{"type":"Point","coordinates":[79.86060861536072,6.908264516048098]}},{"type":"Feature","properties":{"ID":"4170","Elevation":"6.768","Diameter (":"600","Length (cm":null,"Width (cm)":null,"Depth(m)":"1.5","Condition":"Good","Material":"Metal"},"geometry":{"type":"Point","coordinates":[79.86072456525787,6.908726246971517]}},{"type":"Feature","properties":{"ID":"4175","Elevation":"6.922","Diameter (":null,"Length (cm":"100","Width (cm)":"60","Depth(m)":"2.3","Condition":"Good","Material":"Metal"},"geometry":{"type":"Point","coordinates":[79.86076869684445,6.9088982218441775]}},{"type":"Feature","properties":{"ID":"4179","Elevation":"6.955","Diameter (":null,"Length (cm":"50","Width (cm)":"50","Depth(m)":"1","Condition":"Good","Material":"Metal"},"geometry":{"type":"Point","coordinates":[79.86079594886786,6.909016273443611]}},{"type":"Feature","properties":{"ID":"4180","Elevation":"6.935","Diameter (":"600","Length (cm":null,"Width (cm)":null,"Depth(m)":"1.5","Condition":"Good","Material":"Metal"},"geometry":{"type":"Point","coordinates":[79.86078466172542,6.90904663316737]}},{"type":"Feature","properties":{"ID":"4186","Elevation":"6.8","Diameter (":"600","Length (cm":null,"Width (cm)":null,"Depth(m)":"1.5","Condition":"Good","Material":"Metal"},"geometry":{"type":"Point","coordinates":[79.86080752159751,6.909152559930772]}},{"type":"Feature","properties":{"ID":"4187","Elevation":"6.824","Diameter (":"600","Length (cm":null,"Width (cm)":null,"Depth(m)":"1.5","Condition":"Good","Material":"Metal"},"geometry":{"type":"Point","coordinates":[79.8607746388932,6.909139385719449]}},{"type":"Feature","properties":{"ID":"4191","Elevation":"6.84","Diameter (":"600","Length (cm":null,"Width (cm)":null,"Depth(m)":"1.5","Condition":"Good","Material":"Metal"},"geometry":{"type":"Point","coordinates":[79.8608223324698,6.909171848034924]}},{"type":"Feature","properties":{"ID":"4199","Elevation":"6.601","Diameter (":null,"Length (cm":null,"Width (cm)":null,"Depth(m)":"2.3","Condition":"Good","Material":"Metal"},"geometry":{"type":"Point","coordinates":[79.86146360221153,6.909166388643986]}},{"type":"Feature","properties":{"ID":"4206","Elevation":"6.313","Diameter (":null,"Length (cm":null,"Width (cm)":null,"Depth(m)":"1.5","Condition":"Good","Material":"Metal"},"geometry":{"type":"Point","coordinates":[79.86162872935014,6.909171769250955]}},{"type":"Feature","properties":{"ID":"4213","Elevation":"6.304","Diameter (":"600","Length (cm":null,"Width (cm)":null,"Depth(m)":"1.5","Condition":"Good","Material":"Metal"},"geometry":{"type":"Point","coordinates":[79.86189745649536,6.909220117727753]}},{"type":"Feature","properties":{"ID":"4217","Elevation":"6.541","Diameter (":null,"Length (cm":null,"Width (cm)":null,"Depth(m)":"1","Condition":"Good","Material":"Metal"},"geometry":{"type":"Point","coordinates":[79.86204116847655,6.909257556512774]}},{"type":"Feature","properties":{"ID":"4230","Elevation":"6.213","Diameter (":"600","Length (cm":null,"Width (cm)":null,"Depth(m)":"1.5","Condition":"Good","Material":"Metal"},"geometry":{"type":"Point","coordinates":[79.86250873136942,6.9091819574198485]}},{"type":"Feature","properties":{"ID":"4231","Elevation":"6.127","Diameter (":"600","Length (cm":null,"Width (cm)":null,"Depth(m)":"1.5","Condition":"Good","Material":"Metal"},"geometry":{"type":"Point","coordinates":[79.86253391812185,6.909084712824915]}},{"type":"Feature","properties":{"ID":"4232","Elevation":"6.017","Diameter (":"600","Length (cm":null,"Width (cm)":null,"Depth(m)":"1.5","Condition":"Good","Material":"Metal"},"geometry":{"type":"Point","coordinates":[79.86257168596262,6.909004129802592]}},{"type":"Feature","properties":{"ID":"4239","Elevation":"6.733","Diameter (":null,"Length (cm":"100","Width (cm)":"60","Depth(m)":"2.3","Condition":"Good","Material":"Metal"},"geometry":{"type":"Point","coordinates":[79.86253894600712,6.9093594754493814]}},{"type":"Feature","properties":{"ID":"4240","Elevation":"6.645","Diameter (":null,"Length (cm":"100","Width (cm)":"60","Depth(m)":"2.3","Condition":"Good","Material":"Metal"},"geometry":{"type":"Point","coordinates":[79.86254969015978,6.909380943895901]}},{"type":"Feature","properties":{"ID":"4250","Elevation":"6.503","Diameter (":null,"Length (cm":"100","Width (cm)":"60","Depth(m)":"2.3","Condition":"Good","Material":"Metal"},"geometry":{"type":"Point","coordinates":[79.8630161355038,6.90957649642928]}},{"type":"Feature","properties":{"ID":"4254","Elevation":"6.626","Diameter (":null,"Length (cm":"50","Width (cm)":"40","Depth(m)":"1","Condition":"Good","Material":"Metal"},"geometry":{"type":"Point","coordinates":[79.86319915120978,6.909671373268588]}},{"type":"Feature","properties":{"ID":"4257","Elevation":"6.51","Diameter (":null,"Length (cm":"100","Width (cm)":"60","Depth(m)":"1.9","Condition":"Good","Material":"Metal"},"geometry":{"type":"Point","coordinates":[79.86328440556791,6.909707677906593]}},{"type":"Feature","properties":{"ID":"4258","Elevation":"6.41","Diameter (":"600","Length (cm":null,"Width (cm)":null,"Depth(m)":"1.5","Condition":"Good","Material":"Metal"},"geometry":{"type":"Point","coordinates":[79.86329761726967,6.9097258054958965]}},{"type":"Feature","properties":{"ID":"4259","Elevation":"6.384","Diameter (":"600","Length (cm":null,"Width (cm)":null,"Depth(m)":"1.5","Condition":"Good","Material":"Metal"},"geometry":{"type":"Point","coordinates":[79.8633712780351,6.9097494922663545]}},{"type":"Feature","properties":{"ID":"4263","Elevation":"6.559","Diameter (":"600","Length (cm":null,"Width (cm)":null,"Depth(m)":"1.5","Condition":"Good","Material":"Metal"},"geometry":{"type":"Point","coordinates":[79.86344292233974,6.909725360573841]}},{"type":"Feature","properties":{"ID":"4267","Elevation":"6.676","Diameter (":"600","Length (cm":null,"Width (cm)":null,"Depth(m)":"1.5","Condition":"Good","Material":"Metal"},"geometry":{"type":"Point","coordinates":[79.86349744457826,6.909608451312516]}},{"type":"Feature","properties":{"ID":"4268","Elevation":"6.624","Diameter (":"600","Length (cm":null,"Width (cm)":null,"Depth(m)":"1.5","Condition":"Good","Material":"Metal"},"geometry":{"type":"Point","coordinates":[79.86330494103912,6.909770966700872]}},{"type":"Feature","properties":{"ID":"4269","Elevation":"6.479","Diameter (":"600","Length (cm":null,"Width (cm)":null,"Depth(m)":"1.5","Condition":"Good","Material":"Metal"},"geometry":{"type":"Point","coordinates":[79.8631215446825,6.909666956651984]}},{"type":"Feature","properties":{"ID":"4270","Elevation":"6.77","Diameter (":"600","Length (cm":null,"Width (cm)":null,"Depth(m)":"1.5","Condition":"Good","Material":"Metal"},"geometry":{"type":"Point","coordinates":[79.8626013014123,6.909507812997766]}},{"type":"Feature","properties":{"ID":"4273","Elevation":"6.706","Diameter (":"600","Length (cm":null,"Width (cm)":null,"Depth(m)":"1.5","Condition":"Good","Material":"Metal"},"geometry":{"type":"Point","coordinates":[79.8622840353583,6.909395814915728]}},{"type":"Feature","properties":{"ID":"4275","Elevation":"6.644","Diameter (":"600","Length (cm":null,"Width (cm)":null,"Depth(m)":"1.5","Condition":"Good","Material":"Metal"},"geometry":{"type":"Point","coordinates":[79.86206209687857,6.909342284887241]}},{"type":"Feature","properties":{"ID":"4277","Elevation":"6.644","Diameter (":"600","Length (cm":null,"Width (cm)":null,"Depth(m)":"1.5","Condition":"Good","Material":"Metal"},"geometry":{"type":"Point","coordinates":[79.86206209687857,6.909342284887241]}},{"type":"Feature","properties":{"ID":"4279","Elevation":"6.765","Diameter (":"600","Length (cm":null,"Width (cm)":null,"Depth(m)":"1.5","Condition":"Good","Material":"Metal"},"geometry":{"type":"Point","coordinates":[79.86254643378443,6.909648990439945]}},{"type":"Feature","properties":{"ID":"4283","Elevation":"6.728","Diameter (":"600","Length (cm":null,"Width (cm)":null,"Depth(m)":"1.5","Condition":"Good","Material":"Metal"},"geometry":{"type":"Point","coordinates":[79.8626604232503,6.909695622111463]}},{"type":"Feature","properties":{"ID":"4284","Elevation":"6.459","Diameter (":null,"Length (cm":"100","Width (cm)":"60","Depth(m)":"1.9","Condition":"Good","Material":"Metal"},"geometry":{"type":"Point","coordinates":[79.86265650357676,6.9096447437889426]}},{"type":"Feature","properties":{"ID":"4288","Elevation":"6.731","Diameter (":"600","Length (cm":null,"Width (cm)":null,"Depth(m)":"1.5","Condition":"Good","Material":"Metal"},"geometry":{"type":"Point","coordinates":[79.86277431720546,6.909740173894297]}},{"type":"Feature","properties":{"ID":"4322","Elevation":"7.401","Diameter (":"600","Length (cm":null,"Width (cm)":null,"Depth(m)":"1.5","Condition":"Good","Material":"Metal"},"geometry":{"type":"Point","coordinates":[79.864443816886,6.911265654256716]}},{"type":"Feature","properties":{"ID":"4342","Elevation":"6.851","Diameter (":"600","Length (cm":null,"Width (cm)":null,"Depth(m)":"1.5","Condition":"Good","Material":"Metal"},"geometry":{"type":"Point","coordinates":[79.8644782087544,6.911039224654539]}},{"type":"Feature","properties":{"ID":"4346","Elevation":"7.16","Diameter (":"800","Length (cm":null,"Width (cm)":null,"Depth(m)":"1.5","Condition":"Good","Material":"Metal"},"geometry":{"type":"Point","coordinates":[79.86443100167742,6.910917934040006]}},{"type":"Feature","properties":{"ID":"4352","Elevation":"6.984","Diameter (":"600","Length (cm":null,"Width (cm)":null,"Depth(m)":"1.5","Condition":"Good","Material":"Metal"},"geometry":{"type":"Point","coordinates":[79.86432084868716,6.9107719012882205]}},{"type":"Feature","properties":{"ID":"4354","Elevation":"7.26","Diameter (":"600","Length (cm":null,"Width (cm)":null,"Depth(m)":"1.5","Condition":"Good","Material":"Metal"},"geometry":{"type":"Point","coordinates":[79.8642728813563,6.910900876310184]}},{"type":"Feature","properties":{"ID":"4363","Elevation":"7.218","Diameter (":"600","Length (cm":null,"Width (cm)":null,"Depth(m)":"1.5","Condition":"Good","Material":"Metal"},"geometry":{"type":"Point","coordinates":[79.8642654957367,6.91119938692542]}},{"type":"Feature","properties":{"ID":"4366","Elevation":"6.666","Diameter (":"600","Length (cm":null,"Width (cm)":null,"Depth(m)":"1.5","Condition":"Good","Material":"Metal"},"geometry":{"type":"Point","coordinates":[79.86422223833678,6.911089840497392]}},{"type":"Feature","properties":{"ID":"4369","Elevation":"7.21","Diameter (":"600","Length (cm":null,"Width (cm)":null,"Depth(m)":"1.5","Condition":"Good","Material":"Metal"},"geometry":{"type":"Point","coordinates":[79.86406348146204,6.91087154062355]}},{"type":"Feature","properties":{"ID":"4383","Elevation":"6.391","Diameter (":"600","Length (cm":null,"Width (cm)":null,"Depth(m)":"1.5","Condition":"Good","Material":"Metal"},"geometry":{"type":"Point","coordinates":[79.86311064337927,6.909948904363732]}},{"type":"Feature","properties":{"ID":"4387","Elevation":"7.003","Diameter (":"600","Length (cm":null,"Width (cm)":null,"Depth(m)":"1.5","Condition":"Good","Material":"Metal"},"geometry":{"type":"Point","coordinates":[79.86421193846574,6.91065728313545]}},{"type":"Feature","properties":{"ID":"4408","Elevation":"6.715","Diameter (":null,"Length (cm":"100","Width (cm)":"50","Depth(m)":"1.8","Condition":"Good","Material":"Metal"},"geometry":{"type":"Point","coordinates":[79.86360877194691,6.909797653399001]}},{"type":"Feature","properties":{"ID":"5007","Elevation":"4.968","Diameter (":null,"Length (cm":"100","Width (cm)":"100","Depth(m)":"2.3","Condition":"Good","Material":"Metal"},"geometry":{"type":"Point","coordinates":[79.85945275207744,6.905645134450105]}},{"type":"Feature","properties":{"ID":"5009","Elevation":"4.948","Diameter (":null,"Length (cm":"100","Width (cm)":"100","Depth(m)":"2.1","Condition":"Good","Material":"Metal"},"geometry":{"type":"Point","coordinates":[79.85936204827604,6.905676453563252]}},{"type":"Feature","properties":{"ID":"5011","Elevation":"4.933","Diameter (":"600","Length (cm":null,"Width (cm)":null,"Depth(m)":"1.5","Condition":"Good","Material":"Metal"},"geometry":{"type":"Point","coordinates":[79.85931726708387,6.905729335951634]}},{"type":"Feature","properties":{"ID":"5014","Elevation":"5.066","Diameter (":"600","Length (cm":null,"Width (cm)":null,"Depth(m)":"1.5","Condition":"Good","Material":"Metal"},"geometry":{"type":"Point","coordinates":[79.85952476247027,6.905613869787526]}},{"type":"Feature","properties":{"ID":"5021","Elevation":"5.45","Diameter (":"600","Length (cm":null,"Width (cm)":null,"Depth(m)":"1.5","Condition":"Good","Material":"Metal"},"geometry":{"type":"Point","coordinates":[79.8597856321779,6.905512548502137]}},{"type":"Feature","properties":{"ID":"5023","Elevation":"5.968","Diameter (":null,"Length (cm":"100","Width (cm)":"60","Depth(m)":"1.9","Condition":"Good","Material":"Metal"},"geometry":{"type":"Point","coordinates":[79.86004009225931,6.90551647366716]}},{"type":"Feature","properties":{"ID":"5028","Elevation":"6.929","Diameter (":null,"Length (cm":"100","Width (cm)":"60","Depth(m)":"1.9","Condition":"Good","Material":"Metal"},"geometry":{"type":"Point","coordinates":[79.86034890164778,6.9053993843734816]}},{"type":"Feature","properties":{"ID":"5029","Elevation":"7.2","Diameter (":null,"Length (cm":"100","Width (cm)":"60","Depth(m)":"1.9","Condition":"Good","Material":"Metal"},"geometry":{"type":"Point","coordinates":[79.8605625402849,6.905439164070886]}},{"type":"Feature","properties":{"ID":"5033","Elevation":"7.44","Diameter (":"600","Length (cm":null,"Width (cm)":null,"Depth(m)":"1.9","Condition":"Good","Material":"Metal"},"geometry":{"type":"Point","coordinates":[79.86062684956148,6.905356742385115]}},{"type":"Feature","properties":{"ID":"5047","Elevation":"7.547","Diameter (":"600","Length (cm":null,"Width (cm)":null,"Depth(m)":"1.5","Condition":"Good","Material":"Metal"},"geometry":{"type":"Point","coordinates":[79.86095036702856,6.905401660897201]}},{"type":"Feature","properties":{"ID":"5058","Elevation":"5.675","Diameter (":"600","Length (cm":null,"Width (cm)":null,"Depth(m)":"1.5","Condition":"Good","Material":"Metal"},"geometry":{"type":"Point","coordinates":[79.86147638559565,6.905326066074529]}},{"type":"Feature","properties":{"ID":"5061","Elevation":"7.39","Diameter (":null,"Length (cm":"100","Width (cm)":"60","Depth(m)":"2.1","Condition":"Good","Material":"Metal"},"geometry":{"type":"Point","coordinates":[79.86157980384519,6.90540197395086]}},{"type":"Feature","properties":{"ID":"5069","Elevation":"7.249","Diameter (":"600","Length (cm":null,"Width (cm)":null,"Depth(m)":"1.5","Condition":"Good","Material":"Metal"},"geometry":{"type":"Point","coordinates":[79.86233825374323,6.905371048979884]}},{"type":"Feature","properties":{"ID":"5081","Elevation":"7.463","Diameter (":null,"Length (cm":"100","Width (cm)":"50","Depth(m)":"2.2","Condition":"Good","Material":"Metal"},"geometry":{"type":"Point","coordinates":[79.86307486325772,6.905608151906242]}},{"type":"Feature","properties":{"ID":"5091","Elevation":"7.391","Diameter (":"600","Length (cm":null,"Width (cm)":null,"Depth(m)":"1.5","Condition":"Good","Material":"Metal"},"geometry":{"type":"Point","coordinates":[79.86253675436176,6.905359430660417]}},{"type":"Feature","properties":{"ID":"5092","Elevation":"8.389","Diameter (":"600","Length (cm":null,"Width (cm)":null,"Depth(m)":"1.5","Condition":"Good","Material":"Metal"},"geometry":{"type":"Point","coordinates":[79.86254112040999,6.90508346532012]}},{"type":"Feature","properties":{"ID":"5113","Elevation":"7.531","Diameter (":null,"Length (cm":"100","Width (cm)":"50","Depth(m)":"2.2","Condition":"Good","Material":"Metal"},"geometry":{"type":"Point","coordinates":[79.8619073447916,6.905203549753227]}},{"type":"Feature","properties":{"ID":"5116","Elevation":"7.238","Diameter (":"600","Length (cm":null,"Width (cm)":null,"Depth(m)":"1.5","Condition":"Good","Material":"Metal"},"geometry":{"type":"Point","coordinates":[79.86177050896345,6.905218740198411]}},{"type":"Feature","properties":{"ID":"5130","Elevation":"7.308","Diameter (":"600","Length (cm":null,"Width (cm)":null,"Depth(m)":"1.5","Condition":"Good","Material":"Metal"},"geometry":{"type":"Point","coordinates":[79.86105034167575,6.905207330397139]}},{"type":"Feature","properties":{"ID":"5136","Elevation":"7.511","Diameter (":"600","Length (cm":null,"Width (cm)":null,"Depth(m)":"1.5","Condition":"Good","Material":"Metal"},"geometry":{"type":"Point","coordinates":[79.86080210825166,6.905216736745841]}},{"type":"Feature","properties":{"ID":"5141","Elevation":"8.872","Diameter (":"600","Length (cm":null,"Width (cm)":null,"Depth(m)":"1.5","Condition":"Good","Material":"Metal"},"geometry":{"type":"Point","coordinates":[79.86060242030707,6.90525769363965]}},{"type":"Feature","properties":{"ID":"5148","Elevation":"7.126","Diameter (":"600","Length (cm":null,"Width (cm)":null,"Depth(m)":"1.5","Condition":"Good","Material":"Metal"},"geometry":{"type":"Point","coordinates":[79.86035426274375,6.905269993364206]}},{"type":"Feature","properties":{"ID":"5154","Elevation":"6.08","Diameter (":null,"Length (cm":"100","Width (cm)":"50","Depth(m)":"2.2","Condition":"Good","Material":"Metal"},"geometry":{"type":"Point","coordinates":[79.85992416441134,6.905368186664655]}},{"type":"Feature","properties":{"ID":"5158","Elevation":"5.711","Diameter (":"600","Length (cm":null,"Width (cm)":null,"Depth(m)":"1.5","Condition":"Good","Material":"Metal"},"geometry":{"type":"Point","coordinates":[79.85981888019923,6.905392217052266]}},{"type":"Feature","properties":{"ID":"5160","Elevation":"5.522","Diameter (":"600","Length (cm":null,"Width (cm)":null,"Depth(m)":"1.5","Condition":"Good","Material":"Metal"},"geometry":{"type":"Point","coordinates":[79.85978344757311,6.905401842045686]}},{"type":"Feature","properties":{"ID":"5170","Elevation":"4.891","Diameter (":null,"Length (cm":"100","Width (cm)":"50","Depth(m)":"2.2","Condition":"Good","Material":"Metal"},"geometry":{"type":"Point","coordinates":[79.85937469183352,6.9056370996052685]}},{"type":"Feature","properties":{"ID":"5179","Elevation":"5.304","Diameter (":null,"Length (cm":"100","Width (cm)":"50","Depth(m)":"2.2","Condition":"Good","Material":"Metal"},"geometry":{"type":"Point","coordinates":[79.85919142694725,6.905846586698363]}},{"type":"Feature","properties":{"ID":"5202","Elevation":"5.049","Diameter (":"600","Length (cm":null,"Width (cm)":null,"Depth(m)":"1.5","Condition":"Good","Material":"Metal"},"geometry":{"type":"Point","coordinates":[79.85862795275094,6.90558216966436]}},{"type":"Feature","properties":{"ID":"5205","Elevation":"5.163","Diameter (":"600","Length (cm":null,"Width (cm)":null,"Depth(m)":"1.5","Condition":"Good","Material":"Metal"},"geometry":{"type":"Point","coordinates":[79.85862484093784,6.905520776973008]}},{"type":"Feature","properties":{"ID":"5244","Elevation":"5.035","Diameter (":null,"Length (cm":"100","Width (cm)":"50","Depth(m)":"2.2","Condition":"Good","Material":"Metal"},"geometry":{"type":"Point","coordinates":[79.85846619075576,6.903813109281236]}},{"type":"Feature","properties":{"ID":"5255","Elevation":"5.261","Diameter (":"600","Length (cm":null,"Width (cm)":null,"Depth(m)":"1.5","Condition":"Good","Material":"Metal"},"geometry":{"type":"Point","coordinates":[79.85862197946246,6.903371857074518]}},{"type":"Feature","properties":{"ID":"5259","Elevation":"5.361","Diameter (":null,"Length (cm":"150","Width (cm)":"75","Depth(m)":"2.4","Condition":"Good","Material":"Metal"},"geometry":{"type":"Point","coordinates":[79.85867068317077,6.903236599850213]}},{"type":"Feature","properties":{"ID":"5261","Elevation":"5.199","Diameter (":"600","Length (cm":null,"Width (cm)":null,"Depth(m)":"1.5","Condition":"Good","Material":"Metal"},"geometry":{"type":"Point","coordinates":[79.85864679362945,6.90319109027968]}},{"type":"Feature","properties":{"ID":"5262","Elevation":"5.235","Diameter (":"400","Length (cm":null,"Width (cm)":null,"Depth(m)":"1.5","Condition":"Good","Material":"Metal"},"geometry":{"type":"Point","coordinates":[79.85865422715678,6.903216612303321]}},{"type":"Feature","properties":{"ID":"5271","Elevation":"5.364","Diameter (":"600","Length (cm":null,"Width (cm)":null,"Depth(m)":"1.5","Condition":"Good","Material":"Metal"},"geometry":{"type":"Point","coordinates":[79.85878618247216,6.90274744641753]}},{"type":"Feature","properties":{"ID":"5272","Elevation":"5.578","Diameter (":"600","Length (cm":null,"Width (cm)":null,"Depth(m)":"1.5","Condition":"Good","Material":"Metal"},"geometry":{"type":"Point","coordinates":[79.85887618115684,6.902645055201566]}},{"type":"Feature","properties":{"ID":"5273","Elevation":"5.468","Diameter (":"600","Length (cm":null,"Width (cm)":null,"Depth(m)":"1.5","Condition":"Good","Material":"Metal"},"geometry":{"type":"Point","coordinates":[79.85883442022669,6.902633247277028]}},{"type":"Feature","properties":{"ID":"5277","Elevation":"5.592","Diameter (":null,"Length (cm":"100","Width (cm)":"50","Depth(m)":"2.2","Condition":"Good","Material":"Metal"},"geometry":{"type":"Point","coordinates":[79.85889264299173,6.902521101805615]}},{"type":"Feature","properties":{"ID":"5286","Elevation":"5.941","Diameter (":"600","Length (cm":null,"Width (cm)":null,"Depth(m)":"1.5","Condition":"Good","Material":"Metal"},"geometry":{"type":"Point","coordinates":[79.85898504755254,6.902118472755572]}},{"type":"Feature","properties":{"ID":"5291","Elevation":"6.563","Diameter (":"600","Length (cm":null,"Width (cm)":null,"Depth(m)":"1.5","Condition":"Good","Material":"Metal"},"geometry":{"type":"Point","coordinates":[79.85912285416818,6.901734919351452]}},{"type":"Feature","properties":{"ID":"5292","Elevation":"6.803","Diameter (":null,"Length (cm":"100","Width (cm)":"50","Depth(m)":"2.2","Condition":"Good","Material":"Metal"},"geometry":{"type":"Point","coordinates":[79.85915397084742,6.901715782840748]}},{"type":"Feature","properties":{"ID":"5298","Elevation":"9.231","Diameter (":"600","Length (cm":null,"Width (cm)":null,"Depth(m)":"1.5","Condition":"Good","Material":"Metal"},"geometry":{"type":"Point","coordinates":[79.85922941066475,6.901387998574028]}},{"type":"Feature","properties":{"ID":"5317","Elevation":"7.514","Diameter (":"600","Length (cm":null,"Width (cm)":null,"Depth(m)":"1.5","Condition":"Good","Material":"Metal"},"geometry":{"type":"Point","coordinates":[79.85940098330893,6.900840188104351]}},{"type":"Feature","properties":{"ID":"5330","Elevation":"7.714","Diameter (":"600","Length (cm":null,"Width (cm)":null,"Depth(m)":"1.5","Condition":"Good","Material":"Metal"},"geometry":{"type":"Point","coordinates":[79.85956193519633,6.9002490093338755]}},{"type":"Feature","properties":{"ID":"5342","Elevation":"7.726","Diameter (":null,"Length (cm":"100","Width (cm)":"50","Depth(m)":"2.2","Condition":"Good","Material":"Metal"},"geometry":{"type":"Point","coordinates":[79.85976374773121,6.899789218142528]}},{"type":"Feature","properties":{"ID":"5343","Elevation":"7.814","Diameter (":null,"Length (cm":"100","Width (cm)":"50","Depth(m)":"2.2","Condition":"Good","Material":"Metal"},"geometry":{"type":"Point","coordinates":[79.85977370807932,6.899789969686859]}},{"type":"Feature","properties":{"ID":"5344","Elevation":"7.792","Diameter (":null,"Length (cm":"100","Width (cm)":"50","Depth(m)":"2.2","Condition":"Good","Material":"Metal"},"geometry":{"type":"Point","coordinates":[79.8597773186265,6.899780346799604]}},{"type":"Feature","properties":{"ID":"5362","Elevation":"7.324","Diameter (":"600","Length (cm":null,"Width (cm)":null,"Depth(m)":"1.5","Condition":"Good","Material":"Metal"},"geometry":{"type":"Point","coordinates":[79.86008993624343,6.899219433562463]}},{"type":"Feature","properties":{"ID":"5366","Elevation":"7.231","Diameter (":null,"Length (cm":"50","Width (cm)":"50","Depth(m)":"1","Condition":"Good","Material":"Metal"},"geometry":{"type":"Point","coordinates":[79.86020986374358,6.899098608355937]}},{"type":"Feature","properties":{"ID":"5372","Elevation":"7.237","Diameter (":"600","Length (cm":null,"Width (cm)":null,"Depth(m)":"1.5","Condition":"Good","Material":"Metal"},"geometry":{"type":"Point","coordinates":[79.86033412085762,6.898998841406919]}},{"type":"Feature","properties":{"ID":"5378","Elevation":"7.246","Diameter (":"600","Length (cm":null,"Width (cm)":null,"Depth(m)":"1.5","Condition":"Good","Material":"Metal"},"geometry":{"type":"Point","coordinates":[79.86049884708522,6.898942617421612]}},{"type":"Feature","properties":{"ID":"5379","Elevation":"7.212","Diameter (":"900","Length (cm":null,"Width (cm)":null,"Depth(m)":"1.5","Condition":"Good","Material":"Metal"},"geometry":{"type":"Point","coordinates":[79.86052695267642,6.898950628405283]}},{"type":"Feature","properties":{"ID":"5380","Elevation":"7.205","Diameter (":"600","Length (cm":null,"Width (cm)":null,"Depth(m)":"1.5","Condition":"Good","Material":"Metal"},"geometry":{"type":"Point","coordinates":[79.86055660467987,6.898973172994145]}},{"type":"Feature","properties":{"ID":"5386","Elevation":"7.577","Diameter (":null,"Length (cm":"50","Width (cm)":"50","Depth(m)":"1","Condition":"Good","Material":"Metal"},"geometry":{"type":"Point","coordinates":[79.8606034264548,6.898780801964861]}},{"type":"Feature","properties":{"ID":"5394","Elevation":"7.565","Diameter (":"600","Length (cm":null,"Width (cm)":null,"Depth(m)":"1.5","Condition":"Good","Material":"Metal"},"geometry":{"type":"Point","coordinates":[79.86056712720851,6.898704914374803]}},{"type":"Feature","properties":{"ID":"5396","Elevation":"7.367","Diameter (":"600","Length (cm":null,"Width (cm)":null,"Depth(m)":"1.5","Condition":"Good","Material":"Metal"},"geometry":{"type":"Point","coordinates":[79.86052244762305,6.8986912564476945]}},{"type":"Feature","properties":{"ID":"5397","Elevation":"7.228","Diameter (":"600","Length (cm":null,"Width (cm)":null,"Depth(m)":"1.5","Condition":"Good","Material":"Metal"},"geometry":{"type":"Point","coordinates":[79.86043395310266,6.898859016288002]}}]}