{
"type": "FeatureCollection",
"name": "poles",
"crs": { "type": "name", "properties": { "name": "urn:ogc:def:crs:OGC:1.3:CRS84" } },
"features": [
{ "type": "Feature", "properties": { "poleId": "1.0", "height": 16.094656200408934 }, "geometry": { "type": "MultiPoint", "coordinates": [ [ 79.864179596672159, 6.907785918781157 ] ] } },
{ "type": "Feature", "properties": { "poleId": "2.0", "height": 15.146559925079346 }, "geometry": { "type": "MultiPoint", "coordinates": [ [ 79.863746947758756, 6.90764385992137 ] ] } },
{ "type": "Feature", "properties": { "poleId": "3.0", "height": 9.9168226432800299 }, "geometry": { "type": "MultiPoint", "coordinates": [ [ 79.8639888377989, 6.909223181655441 ] ] } },
{ "type": "Feature", "properties": { "poleId": "4.0", "height": 25.394409389495848 }, "geometry": { "type": "MultiPoint", "coordinates": [ [ 79.86396909752871, 6.909016708886633 ] ] } },
{ "type": "Feature", "properties": { "poleId": "5.0", "height": 2.066538305282593 }, "geometry": { "type": "MultiPoint", "coordinates": [ [ 79.864781626182648, 6.908275337625855 ] ] } },
{ "type": "Feature", "properties": { "poleId": "6.0", "height": 5.8144489240646378 }, "geometry": { "type": "MultiPoint", "coordinates": [ [ 79.864503122934082, 6.908102834442785 ] ] } },
{ "type": "Feature", "properties": { "poleId": "7.0", "height": 8.7090999794006354 }, "geometry": { "type": "MultiPoint", "coordinates": [ [ 79.864743073662623, 6.908278651798485 ] ] } },
{ "type": "Feature", "properties": { "poleId": "8.0", "height": 6.2495004844665543 }, "geometry": { "type": "MultiPoint", "coordinates": [ [ 79.864795692682733, 6.908290527409679 ] ] } },
{ "type": "Feature", "properties": { "poleId": "9.0", "height": 6.0246971559524543 }, "geometry": { "type": "MultiPoint", "coordinates": [ [ 79.862628738191674, 6.911756282007924 ] ] } },
{ "type": "Feature", "properties": { "poleId": "10.0", "height": 10.676599712371827 }, "geometry": { "type": "MultiPoint", "coordinates": [ [ 79.862950808055786, 6.90966994599793 ] ] } },
{ "type": "Feature", "properties": { "poleId": "11.0", "height": 15.541899890899659 }, "geometry": { "type": "MultiPoint", "coordinates": [ [ 79.863372182450689, 6.910099222923682 ] ] } },
{ "type": "Feature", "properties": { "poleId": "12.0", "height": 3.1595424127578742 }, "geometry": { "type": "MultiPoint", "coordinates": [ [ 79.863514761570855, 6.910044672525849 ] ] } },
{ "type": "Feature", "properties": { "poleId": "13.0", "height": 6.478610606193544 }, "geometry": { "type": "MultiPoint", "coordinates": [ [ 79.861805813687823, 6.911445337816949 ] ] } },
{ "type": "Feature", "properties": { "poleId": "14.0", "height": 11.801733226776124 }, "geometry": { "type": "MultiPoint", "coordinates": [ [ 79.863609330927176, 6.909813843834117 ] ] } },
{ "type": "Feature", "properties": { "poleId": "15.0", "height": 14.652529091835023 }, "geometry": { "type": "MultiPoint", "coordinates": [ [ 79.862018827851628, 6.911727392107366 ] ] } },
{ "type": "Feature", "properties": { "poleId": "16.0", "height": 12.580600948333741 }, "geometry": { "type": "MultiPoint", "coordinates": [ [ 79.863136040222145, 6.911749897467718 ] ] } },
{ "type": "Feature", "properties": { "poleId": "17.0", "height": 14.351800174713135 }, "geometry": { "type": "MultiPoint", "coordinates": [ [ 79.864398186894249, 6.911151556089974 ] ] } },
{ "type": "Feature", "properties": { "poleId": "18.0", "height": 12.433399410247803 }, "geometry": { "type": "MultiPoint", "coordinates": [ [ 79.863394451999781, 6.911746527506011 ] ] } },
{ "type": "Feature", "properties": { "poleId": "19.0", "height": 19.327900142669677 }, "geometry": { "type": "MultiPoint", "coordinates": [ [ 79.864249162691777, 6.910908629363392 ] ] } },
{ "type": "Feature", "properties": { "poleId": "20.0", "height": 3.9102420520782482 }, "geometry": { "type": "MultiPoint", "coordinates": [ [ 79.864488996252803, 6.911412596285022 ] ] } },
{ "type": "Feature", "properties": { "poleId": "21.0", "height": 17.305800437927246 }, "geometry": { "type": "MultiPoint", "coordinates": [ [ 79.864516187852487, 6.911700310272649 ] ] } },
{ "type": "Feature", "properties": { "poleId": "22.0", "height": 19.045898647308348 }, "geometry": { "type": "MultiPoint", "coordinates": [ [ 79.864067163389109, 6.910660025655976 ] ] } },
{ "type": "Feature", "properties": { "poleId": "23.0", "height": 16.451099605560302 }, "geometry": { "type": "MultiPoint", "coordinates": [ [ 79.861719967554365, 6.911925963277244 ] ] } },
{ "type": "Feature", "properties": { "poleId": "24.0", "height": 5.6718104791641242 }, "geometry": { "type": "MultiPoint", "coordinates": [ [ 79.86406306878574, 6.91173769973598 ] ] } },
{ "type": "Feature", "properties": { "poleId": "25.0", "height": 0.023313493728638002 }, "geometry": { "type": "MultiPoint", "coordinates": [ [ 79.862551692195368, 6.909511454008197 ] ] } },
{ "type": "Feature", "properties": { "poleId": "26.0", "height": 9.7266553354263312 }, "geometry": { "type": "MultiPoint", "coordinates": [ [ 79.861721317990174, 6.911935212985385 ] ] } },
{ "type": "Feature", "properties": { "poleId": "27.0", "height": 6.2928110074996964 }, "geometry": { "type": "MultiPoint", "coordinates": [ [ 79.861803486690505, 6.911432157363772 ] ] } },
{ "type": "Feature", "properties": { "poleId": "29.0", "height": 10.395000667572022 }, "geometry": { "type": "MultiPoint", "coordinates": [ [ 79.863331418645473, 6.90984851906211 ] ] } },
{ "type": "Feature", "properties": { "poleId": "30.0", "height": 4.964710803031922 }, "geometry": { "type": "MultiPoint", "coordinates": [ [ 79.86179609890317, 6.911536391401521 ] ] } },
{ "type": "Feature", "properties": { "poleId": "31.0", "height": 13.335667819976807 }, "geometry": { "type": "MultiPoint", "coordinates": [ [ 79.861810183466091, 6.911538366602076 ] ] } },
{ "type": "Feature", "properties": { "poleId": "32.0", "height": 19.02790090560913 }, "geometry": { "type": "MultiPoint", "coordinates": [ [ 79.86269158087272, 6.909682553674124 ] ] } },
{ "type": "Feature", "properties": { "poleId": "34.0", "height": 19.634977410018632 }, "geometry": { "type": "MultiPoint", "coordinates": [ [ 79.864208185781195, 6.908678847012234 ] ] } },
{ "type": "Feature", "properties": { "poleId": "35.0", "height": 2.2316807174995219 }, "geometry": { "type": "MultiPoint", "coordinates": [ [ 79.864605107750052, 6.908367813200464 ] ] } },
{ "type": "Feature", "properties": { "poleId": "36.0", "height": 11.254699770879228 }, "geometry": { "type": "MultiPoint", "coordinates": [ [ 79.863760985442326, 6.909310423765299 ] ] } },
{ "type": "Feature", "properties": { "poleId": "37.0", "height": 9.6409995213558233 }, "geometry": { "type": "MultiPoint", "coordinates": [ [ 79.863585117193907, 6.909552550003102 ] ] } },
{ "type": "Feature", "properties": { "poleId": "38.0", "height": 10.76865777638913 }, "geometry": { "type": "MultiPoint", "coordinates": [ [ 79.863705283779765, 6.910252232009782 ] ] } },
{ "type": "Feature", "properties": { "poleId": "39.0", "height": 15.293299504639553 }, "geometry": { "type": "MultiPoint", "coordinates": [ [ 79.863189592373956, 6.909630088893011 ] ] } },
{ "type": "Feature", "properties": { "poleId": "40.0", "height": 12.805671839571772 }, "geometry": { "type": "MultiPoint", "coordinates": [ [ 79.863725442413156, 6.911741746704348 ] ] } },
{ "type": "Feature", "properties": { "poleId": "41.0", "height": 2.796799791209565 }, "geometry": { "type": "MultiPoint", "coordinates": [ [ 79.864661680681948, 6.90830319881373 ] ] } },
{ "type": "Feature", "properties": { "poleId": "42.0", "height": 0.0 }, "geometry": { "type": "MultiPoint", "coordinates": [ [ 79.864587192931069, 6.908380109537123 ] ] } },
{ "type": "Feature", "properties": { "poleId": "43.0", "height": 8.9708998019808543 }, "geometry": { "type": "MultiPoint", "coordinates": [ [ 79.864545073663479, 6.908443459813243 ] ] } },
{ "type": "Feature", "properties": { "poleId": "45.0", "height": 0.0 }, "geometry": { "type": "MultiPoint", "coordinates": [ [ 79.864057034789795, 6.908866877095469 ] ] } },
{ "type": "Feature", "properties": { "poleId": "46.0", "height": 0.0 }, "geometry": { "type": "MultiPoint", "coordinates": [ [ 79.864338412221642, 6.908741676919744 ] ] } },
{ "type": "Feature", "properties": { "poleId": "47.0", "height": 0.0 }, "geometry": { "type": "MultiPoint", "coordinates": [ [ 79.864078545310775, 6.908878210857157 ] ] } },
{ "type": "Feature", "properties": { "poleId": "48.0", "height": 0.0 }, "geometry": { "type": "MultiPoint", "coordinates": [ [ 79.864077877488455, 6.908877743260554 ] ] } },
{ "type": "Feature", "properties": { "poleId": "49.0", "height": 14.717573107078181 }, "geometry": { "type": "MultiPoint", "coordinates": [ [ 79.863974371537807, 6.909020830615565 ] ] } },
{ "type": "Feature", "properties": { "poleId": "50.0", "height": 14.71797310638663 }, "geometry": { "type": "MultiPoint", "coordinates": [ [ 79.86397332578558, 6.909020395769487 ] ] } },
{ "type": "Feature", "properties": { "poleId": "51.0", "height": 0.0 }, "geometry": { "type": "MultiPoint", "coordinates": [ [ 79.863987301867624, 6.909014210866572 ] ] } },
{ "type": "Feature", "properties": { "poleId": "52.0", "height": 0.0 }, "geometry": { "type": "MultiPoint", "coordinates": [ [ 79.864110592915708, 6.911600185013698 ] ] } },
{ "type": "Feature", "properties": { "poleId": "53.0", "height": 14.351149263077478 }, "geometry": { "type": "MultiPoint", "coordinates": [ [ 79.862287131004322, 6.911749355188584 ] ] } },
{ "type": "Feature", "properties": { "poleId": "51", "height": null }, "geometry": { "type": "MultiPoint", "coordinates": [ [ 79.863962153453343, 6.907580480545871 ] ] } },
{ "type": "Feature", "properties": { "poleId": "52", "height": null }, "geometry": { "type": "MultiPoint", "coordinates": [ [ 79.864042870149504, 6.907599056331883 ] ] } },
{ "type": "Feature", "properties": { "poleId": "53", "height": null }, "geometry": { "type": "MultiPoint", "coordinates": [ [ 79.864092884317031, 6.907800088308968 ] ] } },
{ "type": "Feature", "properties": { "poleId": "54", "height": null }, "geometry": { "type": "MultiPoint", "coordinates": [ [ 79.86426207181843, 6.907841671646586 ] ] } },
{ "type": "Feature", "properties": { "poleId": "55", "height": null }, "geometry": { "type": "MultiPoint", "coordinates": [ [ 79.864382593985596, 6.907952178518805 ] ] } },
{ "type": "Feature", "properties": { "poleId": "56", "height": null }, "geometry": { "type": "MultiPoint", "coordinates": [ [ 79.864917510585741, 6.908102472203835 ] ] } },
{ "type": "Feature", "properties": { "poleId": "57", "height": null }, "geometry": { "type": "MultiPoint", "coordinates": [ [ 79.864465048511676, 6.908312984056587 ] ] } },
{ "type": "Feature", "properties": { "poleId": "58", "height": null }, "geometry": { "type": "MultiPoint", "coordinates": [ [ 79.864479887138742, 6.908330497480931 ] ] } },
{ "type": "Feature", "properties": { "poleId": "59", "height": null }, "geometry": { "type": "MultiPoint", "coordinates": [ [ 79.864421151377272, 6.908394568474201 ] ] } },
{ "type": "Feature", "properties": { "poleId": "60", "height": null }, "geometry": { "type": "MultiPoint", "coordinates": [ [ 79.864403619684992, 6.908383818085157 ] ] } },
{ "type": "Feature", "properties": { "poleId": "61", "height": null }, "geometry": { "type": "MultiPoint", "coordinates": [ [ 79.864051438041685, 6.909161847819871 ] ] } },
{ "type": "Feature", "properties": { "poleId": "62", "height": null }, "geometry": { "type": "MultiPoint", "coordinates": [ [ 79.863777283696791, 6.909511476803301 ] ] } },
{ "type": "Feature", "properties": { "poleId": "63", "height": null }, "geometry": { "type": "MultiPoint", "coordinates": [ [ 79.863788717921693, 6.909238615676792 ] ] } },
{ "type": "Feature", "properties": { "poleId": "64", "height": null }, "geometry": { "type": "MultiPoint", "coordinates": [ [ 79.863526995868924, 6.909605659999041 ] ] } },
{ "type": "Feature", "properties": { "poleId": "65", "height": null }, "geometry": { "type": "MultiPoint", "coordinates": [ [ 79.863506649383794, 6.909708410412262 ] ] } },
{ "type": "Feature", "properties": { "poleId": "66", "height": null }, "geometry": { "type": "MultiPoint", "coordinates": [ [ 79.862832348437863, 6.909464352715728 ] ] } },
{ "type": "Feature", "properties": { "poleId": "54.0", "height": 12.178044788503845 }, "geometry": { "type": "MultiPoint", "coordinates": [ [ 79.861504210071487, 6.911679380415772 ] ] } },
{ "type": "Feature", "properties": { "poleId": "55.0", "height": 12.137700133474485 }, "geometry": { "type": "MultiPoint", "coordinates": [ [ 79.861800756382294, 6.911702941419038 ] ] } },
{ "type": "Feature", "properties": { "poleId": "69", "height": null }, "geometry": { "type": "MultiPoint", "coordinates": [ [ 79.864199105870028, 6.908929956792248 ] ] } },
{ "type": "Feature", "properties": { "poleId": "70", "height": null }, "geometry": { "type": "MultiPoint", "coordinates": [ [ 79.864283508074095, 6.908839357481977 ] ] } },
{ "type": "Feature", "properties": { "poleId": "71", "height": null }, "geometry": { "type": "MultiPoint", "coordinates": [ [ 79.864409692597491, 6.908637555252701 ] ] } },
{ "type": "Feature", "properties": { "poleId": "56.0", "height": 10.181426952326387 }, "geometry": { "type": "MultiPoint", "coordinates": [ [ 79.864096645395989, 6.906841053260068 ] ] } },
{ "type": "Feature", "properties": { "poleId": "57.0", "height": 10.038971851313203 }, "geometry": { "type": "MultiPoint", "coordinates": [ [ 79.864213829881649, 6.907129452093613 ] ] } },
{ "type": "Feature", "properties": { "poleId": "58.0", "height": 14.775723231425882 }, "geometry": { "type": "MultiPoint", "coordinates": [ [ 79.86430950909255, 6.90740071196031 ] ] } },
{ "type": "Feature", "properties": { "poleId": "59.0", "height": 5.6507048110605176 }, "geometry": { "type": "MultiPoint", "coordinates": [ [ 79.863335060740241, 6.905945208406357 ] ] } },
{ "type": "Feature", "properties": { "poleId": "60.0", "height": 5.6599728564859344 }, "geometry": { "type": "MultiPoint", "coordinates": [ [ 79.863302900523138, 6.905906868021312 ] ] } },
{ "type": "Feature", "properties": { "poleId": "61.0", "height": 6.0271117190957959 }, "geometry": { "type": "MultiPoint", "coordinates": [ [ 79.863452525071864, 6.90608140829624 ] ] } },
{ "type": "Feature", "properties": { "poleId": "62.0", "height": 8.8754949073434783 }, "geometry": { "type": "MultiPoint", "coordinates": [ [ 79.864005766648518, 6.906671577499931 ] ] } },
{ "type": "Feature", "properties": { "poleId": "63.0", "height": 5.7903847198129599 }, "geometry": { "type": "MultiPoint", "coordinates": [ [ 79.863883174202357, 6.906738902185103 ] ] } },
{ "type": "Feature", "properties": { "poleId": "64.0", "height": 11.677120635950654 }, "geometry": { "type": "MultiPoint", "coordinates": [ [ 79.863423499593907, 6.905834909468505 ] ] } },
{ "type": "Feature", "properties": { "poleId": "65.0", "height": 11.67393202587375 }, "geometry": { "type": "MultiPoint", "coordinates": [ [ 79.863900559004918, 6.906483803329436 ] ] } },
{ "type": "Feature", "properties": { "poleId": "66.0", "height": 11.788989017450898 }, "geometry": { "type": "MultiPoint", "coordinates": [ [ 79.863751834381361, 6.906254654224859 ] ] } },
{ "type": "Feature", "properties": { "poleId": "67.0", "height": 5.6425594787240918 }, "geometry": { "type": "MultiPoint", "coordinates": [ [ 79.863368065852654, 6.905983770387622 ] ] } },
{ "type": "Feature", "properties": { "poleId": "68.0", "height": 5.9926990966440137 }, "geometry": { "type": "MultiPoint", "coordinates": [ [ 79.863485529910761, 6.906135328005512 ] ] } },
{ "type": "Feature", "properties": { "poleId": "69.0", "height": 12.124999851226807 }, "geometry": { "type": "MultiPoint", "coordinates": [ [ 79.862757426946388, 6.904988277094772 ] ] } },
{ "type": "Feature", "properties": { "poleId": "70.0", "height": 12.025690029108613 }, "geometry": { "type": "MultiPoint", "coordinates": [ [ 79.863251726570496, 6.905624799630545 ] ] } },
{ "type": "Feature", "properties": { "poleId": "71.0", "height": 12.509873817408174 }, "geometry": { "type": "MultiPoint", "coordinates": [ [ 79.862896702905431, 6.905216897332651 ] ] } },
{ "type": "Feature", "properties": { "poleId": "72.0", "height": 17.878000587463379 }, "geometry": { "type": "MultiPoint", "coordinates": [ [ 79.862668153667002, 6.904719703475631 ] ] } },
{ "type": "Feature", "properties": { "poleId": "73.0", "height": 20.715000480651856 }, "geometry": { "type": "MultiPoint", "coordinates": [ [ 79.86263286819792, 6.904449421975398 ] ] } },
{ "type": "Feature", "properties": { "poleId": "74.0", "height": 14.699000207901005 }, "geometry": { "type": "MultiPoint", "coordinates": [ [ 79.862531272068679, 6.904770430929828 ] ] } },
{ "type": "Feature", "properties": { "poleId": "75.0", "height": 5.3940001411438043 }, "geometry": { "type": "MultiPoint", "coordinates": [ [ 79.862578555576818, 6.90371479118674 ] ] } },
{ "type": "Feature", "properties": { "poleId": "76.0", "height": 13.547000257492069 }, "geometry": { "type": "MultiPoint", "coordinates": [ [ 79.862585022060301, 6.903944102558287 ] ] } },
{ "type": "Feature", "properties": { "poleId": "77.0", "height": 11.776000350952147 }, "geometry": { "type": "MultiPoint", "coordinates": [ [ 79.862609839458116, 6.904197312312586 ] ] } },
{ "type": "Feature", "properties": { "poleId": "78.0", "height": 12.157000392913819 }, "geometry": { "type": "MultiPoint", "coordinates": [ [ 79.862610441804165, 6.904205117800403 ] ] } },
{ "type": "Feature", "properties": { "poleId": "79.0", "height": 25.06000050735474 }, "geometry": { "type": "MultiPoint", "coordinates": [ [ 79.862384832322405, 6.903656459246047 ] ] } },
{ "type": "Feature", "properties": { "poleId": "80.0", "height": 9.8100002708435063 }, "geometry": { "type": "MultiPoint", "coordinates": [ [ 79.862479461694591, 6.904214292229378 ] ] } },
{ "type": "Feature", "properties": { "poleId": "81.0", "height": 12.381000131607056 }, "geometry": { "type": "MultiPoint", "coordinates": [ [ 79.862575441447277, 6.903312049875963 ] ] } },
{ "type": "Feature", "properties": { "poleId": "82.0", "height": 10.150999872207645 }, "geometry": { "type": "MultiPoint", "coordinates": [ [ 79.862479099387528, 6.903099151147954 ] ] } },
{ "type": "Feature", "properties": { "poleId": "83.0", "height": 13.090000359535223 }, "geometry": { "type": "MultiPoint", "coordinates": [ [ 79.862377405969511, 6.902911126242131 ] ] } },
{ "type": "Feature", "properties": { "poleId": "84.0", "height": 16.291000453948978 }, "geometry": { "type": "MultiPoint", "coordinates": [ [ 79.862275849683442, 6.902644116816443 ] ] } },
{ "type": "Feature", "properties": { "poleId": "85.0", "height": 21.161000102996827 }, "geometry": { "type": "MultiPoint", "coordinates": [ [ 79.861895452225241, 6.901643712289758 ] ] } },
{ "type": "Feature", "properties": { "poleId": "86.0", "height": 16.448000043869019 }, "geometry": { "type": "MultiPoint", "coordinates": [ [ 79.861705314894564, 6.901175462782213 ] ] } },
{ "type": "Feature", "properties": { "poleId": "87.0", "height": 10.278000205993653 }, "geometry": { "type": "MultiPoint", "coordinates": [ [ 79.861567636758139, 6.900890100730135 ] ] } },
{ "type": "Feature", "properties": { "poleId": "88.0", "height": 15.577000022172928 }, "geometry": { "type": "MultiPoint", "coordinates": [ [ 79.861485386859798, 6.900675466220255 ] ] } },
{ "type": "Feature", "properties": { "poleId": "89.0", "height": 8.6780005378723182 }, "geometry": { "type": "MultiPoint", "coordinates": [ [ 79.861866004991015, 6.901516401927748 ] ] } },
{ "type": "Feature", "properties": { "poleId": "90.0", "height": 9.0620006027221685 }, "geometry": { "type": "MultiPoint", "coordinates": [ [ 79.861870997509129, 6.90151689881435 ] ] } },
{ "type": "Feature", "properties": { "poleId": "91.0", "height": 7.6490004959106459 }, "geometry": { "type": "MultiPoint", "coordinates": [ [ 79.861755490038789, 6.901769765706477 ] ] } },
{ "type": "Feature", "properties": { "poleId": "92.0", "height": 14.134000689029694 }, "geometry": { "type": "MultiPoint", "coordinates": [ [ 79.861381865203541, 6.900450672773874 ] ] } },
{ "type": "Feature", "properties": { "poleId": "93.0", "height": 16.040000111103058 }, "geometry": { "type": "MultiPoint", "coordinates": [ [ 79.861799187614551, 6.901404097575165 ] ] } },
{ "type": "Feature", "properties": { "poleId": "94.0", "height": 11.780999988555909 }, "geometry": { "type": "MultiPoint", "coordinates": [ [ 79.86192552534348, 6.902128800061096 ] ] } },
{ "type": "Feature", "properties": { "poleId": "95.0", "height": 14.004999846458436 }, "geometry": { "type": "MultiPoint", "coordinates": [ [ 79.861993910705593, 6.901879237316531 ] ] } },
{ "type": "Feature", "properties": { "poleId": "96.0", "height": 19.923000186920166 }, "geometry": { "type": "MultiPoint", "coordinates": [ [ 79.861151947455241, 6.899924483641702 ] ] } },
{ "type": "Feature", "properties": { "poleId": "97.0", "height": 15.844999639511112 }, "geometry": { "type": "MultiPoint", "coordinates": [ [ 79.861977037870815, 6.901576600192155 ] ] } },
{ "type": "Feature", "properties": { "poleId": "98.0", "height": 22.31300053024292 }, "geometry": { "type": "MultiPoint", "coordinates": [ [ 79.861167822550541, 6.89995030739465 ] ] } },
{ "type": "Feature", "properties": { "poleId": "99.0", "height": 20.401000350952149 }, "geometry": { "type": "MultiPoint", "coordinates": [ [ 79.861898580128198, 6.901711200099855 ] ] } },
{ "type": "Feature", "properties": { "poleId": "100.0", "height": 20.473999588012699 }, "geometry": { "type": "MultiPoint", "coordinates": [ [ 79.861138033183821, 6.899905686945186 ] ] } },
{ "type": "Feature", "properties": { "poleId": "101.0", "height": 15.091000167846683 }, "geometry": { "type": "MultiPoint", "coordinates": [ [ 79.861703221936224, 6.901585454213755 ] ] } },
{ "type": "Feature", "properties": { "poleId": "102.0", "height": 21.150000423431397 }, "geometry": { "type": "MultiPoint", "coordinates": [ [ 79.861902609036079, 6.901653464305989 ] ] } },
{ "type": "Feature", "properties": { "poleId": "103.0", "height": 8.4689999504089393 }, "geometry": { "type": "MultiPoint", "coordinates": [ [ 79.861872985920073, 6.901512301554846 ] ] } },
{ "type": "Feature", "properties": { "poleId": "104.0", "height": 16.856000272750858 }, "geometry": { "type": "MultiPoint", "coordinates": [ [ 79.860859514885988, 6.899077718379219 ] ] } },
{ "type": "Feature", "properties": { "poleId": "105.0", "height": 18.412000267028812 }, "geometry": { "type": "MultiPoint", "coordinates": [ [ 79.860572290447521, 6.898734159748602 ] ] } },
{ "type": "Feature", "properties": { "poleId": "106.0", "height": 9.5759998245239295 }, "geometry": { "type": "MultiPoint", "coordinates": [ [ 79.860803456779252, 6.898968131142322 ] ] } },
{ "type": "Feature", "properties": { "poleId": "107.0", "height": 10.294000474929813 }, "geometry": { "type": "MultiPoint", "coordinates": [ [ 79.860399532784186, 6.898366717389814 ] ] } },
{ "type": "Feature", "properties": { "poleId": "108.0", "height": 11.841000406265263 }, "geometry": { "type": "MultiPoint", "coordinates": [ [ 79.860383897004141, 6.898624799890861 ] ] } },
{ "type": "Feature", "properties": { "poleId": "109.0", "height": 10.18400010299683 }, "geometry": { "type": "MultiPoint", "coordinates": [ [ 79.860426526265243, 6.898362574580162 ] ] } },
{ "type": "Feature", "properties": { "poleId": "110.0", "height": 10.458999959945682 }, "geometry": { "type": "MultiPoint", "coordinates": [ [ 79.860717289837154, 6.898660945879564 ] ] } },
{ "type": "Feature", "properties": { "poleId": "111.0", "height": 10.185000030517582 }, "geometry": { "type": "MultiPoint", "coordinates": [ [ 79.860281655516474, 6.898178765484781 ] ] } },
{ "type": "Feature", "properties": { "poleId": "112.0", "height": 16.421999542236332 }, "geometry": { "type": "MultiPoint", "coordinates": [ [ 79.861048954997301, 6.899678679753968 ] ] } },
{ "type": "Feature", "properties": { "poleId": "113.0", "height": 22.585000125885013 }, "geometry": { "type": "MultiPoint", "coordinates": [ [ 79.860880979238672, 6.899288225113195 ] ] } },
{ "type": "Feature", "properties": { "poleId": "114.0", "height": 14.408000380039216 }, "geometry": { "type": "MultiPoint", "coordinates": [ [ 79.860592322843871, 6.898999408930357 ] ] } },
{ "type": "Feature", "properties": { "poleId": "115.0", "height": 10.310999958038334 }, "geometry": { "type": "MultiPoint", "coordinates": [ [ 79.86031321210811, 6.898158563873382 ] ] } },
{ "type": "Feature", "properties": { "poleId": "116.0", "height": 19.062000362396244 }, "geometry": { "type": "MultiPoint", "coordinates": [ [ 79.860158934480296, 6.897984908232344 ] ] } },
{ "type": "Feature", "properties": { "poleId": "117.0", "height": 18.44300040435791 }, "geometry": { "type": "MultiPoint", "coordinates": [ [ 79.860926014443734, 6.899099309143327 ] ] } },
{ "type": "Feature", "properties": { "poleId": "118.0", "height": 11.839999675750732 }, "geometry": { "type": "MultiPoint", "coordinates": [ [ 79.859961963506478, 6.897979547761034 ] ] } },
{ "type": "Feature", "properties": { "poleId": "119.0", "height": 11.441999661445619 }, "geometry": { "type": "MultiPoint", "coordinates": [ [ 79.86011697626364, 6.899041479356797 ] ] } },
{ "type": "Feature", "properties": { "poleId": "120.0", "height": 19.451999892234802 }, "geometry": { "type": "MultiPoint", "coordinates": [ [ 79.859935089057842, 6.899216981367808 ] ] } },
{ "type": "Feature", "properties": { "poleId": "121.0", "height": 17.733999731659893 }, "geometry": { "type": "MultiPoint", "coordinates": [ [ 79.859945085061412, 6.899412445076267 ] ] } },
{ "type": "Feature", "properties": { "poleId": "122.0", "height": 20.161000239372257 }, "geometry": { "type": "MultiPoint", "coordinates": [ [ 79.86033592863393, 6.898841405421988 ] ] } },
{ "type": "Feature", "properties": { "poleId": "123.0", "height": 13.854999827861789 }, "geometry": { "type": "MultiPoint", "coordinates": [ [ 79.860296186741664, 6.898648160503292 ] ] } },
{ "type": "Feature", "properties": { "poleId": "124.0", "height": 18.073999869346618 }, "geometry": { "type": "MultiPoint", "coordinates": [ [ 79.860290022523685, 6.89882075263355 ] ] } },
{ "type": "Feature", "properties": { "poleId": "125.0", "height": 10.759999978065494 }, "geometry": { "type": "MultiPoint", "coordinates": [ [ 79.860136656313401, 6.898418668581441 ] ] } },
{ "type": "Feature", "properties": { "poleId": "126.0", "height": 14.939000132203105 }, "geometry": { "type": "MultiPoint", "coordinates": [ [ 79.859752128793446, 6.899260448840172 ] ] } },
{ "type": "Feature", "properties": { "poleId": "143", "height": null }, "geometry": { "type": "MultiPoint", "coordinates": [ [ 79.86191229076961, 6.911821356376803 ] ] } },
{ "type": "Feature", "properties": { "poleId": "144", "height": null }, "geometry": { "type": "MultiPoint", "coordinates": [ [ 79.862544819266546, 6.911895766687636 ] ] } },
{ "type": "Feature", "properties": { "poleId": "145", "height": null }, "geometry": { "type": "MultiPoint", "coordinates": [ [ 79.862029315784838, 6.911869386183767 ] ] } },
{ "type": "Feature", "properties": { "poleId": "146", "height": null }, "geometry": { "type": "MultiPoint", "coordinates": [ [ 79.862030003236356, 6.911619657687678 ] ] } },
{ "type": "Feature", "properties": { "poleId": "147", "height": null }, "geometry": { "type": "MultiPoint", "coordinates": [ [ 79.862290560583105, 6.911889860876709 ] ] } },
{ "type": "Feature", "properties": { "poleId": "148", "height": null }, "geometry": { "type": "MultiPoint", "coordinates": [ [ 79.863635878478092, 6.911886098788209 ] ] } },
{ "type": "Feature", "properties": { "poleId": "149", "height": null }, "geometry": { "type": "MultiPoint", "coordinates": [ [ 79.864210415384633, 6.911896010603284 ] ] } },
{ "type": "Feature", "properties": { "poleId": "150", "height": null }, "geometry": { "type": "MultiPoint", "coordinates": [ [ 79.862463696670062, 6.911895002097596 ] ] } },
{ "type": "Feature", "properties": { "poleId": "151", "height": null }, "geometry": { "type": "MultiPoint", "coordinates": [ [ 79.863098690868014, 6.911890187473268 ] ] } },
{ "type": "Feature", "properties": { "poleId": "152", "height": null }, "geometry": { "type": "MultiPoint", "coordinates": [ [ 79.862198961581072, 6.91188488133752 ] ] } },
{ "type": "Feature", "properties": { "poleId": "153", "height": null }, "geometry": { "type": "MultiPoint", "coordinates": [ [ 79.862635900519493, 6.911896014687974 ] ] } },
{ "type": "Feature", "properties": { "poleId": "154", "height": null }, "geometry": { "type": "MultiPoint", "coordinates": [ [ 79.863545715889217, 6.911886794754338 ] ] } },
{ "type": "Feature", "properties": { "poleId": "155", "height": null }, "geometry": { "type": "MultiPoint", "coordinates": [ [ 79.862816462969363, 6.91189225236741 ] ] } },
{ "type": "Feature", "properties": { "poleId": "156", "height": null }, "geometry": { "type": "MultiPoint", "coordinates": [ [ 79.863376353079701, 6.911887375595442 ] ] } },
{ "type": "Feature", "properties": { "poleId": "157", "height": null }, "geometry": { "type": "MultiPoint", "coordinates": [ [ 79.863727766898364, 6.911885790746846 ] ] } },
{ "type": "Feature", "properties": { "poleId": "158", "height": null }, "geometry": { "type": "MultiPoint", "coordinates": [ [ 79.863817641298553, 6.911884736418788 ] ] } },
{ "type": "Feature", "properties": { "poleId": "159", "height": null }, "geometry": { "type": "MultiPoint", "coordinates": [ [ 79.863011026266733, 6.91189183597394 ] ] } },
{ "type": "Feature", "properties": { "poleId": "160", "height": null }, "geometry": { "type": "MultiPoint", "coordinates": [ [ 79.863285715080863, 6.911888805760472 ] ] } },
{ "type": "Feature", "properties": { "poleId": "161", "height": null }, "geometry": { "type": "MultiPoint", "coordinates": [ [ 79.863908846323966, 6.911884015960915 ] ] } },
{ "type": "Feature", "properties": { "poleId": "162", "height": null }, "geometry": { "type": "MultiPoint", "coordinates": [ [ 79.862725951602926, 6.911894839760696 ] ] } },
{ "type": "Feature", "properties": { "poleId": "163", "height": null }, "geometry": { "type": "MultiPoint", "coordinates": [ [ 79.864000388723568, 6.911883479445115 ] ] } },
{ "type": "Feature", "properties": { "poleId": "164", "height": null }, "geometry": { "type": "MultiPoint", "coordinates": [ [ 79.864121403719906, 6.911884416608724 ] ] } }
]
}
