{"type":"FeatureCollection","features":[{"type":"Feature","properties":{"ID":"2219","Elevation":"7.161","Width(cm)":"40","Depth(m)":"1","Condition":"Good","Material":"Conreate"},"geometry":{"type":"Point","coordinates":[79.86122614767652,6.906439390330106]}},{"type":"Feature","properties":{"ID":"2220","Elevation":"6.987","Width(cm)":"40","Depth(m)":"1","Condition":"Good","Material":"Conreate"},"geometry":{"type":"Point","coordinates":[79.86122722630489,6.9065843009182375]}},{"type":"Feature","properties":{"ID":"2221","Elevation":"6.852","Width(cm)":"40","Depth(m)":"1","Condition":"Good","Material":"Conreate"},"geometry":{"type":"Point","coordinates":[79.86123014660679,6.90689137586266]}},{"type":"Feature","properties":{"ID":"2265","Elevation":"5.271","Width(cm)":"40","Depth(m)":"1","Condition":"Good","Material":"Conreate"},"geometry":{"type":"Point","coordinates":[79.86045935446595,6.906897942773145]}},{"type":"Feature","properties":{"ID":"2266","Elevation":"5.536","Width(cm)":"40","Depth(m)":"2","Condition":"Good","Material":"Conreate"},"geometry":{"type":"Point","coordinates":[79.86050041787607,6.906896285599048]}},{"type":"Feature","properties":{"ID":"2267","Elevation":"4.982","Width(cm)":"40","Depth(m)":"2","Condition":"Good","Material":"Conreate"},"geometry":{"type":"Point","coordinates":[79.86058764572724,6.906889355164052]}},{"type":"Feature","properties":{"ID":"2268","Elevation":"6.082","Width(cm)":"40","Depth(m)":"1","Condition":"Good","Material":"Conreate"},"geometry":{"type":"Point","coordinates":[79.86129047479524,6.906907821701833]}},{"type":"Feature","properties":{"ID":"2269","Elevation":"6.374","Width(cm)":"40","Depth(m)":"1","Condition":"Good","Material":"Conreate"},"geometry":{"type":"Point","coordinates":[79.86218496931413,6.906987779400868]}},{"type":"Feature","properties":{"ID":"2270","Elevation":"6.363","Width(cm)":"40","Depth(m)":"1","Condition":"Good","Material":"Conreate"},"geometry":{"type":"Point","coordinates":[79.86248335382656,6.907041455822299]}},{"type":"Feature","properties":{"ID":"2271","Elevation":"6.245","Width(cm)":"40","Depth(m)":"1","Condition":"Good","Material":"Conreate"},"geometry":{"type":"Point","coordinates":[79.86268746886647,6.907084372112061]}},{"type":"Feature","properties":{"ID":"2272","Elevation":"6.074","Width(cm)":"40","Depth(m)":"2","Condition":"Good","Material":"Conreate"},"geometry":{"type":"Point","coordinates":[79.86298096294558,6.907159314906601]}},{"type":"Feature","properties":{"ID":"3006","Elevation":"7.239","Width(cm)":"40","Depth(m)":"1","Condition":"Good","Material":"Conreate"},"geometry":{"type":"Point","coordinates":[79.86036465582764,6.898552591520799]}},{"type":"Feature","properties":{"ID":"3007","Elevation":"7.297","Width(cm)":"40","Depth(m)":"1","Condition":"Good","Material":"Conreate"},"geometry":{"type":"Point","coordinates":[79.86038318373448,6.898586715764302]}},{"type":"Feature","properties":{"ID":"3008","Elevation":"7.245","Width(cm)":"40","Depth(m)":"1","Condition":"Good","Material":"Conreate"},"geometry":{"type":"Point","coordinates":[79.86039380113198,6.898641033893838]}},{"type":"Feature","properties":{"ID":"3009","Elevation":"7.192","Width(cm)":"40","Depth(m)":"1","Condition":"Good","Material":"Conreate"},"geometry":{"type":"Point","coordinates":[79.86039286736087,6.898689063682395]}},{"type":"Feature","properties":{"ID":"3011","Elevation":"7.11","Width(cm)":"40","Depth(m)":"2","Condition":"Good","Material":"Conreate"},"geometry":{"type":"Point","coordinates":[79.86037985777884,6.898730731785685]}}]}