{
"type": "FeatureCollection",
"name": "telephoneElectricPosts",
"crs": { "type": "name", "properties": { "name": "urn:ogc:def:crs:OGC:1.3:CRS84" } },
"features": [
{ "type": "Feature", "properties": { "telephoneElectricPostId": "2018", "type": "Telephone Post", "authority": "SLT", "material": "Concreate", "condition": "Good", "elevation": "6.802" }, "geometry": { "type": "Point", "coordinates": [ 79.863631180282752, 6.907582500840078 ] } },
{ "type": "Feature", "properties": { "telephoneElectricPostId": "2019", "type": "Telephone Post", "authority": "SLT", "material": "Concreate", "condition": "Good", "elevation": "6.918" }, "geometry": { "type": "Point", "coordinates": [ 79.863805059854897, 6.90766636468662 ] } },
{ "type": "Feature", "properties": { "telephoneElectricPostId": "2020", "type": "Telephone Post", "authority": "SLT", "material": "Concreate", "condition": "Good", "elevation": "7.183" }, "geometry": { "type": "Point", "coordinates": [ 79.864092580867379, 6.907798956869136 ] } },
{ "type": "Feature", "properties": { "telephoneElectricPostId": "2031", "type": "Telephone Post", "authority": "SLT", "material": "Concreate", "condition": "Good", "elevation": "7.015" }, "geometry": { "type": "Point", "coordinates": [ 79.863352290001075, 6.90747424817768 ] } },
{ "type": "Feature", "properties": { "telephoneElectricPostId": "2041", "type": "Telephone Post", "authority": "SLT", "material": "Concreate", "condition": "Good", "elevation": "6.991" }, "geometry": { "type": "Point", "coordinates": [ 79.863044841173036, 6.90735806497825 ] } },
{ "type": "Feature", "properties": { "telephoneElectricPostId": "2045", "type": "Telephone Post", "authority": "SLT", "material": "Concreate", "condition": "Good", "elevation": "6.861" }, "geometry": { "type": "Point", "coordinates": [ 79.862939962706733, 6.907278908431032 ] } },
{ "type": "Feature", "properties": { "telephoneElectricPostId": "2053", "type": "Telephone Post", "authority": "SLT", "material": "Concreate", "condition": "Good", "elevation": "6.474" }, "geometry": { "type": "Point", "coordinates": [ 79.86285049664545, 6.9075043823796 ] } },
{ "type": "Feature", "properties": { "telephoneElectricPostId": "2063", "type": "Telephone Post", "authority": "SLT", "material": "Concreate", "condition": "Good", "elevation": "7.329" }, "geometry": { "type": "Point", "coordinates": [ 79.862621951217108, 6.907249535954151 ] } },
{ "type": "Feature", "properties": { "telephoneElectricPostId": "2079", "type": "Telephone Post", "authority": "SLT", "material": "Fiber", "condition": "Good", "elevation": "7.234" }, "geometry": { "type": "Point", "coordinates": [ 79.862098170524817, 6.907152875205322 ] } },
{ "type": "Feature", "properties": { "telephoneElectricPostId": "2086", "type": "Telephone Post", "authority": "SLT", "material": "Concreate", "condition": "Good", "elevation": "7.139" }, "geometry": { "type": "Point", "coordinates": [ 79.86187598012144, 6.907136824203972 ] } },
{ "type": "Feature", "properties": { "telephoneElectricPostId": "2091", "type": "Telephone Post", "authority": "SLT", "material": "Concreate", "condition": "Good", "elevation": "7.173" }, "geometry": { "type": "Point", "coordinates": [ 79.861620339851186, 6.907115591080793 ] } },
{ "type": "Feature", "properties": { "telephoneElectricPostId": "2103", "type": "Telephone Post", "authority": "SLT", "material": "Concreate", "condition": "Good", "elevation": "6.736" }, "geometry": { "type": "Point", "coordinates": [ 79.861241118150645, 6.907091010080125 ] } },
{ "type": "Feature", "properties": { "telephoneElectricPostId": "2108", "type": "Telephone Post", "authority": "SLT", "material": "Concreate", "condition": "Good", "elevation": "6.34" }, "geometry": { "type": "Point", "coordinates": [ 79.860965436133441, 6.907074647985088 ] } },
{ "type": "Feature", "properties": { "telephoneElectricPostId": "2129", "type": "Telephone Post", "authority": "SLT", "material": "Concreate", "condition": "Good", "elevation": "5.741" }, "geometry": { "type": "Point", "coordinates": [ 79.860234955476301, 6.907159840518132 ] } },
{ "type": "Feature", "properties": { "telephoneElectricPostId": "2169", "type": "Telephone Post", "authority": "SLT", "material": "Metal", "condition": "Good", "elevation": "7.047" }, "geometry": { "type": "Point", "coordinates": [ 79.863026970119776, 6.90717943130891 ] } },
{ "type": "Feature", "properties": { "telephoneElectricPostId": "2173", "type": "Telephone Post", "authority": "SLT", "material": "Metal", "condition": "Good", "elevation": "7.016" }, "geometry": { "type": "Point", "coordinates": [ 79.862883541564912, 6.907140718497132 ] } },
{ "type": "Feature", "properties": { "telephoneElectricPostId": "2186", "type": "Telephone Post", "authority": "SLT", "material": "Concreate", "condition": "Poor", "elevation": "7.056" }, "geometry": { "type": "Point", "coordinates": [ 79.862377384456735, 6.907045167848874 ] } },
{ "type": "Feature", "properties": { "telephoneElectricPostId": "2204", "type": "Telephone Post", "authority": "SLT", "material": "Concreate", "condition": "Good", "elevation": "7.011" }, "geometry": { "type": "Point", "coordinates": [ 79.861564650980938, 6.906930862811965 ] } },
{ "type": "Feature", "properties": { "telephoneElectricPostId": "2216", "type": "Telephone Post", "authority": "SLT", "material": "Concreate", "condition": "Good", "elevation": "6.892" }, "geometry": { "type": "Point", "coordinates": [ 79.861264488975365, 6.906691168571323 ] } },
{ "type": "Feature", "properties": { "telephoneElectricPostId": "2218", "type": "Telephone Post", "authority": "SLT", "material": "Concreate", "condition": "Good", "elevation": "6.95" }, "geometry": { "type": "Point", "coordinates": [ 79.861277894309836, 6.906481408800089 ] } },
{ "type": "Feature", "properties": { "telephoneElectricPostId": "2223", "type": "Telephone Post", "authority": "SLT", "material": "Concreate", "condition": "Good", "elevation": "6.695" }, "geometry": { "type": "Point", "coordinates": [ 79.861221827470189, 6.906907545228727 ] } },
{ "type": "Feature", "properties": { "telephoneElectricPostId": "2227", "type": "Telephone Post", "authority": "SLT", "material": "Concreate", "condition": "Good", "elevation": "6.491" }, "geometry": { "type": "Point", "coordinates": [ 79.861100254089749, 6.90692335245418 ] } },
{ "type": "Feature", "properties": { "telephoneElectricPostId": "2230", "type": "Telephone Post", "authority": "SLT", "material": "Concreate", "condition": "Good", "elevation": "6.499" }, "geometry": { "type": "Point", "coordinates": [ 79.860955865878225, 6.906927433452279 ] } },
{ "type": "Feature", "properties": { "telephoneElectricPostId": "2235", "type": "Telephone Post", "authority": "SLT", "material": "Concreate", "condition": "Good", "elevation": "6.249" }, "geometry": { "type": "Point", "coordinates": [ 79.86083484876518, 6.906879829514658 ] } },
{ "type": "Feature", "properties": { "telephoneElectricPostId": "2241", "type": "Telephone Post", "authority": "SLT", "material": "Concreate", "condition": "Good", "elevation": "5.941" }, "geometry": { "type": "Point", "coordinates": [ 79.860585365469333, 6.906908239703067 ] } },
{ "type": "Feature", "properties": { "telephoneElectricPostId": "3003", "type": "Telephone Post", "authority": "SLT", "material": "Conreate", "condition": "Good", "elevation": "7.226" }, "geometry": { "type": "Point", "coordinates": [ 79.860400409243184, 6.898677070263971 ] } },
{ "type": "Feature", "properties": { "telephoneElectricPostId": "3026", "type": "Telephone Post", "authority": "SLT", "material": "Metal", "condition": "Good", "elevation": "7.398" }, "geometry": { "type": "Point", "coordinates": [ 79.860028615625325, 6.89908910068432 ] } },
{ "type": "Feature", "properties": { "telephoneElectricPostId": "3039", "type": "Telephone Post", "authority": "SLT", "material": "Metal", "condition": "Good", "elevation": "7.778" }, "geometry": { "type": "Point", "coordinates": [ 79.859670635538691, 6.899671501154031 ] } },
{ "type": "Feature", "properties": { "telephoneElectricPostId": "3048", "type": "Telephone Post", "authority": "SLT", "material": "Metal", "condition": "Good", "elevation": "7.466" }, "geometry": { "type": "Point", "coordinates": [ 79.859499630629443, 6.899783674218384 ] } },
{ "type": "Feature", "properties": { "telephoneElectricPostId": "3049", "type": "Electricity Post", "authority": "CEB", "material": "Metal", "condition": "Good", "elevation": "7.466" }, "geometry": { "type": "Point", "coordinates": [ 79.859525924885006, 6.899787902191681 ] } },
{ "type": "Feature", "properties": { "telephoneElectricPostId": "3064", "type": "Telephone Post", "authority": "SLT", "material": "Metal", "condition": "Good", "elevation": "7.592" }, "geometry": { "type": "Point", "coordinates": [ 79.859547195728297, 6.900009374741003 ] } },
{ "type": "Feature", "properties": { "telephoneElectricPostId": "3069", "type": "Telephone Post", "authority": "SLT", "material": "Metal", "condition": "Good", "elevation": "7.704" }, "geometry": { "type": "Point", "coordinates": [ 79.85949190907337, 6.900161736167249 ] } },
{ "type": "Feature", "properties": { "telephoneElectricPostId": "3072", "type": "Telephone Post", "authority": "SLT", "material": "Metal", "condition": "Good", "elevation": "7.604" }, "geometry": { "type": "Point", "coordinates": [ 79.859448451649996, 6.900345143716916 ] } },
{ "type": "Feature", "properties": { "telephoneElectricPostId": "3078", "type": "Telephone Post", "authority": "SLT", "material": "Metal", "condition": "Good", "elevation": "7.616" }, "geometry": { "type": "Point", "coordinates": [ 79.859380194802114, 6.900518584420224 ] } },
{ "type": "Feature", "properties": { "telephoneElectricPostId": "3117", "type": "Telephone Post", "authority": "SLT", "material": "Metal", "condition": "Good", "elevation": "6.217" }, "geometry": { "type": "Point", "coordinates": [ 79.858958421616748, 6.901915263975824 ] } },
{ "type": "Feature", "properties": { "telephoneElectricPostId": "3118", "type": "Telephone Post", "authority": "SLT", "material": "Metal", "condition": "Good", "elevation": "6.261" }, "geometry": { "type": "Point", "coordinates": [ 79.858948915036521, 6.901913780872848 ] } },
{ "type": "Feature", "properties": { "telephoneElectricPostId": "3121", "type": "Telephone Post", "authority": "SLT", "material": "Metal", "condition": "Good", "elevation": "6.081" }, "geometry": { "type": "Point", "coordinates": [ 79.858913575592879, 6.901959719026578 ] } },
{ "type": "Feature", "properties": { "telephoneElectricPostId": "3143", "type": "Telephone Post", "authority": "SLT", "material": "Metal", "condition": "Poor", "elevation": "5.338" }, "geometry": { "type": "Point", "coordinates": [ 79.858604883431056, 6.902979696127768 ] } },
{ "type": "Feature", "properties": { "telephoneElectricPostId": "3162", "type": "Telephone Post", "authority": "SLT", "material": "Metal", "condition": "Good", "elevation": "5.18" }, "geometry": { "type": "Point", "coordinates": [ 79.858455694659511, 6.903357964860481 ] } },
{ "type": "Feature", "properties": { "telephoneElectricPostId": "3164", "type": "Telephone Post", "authority": "SLT", "material": "Metal", "condition": "Poor", "elevation": "4.987" }, "geometry": { "type": "Point", "coordinates": [ 79.858422520389539, 6.903524465217608 ] } },
{ "type": "Feature", "properties": { "telephoneElectricPostId": "3176", "type": "Telephone Post", "authority": "SLT", "material": "Metal", "condition": "Good", "elevation": "5.145" }, "geometry": { "type": "Point", "coordinates": [ 79.858238994477986, 6.904043272113505 ] } },
{ "type": "Feature", "properties": { "telephoneElectricPostId": "3198", "type": "Telephone Post", "authority": "SLT", "material": "Metal", "condition": "Good", "elevation": "5.286" }, "geometry": { "type": "Point", "coordinates": [ 79.858355814629235, 6.90486402986788 ] } },
{ "type": "Feature", "properties": { "telephoneElectricPostId": "3201", "type": "Telephone Post", "authority": "SLT", "material": "Metal", "condition": "Good", "elevation": "5.114" }, "geometry": { "type": "Point", "coordinates": [ 79.858373128152181, 6.905030582195728 ] } },
{ "type": "Feature", "properties": { "telephoneElectricPostId": "3210", "type": "Telephone Post", "authority": "SLT", "material": "Metal", "condition": "Poor", "elevation": "5.215" }, "geometry": { "type": "Point", "coordinates": [ 79.858413167491108, 6.905208019738321 ] } },
{ "type": "Feature", "properties": { "telephoneElectricPostId": "3213", "type": "Telephone Post", "authority": "SLT", "material": "Metal", "condition": "Good", "elevation": "5.353" }, "geometry": { "type": "Point", "coordinates": [ 79.858385128698075, 6.905235598353947 ] } },
{ "type": "Feature", "properties": { "telephoneElectricPostId": "3223", "type": "Telephone Post", "authority": "SLT", "material": "Metal", "condition": "Good", "elevation": "5.409" }, "geometry": { "type": "Point", "coordinates": [ 79.858492151869925, 6.905665909160646 ] } },
{ "type": "Feature", "properties": { "telephoneElectricPostId": "3288", "type": "Telephone Post", "authority": "SLT", "material": "Metal", "condition": "Good", "elevation": "6.486" }, "geometry": { "type": "Point", "coordinates": [ 79.859481872617039, 6.906751796961215 ] } },
{ "type": "Feature", "properties": { "telephoneElectricPostId": "3302", "type": "Telephone Post", "authority": "SLT", "material": "Metal", "condition": "Good", "elevation": "5.918" }, "geometry": { "type": "Point", "coordinates": [ 79.859898884047539, 6.907238773808883 ] } },
{ "type": "Feature", "properties": { "telephoneElectricPostId": "4003", "type": "Telephone Post", "authority": "SLT", "material": "Concrete", "condition": "Good", "elevation": "6.386" }, "geometry": { "type": "Point", "coordinates": [ 79.860163290358443, 6.90767438733714 ] } },
{ "type": "Feature", "properties": { "telephoneElectricPostId": "4005", "type": "Telephone Post", "authority": "SLT", "material": "Concrete", "condition": "Good", "elevation": "6.209" }, "geometry": { "type": "Point", "coordinates": [ 79.86021271924821, 6.907693651581721 ] } },
{ "type": "Feature", "properties": { "telephoneElectricPostId": "4012", "type": "Telephone Post", "authority": "SLT", "material": "Concrete", "condition": "Good", "elevation": "6.412" }, "geometry": { "type": "Point", "coordinates": [ 79.860411887891189, 6.908012406276666 ] } },
{ "type": "Feature", "properties": { "telephoneElectricPostId": "4018", "type": "Telephone Post", "authority": "SLT", "material": "Concrete", "condition": "Good", "elevation": "6.785" }, "geometry": { "type": "Point", "coordinates": [ 79.86050970295851, 6.908324817518581 ] } },
{ "type": "Feature", "properties": { "telephoneElectricPostId": "4034", "type": "Telephone Post", "authority": "SLT", "material": "Concrete", "condition": "Good", "elevation": "6.92" }, "geometry": { "type": "Point", "coordinates": [ 79.860572245893934, 6.908727943515018 ] } },
{ "type": "Feature", "properties": { "telephoneElectricPostId": "4040", "type": "Telephone Post", "authority": "SLT", "material": "Concrete", "condition": "Good", "elevation": "6.843" }, "geometry": { "type": "Point", "coordinates": [ 79.860609766568359, 6.908982821622944 ] } },
{ "type": "Feature", "properties": { "telephoneElectricPostId": "4046", "type": "Telephone Post", "authority": "SLT", "material": "Metal", "condition": "Good", "elevation": "6.976" }, "geometry": { "type": "Point", "coordinates": [ 79.860633123868354, 6.909121752961359 ] } },
{ "type": "Feature", "properties": { "telephoneElectricPostId": "4047", "type": "Telephone Post", "authority": "SLT", "material": "Concrete", "condition": "Good", "elevation": "6.962" }, "geometry": { "type": "Point", "coordinates": [ 79.86063519518585, 6.909131522395577 ] } },
{ "type": "Feature", "properties": { "telephoneElectricPostId": "4060", "type": "Telephone Post", "authority": "SLT", "material": "Metal", "condition": "Good", "elevation": "7.018" }, "geometry": { "type": "Point", "coordinates": [ 79.860492306195852, 6.909268325787338 ] } },
{ "type": "Feature", "properties": { "telephoneElectricPostId": "4074", "type": "Telephone Post", "authority": "SLT", "material": "Concrete", "condition": "Good", "elevation": "7.224" }, "geometry": { "type": "Point", "coordinates": [ 79.860210872993619, 6.909357663063052 ] } },
{ "type": "Feature", "properties": { "telephoneElectricPostId": "4078", "type": "Telephone Post", "authority": "SLT", "material": "Concrete", "condition": "Good", "elevation": "7.309" }, "geometry": { "type": "Point", "coordinates": [ 79.86005162042953, 6.909421555627079 ] } },
{ "type": "Feature", "properties": { "telephoneElectricPostId": "4140", "type": "Telephone Post", "authority": "SLT", "material": "Concrete", "condition": "Good", "elevation": "7.971" }, "geometry": { "type": "Point", "coordinates": [ 79.862049834285727, 6.909498906521162 ] } },
{ "type": "Feature", "properties": { "telephoneElectricPostId": "4157", "type": "Telephone Post", "authority": "SLT", "material": "Concrete", "condition": "Good", "elevation": "6.847" }, "geometry": { "type": "Point", "coordinates": [ 79.860606654676403, 6.908023269404229 ] } },
{ "type": "Feature", "properties": { "telephoneElectricPostId": "4159", "type": "Telephone Post", "authority": "SLT", "material": "Concrete", "condition": "Good", "elevation": "6.922" }, "geometry": { "type": "Point", "coordinates": [ 79.860623466885656, 6.90809337788393 ] } },
{ "type": "Feature", "properties": { "telephoneElectricPostId": "4166", "type": "Telephone Post", "authority": "SLT", "material": "Concrete", "condition": "Good", "elevation": "6.936" }, "geometry": { "type": "Point", "coordinates": [ 79.860684085090696, 6.90841530223903 ] } },
{ "type": "Feature", "properties": { "telephoneElectricPostId": "4171", "type": "Telephone Post", "authority": "SLT", "material": "Concrete", "condition": "Good", "elevation": "7.171" }, "geometry": { "type": "Point", "coordinates": [ 79.860741701643548, 6.908726641583322 ] } },
{ "type": "Feature", "properties": { "telephoneElectricPostId": "4196", "type": "Telephone Post", "authority": "SLT", "material": "Concrete", "condition": "Good", "elevation": "6.776" }, "geometry": { "type": "Point", "coordinates": [ 79.86127424967691, 6.909167562179641 ] } },
{ "type": "Feature", "properties": { "telephoneElectricPostId": "4197", "type": "Telephone Post", "authority": "SLT", "material": "Concrete", "condition": "Good", "elevation": "6.553" }, "geometry": { "type": "Point", "coordinates": [ 79.861399144940364, 6.909165541506141 ] } },
{ "type": "Feature", "properties": { "telephoneElectricPostId": "4203", "type": "Telephone Post", "authority": "SLT", "material": "Concrete", "condition": "Good", "elevation": "6.364" }, "geometry": { "type": "Point", "coordinates": [ 79.861546730920722, 6.909159857109096 ] } },
{ "type": "Feature", "properties": { "telephoneElectricPostId": "4204", "type": "Telephone Post", "authority": "SLT", "material": "Concrete", "condition": "Good", "elevation": "6.418" }, "geometry": { "type": "Point", "coordinates": [ 79.861540200104855, 6.909158849940419 ] } },
{ "type": "Feature", "properties": { "telephoneElectricPostId": "4212", "type": "Telephone Post", "authority": "SLT", "material": "Concrete", "condition": "Good", "elevation": "6.289" }, "geometry": { "type": "Point", "coordinates": [ 79.861885700332834, 6.90919324015879 ] } },
{ "type": "Feature", "properties": { "telephoneElectricPostId": "4225", "type": "Telephone Post", "authority": "SLT", "material": "Concrete", "condition": "Good", "elevation": "6.176" }, "geometry": { "type": "Point", "coordinates": [ 79.862176332123681, 6.909242082628016 ] } },
{ "type": "Feature", "properties": { "telephoneElectricPostId": "4229", "type": "Telephone Post", "authority": "SLT", "material": "Concrete", "condition": "Good", "elevation": "6.004" }, "geometry": { "type": "Point", "coordinates": [ 79.86252094087618, 6.909307304219437 ] } },
{ "type": "Feature", "properties": { "telephoneElectricPostId": "4237", "type": "Telephone Post", "authority": "SLT", "material": "Concrete", "condition": "Good", "elevation": "6.598" }, "geometry": { "type": "Point", "coordinates": [ 79.862544783840661, 6.90935383533894 ] } },
{ "type": "Feature", "properties": { "telephoneElectricPostId": "4244", "type": "Telephone Post", "authority": "SLT", "material": "Concrete", "condition": "Good", "elevation": "6.898" }, "geometry": { "type": "Point", "coordinates": [ 79.862586677096758, 6.909367777210552 ] } },
{ "type": "Feature", "properties": { "telephoneElectricPostId": "4246", "type": "Telephone Post", "authority": "SLT", "material": "Concrete", "condition": "Good", "elevation": "6.747" }, "geometry": { "type": "Point", "coordinates": [ 79.862833870509007, 6.909462958090639 ] } },
{ "type": "Feature", "properties": { "telephoneElectricPostId": "4276", "type": "Telephone Post", "authority": "SLT", "material": "Metal", "condition": "Good", "elevation": "8.776" }, "geometry": { "type": "Point", "coordinates": [ 79.861876651391043, 6.909316068619646 ] } },
{ "type": "Feature", "properties": { "telephoneElectricPostId": "4289", "type": "Telephone Post", "authority": "SLT", "material": "Concrete", "condition": "Good", "elevation": "6.779" }, "geometry": { "type": "Point", "coordinates": [ 79.862788877261252, 6.90975348464602 ] } },
{ "type": "Feature", "properties": { "telephoneElectricPostId": "4294", "type": "Telephone Post", "authority": "SLT", "material": "Metal", "condition": "Good", "elevation": "6.979" }, "geometry": { "type": "Point", "coordinates": [ 79.86295370543229, 6.909669654969 ] } },
{ "type": "Feature", "properties": { "telephoneElectricPostId": "4343", "type": "Telephone Post", "authority": "SLT", "material": "Metal", "condition": "Poor", "elevation": "7.222" }, "geometry": { "type": "Point", "coordinates": [ 79.864487829817051, 6.910981093357532 ] } },
{ "type": "Feature", "properties": { "telephoneElectricPostId": "5024", "type": "Telephone Post", "authority": "SLT", "material": "Concrete", "condition": "Good", "elevation": "6.895" }, "geometry": { "type": "Point", "coordinates": [ 79.860009835306158, 6.905526000119992 ] } },
{ "type": "Feature", "properties": { "telephoneElectricPostId": "5027", "type": "Telephone Post", "authority": "SLT", "material": "Concrete", "condition": "Good", "elevation": "-0.104" }, "geometry": { "type": "Point", "coordinates": [ 79.860272438161871, 6.90549727175388 ] } },
{ "type": "Feature", "properties": { "telephoneElectricPostId": "5031", "type": "Telephone Post", "authority": "SLT", "material": "Concrete", "condition": "Good", "elevation": "6.516" }, "geometry": { "type": "Point", "coordinates": [ 79.860523375934264, 6.90546023827707 ] } },
{ "type": "Feature", "properties": { "telephoneElectricPostId": "5042", "type": "Telephone Post", "authority": "SLT", "material": "Concrete", "condition": "Poor", "elevation": "7.32" }, "geometry": { "type": "Point", "coordinates": [ 79.860744112885655, 6.905380015899027 ] } },
{ "type": "Feature", "properties": { "telephoneElectricPostId": "5043", "type": "Telephone Post", "authority": "SLT", "material": "Concrete", "condition": "Good", "elevation": "8.35" }, "geometry": { "type": "Point", "coordinates": [ 79.860717973133092, 6.905436424492016 ] } },
{ "type": "Feature", "properties": { "telephoneElectricPostId": "5052", "type": "Telephone Post", "authority": "SLT", "material": "Concrete", "condition": "Good", "elevation": "9.769" }, "geometry": { "type": "Point", "coordinates": [ 79.861220741583807, 6.905392034765859 ] } },
{ "type": "Feature", "properties": { "telephoneElectricPostId": "5063", "type": "Telephone Post", "authority": "SLT", "material": "Concrete", "condition": "Good", "elevation": "7.457" }, "geometry": { "type": "Point", "coordinates": [ 79.861565155687785, 6.905411051227587 ] } },
{ "type": "Feature", "properties": { "telephoneElectricPostId": "5066", "type": "Telephone Post", "authority": "SLT", "material": "Concrete", "condition": "Good", "elevation": "7.308" }, "geometry": { "type": "Point", "coordinates": [ 79.862106331285929, 6.905433609559803 ] } },
{ "type": "Feature", "properties": { "telephoneElectricPostId": "5138", "type": "Telephone Post", "authority": "SLT", "material": "Concrete", "condition": "Good", "elevation": "6.611" }, "geometry": { "type": "Point", "coordinates": [ 79.860738053471664, 6.905218602987124 ] } },
{ "type": "Feature", "properties": { "telephoneElectricPostId": "5145", "type": "Telephone Post", "authority": "SLT", "material": "Metal", "condition": "Good", "elevation": "7.29" }, "geometry": { "type": "Point", "coordinates": [ 79.860406599900244, 6.905301252955083 ] } },
{ "type": "Feature", "properties": { "telephoneElectricPostId": "5156", "type": "Telephone Post", "authority": "SLT", "material": "Concrete", "condition": "Good", "elevation": "5.985" }, "geometry": { "type": "Point", "coordinates": [ 79.859848939972338, 6.905377011801832 ] } },
{ "type": "Feature", "properties": { "telephoneElectricPostId": "5364", "type": "Telephone Post", "authority": "SLT", "material": "Concrete", "condition": "Good", "elevation": "7.562" }, "geometry": { "type": "Point", "coordinates": [ 79.860123057433555, 6.899254101238577 ] } }
]
}
