{"type":"FeatureCollection","features":[{"type":"Feature","properties":{"ID":"111","Elevation":"7.027","Type":"Electronic","Authority":"CEB","Material":"Metal","Condition":"Good"},"geometry":{"type":"Point","coordinates":[79.86390738114747,6.911862779556436]}},{"type":"Feature","properties":{"ID":"145","Elevation":"4.72","Type":"Electronic","Authority":"SLT","Material":"Metal","Condition":"Moderate"},"geometry":{"type":"Point","coordinates":[79.85876446674123,6.9118997463737495]}},{"type":"Feature","properties":{"ID":"146","Elevation":"4.753","Type":"Electronic","Authority":"SLT","Material":"Metal","Condition":"Moderate"},"geometry":{"type":"Point","coordinates":[79.85876557544931,6.91191131333118]}},{"type":"Feature","properties":{"ID":"147","Elevation":"4.764","Type":"Electronic","Authority":"SLT","Material":"Metal","Condition":"Moderate"},"geometry":{"type":"Point","coordinates":[79.85878290296122,6.911911183955548]}},{"type":"Feature","properties":{"ID":"148","Elevation":"4.725","Type":"Electronic","Authority":"SLT","Material":"Metal","Condition":"Moderate"},"geometry":{"type":"Point","coordinates":[79.85878267844171,6.911900929803235]}},{"type":"Feature","properties":{"ID":"149","Elevation":"4.861","Type":"Electronic","Authority":"SLT","Material":"Metal","Condition":"Moderate"},"geometry":{"type":"Point","coordinates":[79.85878229865243,6.911928950480367]}},{"type":"Feature","properties":{"ID":"150","Elevation":"4.896","Type":"Electronic","Authority":"SLT","Material":"Metal","Condition":"Moderate"},"geometry":{"type":"Point","coordinates":[79.85878352396249,6.911936358305217]}},{"type":"Feature","properties":{"ID":"151","Elevation":"4.852","Type":"Electronic","Authority":"SLT","Material":"Metal","Condition":"Moderate"},"geometry":{"type":"Point","coordinates":[79.8587690890653,6.911937939986434]}},{"type":"Feature","properties":{"ID":"152","Elevation":"4.787","Type":"Electronic","Authority":"SLT","Material":"Metal","Condition":"Moderate"},"geometry":{"type":"Point","coordinates":[79.85876799390074,6.911928733038209]}},{"type":"Feature","properties":{"ID":"1050","Elevation":"7.27","Type":"Electronic","Authority":"SLT","Material":"Metal","Condition":"Good"},"geometry":{"type":"Point","coordinates":[79.86294909224945,6.905562474419453]}},{"type":"Feature","properties":{"ID":"1135","Elevation":"7.505","Type":"Electronic","Authority":"SLT","Material":"Metal","Condition":"Good"},"geometry":{"type":"Point","coordinates":[79.86492441991285,6.90796399344055]}},{"type":"Feature","properties":{"ID":"1151","Elevation":"7.309","Type":"Electronic","Authority":"CEB","Material":"Metal","Condition":"Good"},"geometry":{"type":"Point","coordinates":[79.86452353333246,6.908507407045081]}},{"type":"Feature","properties":{"ID":"1249","Elevation":"7.297","Type":"Electronic","Authority":"SLT","Material":"Metal","Condition":"Good"},"geometry":{"type":"Point","coordinates":[79.86447440166305,6.908304534978379]}},{"type":"Feature","properties":{"ID":"2008","Elevation":"7.054","Type":"Electronic","Authority":"CEB","Material":"Metal","Condition":"Good"},"geometry":{"type":"Point","coordinates":[79.8640035746576,6.9077139535433005]}},{"type":"Feature","properties":{"ID":"2023","Elevation":"6.861","Type":"Postal","Authority":"SLP","Material":"Concreate","Condition":"Good"},"geometry":{"type":"Point","coordinates":[79.86355222964725,6.907514805186883]}},{"type":"Feature","properties":{"ID":"2024","Elevation":"6.862","Type":"Postal","Authority":"SLP","Material":"Concreate","Condition":"Good"},"geometry":{"type":"Point","coordinates":[79.8635453690439,6.907511202335295]}},{"type":"Feature","properties":{"ID":"2032","Elevation":"7.006","Type":"Electronic","Authority":"CEB","Material":"Metal","Condition":"Good"},"geometry":{"type":"Point","coordinates":[79.86333940172504,6.907466781844151]}},{"type":"Feature","properties":{"ID":"2080","Elevation":"7.335","Type":"Electronic","Authority":"CEB","Material":"Metal","Condition":"Good"},"geometry":{"type":"Point","coordinates":[79.86206452748658,6.907130476704083]}},{"type":"Feature","properties":{"ID":"2119","Elevation":"5.828","Type":"Electronic","Authority":"CEB","Material":"Metal","Condition":"Good"},"geometry":{"type":"Point","coordinates":[79.86048591038754,6.907086150589956]}},{"type":"Feature","properties":{"ID":"2120","Elevation":"5.755","Type":"Electronic","Authority":"CEB","Material":"Metal","Condition":"Good"},"geometry":{"type":"Point","coordinates":[79.86047551382273,6.907095715223703]}},{"type":"Feature","properties":{"ID":"2121","Elevation":"5.715","Type":"Electronic","Authority":"CEB","Material":"Metal","Condition":"Good"},"geometry":{"type":"Point","coordinates":[79.86046683161996,6.907098356913071]}},{"type":"Feature","properties":{"ID":"2261","Elevation":"5.968","Type":"Electronic","Authority":"CEB","Material":"Concreate","Condition":"Good"},"geometry":{"type":"Point","coordinates":[79.85992023619238,6.906858821221977]}},{"type":"Feature","properties":{"ID":"3024","Elevation":"7.66","Type":"Electronic","Authority":"CEB","Material":"Metal","Condition":"Good"},"geometry":{"type":"Point","coordinates":[79.86009313373897,6.8990293478681055]}},{"type":"Feature","properties":{"ID":"3055","Elevation":"7.529","Type":"Electronic","Authority":"CEB","Material":"Metal","Condition":"Good"},"geometry":{"type":"Point","coordinates":[79.85958367342798,6.899865494807213]}},{"type":"Feature","properties":{"ID":"3056","Elevation":"7.377","Type":"Electronic","Authority":"CEB","Material":"Metal","Condition":"Good"},"geometry":{"type":"Point","coordinates":[79.85958057154423,6.89987878975727]}},{"type":"Feature","properties":{"ID":"3057","Elevation":"7.533","Type":"Electronic","Authority":"CEB","Material":"Metal","Condition":"Good"},"geometry":{"type":"Point","coordinates":[79.85958498466948,6.899889377479525]}},{"type":"Feature","properties":{"ID":"3109","Elevation":"6.926","Type":"Electronic","Authority":"CEB","Material":"Metal","Condition":"Good"},"geometry":{"type":"Point","coordinates":[79.8590815906285,6.901516527887397]}},{"type":"Feature","properties":{"ID":"3135","Elevation":"8.313","Type":"Electronic","Authority":"CEB","Material":"Iron","Condition":"Good"},"geometry":{"type":"Point","coordinates":[79.85866774729764,6.902741088000162]}},{"type":"Feature","properties":{"ID":"3151","Elevation":"5.117","Type":"Postal","Authority":"SLP","Material":"Metal","Condition":"Good"},"geometry":{"type":"Point","coordinates":[79.8585070815393,6.903107480511426]}},{"type":"Feature","properties":{"ID":"3152","Elevation":"5.097","Type":"Postal","Authority":"SLP","Material":"Metal","Condition":"Good"},"geometry":{"type":"Point","coordinates":[79.85850056148912,6.903110325260709]}},{"type":"Feature","properties":{"ID":"3177","Elevation":"4.989","Type":"Electronic","Authority":"CEB","Material":"Metal","Condition":"Good"},"geometry":{"type":"Point","coordinates":[79.85822856465113,6.904037257130039]}},{"type":"Feature","properties":{"ID":"3211","Elevation":"5.166","Type":"Electronic","Authority":"CEB","Material":"Metal","Condition":"Good"},"geometry":{"type":"Point","coordinates":[79.85838825807423,6.9051987036412]}},{"type":"Feature","properties":{"ID":"3239","Elevation":"5.676","Type":"Electronic","Authority":"CEB","Material":"Metal","Condition":"Good"},"geometry":{"type":"Point","coordinates":[79.8587245009125,6.905898584291302]}},{"type":"Feature","properties":{"ID":"3244","Elevation":"5.928","Type":"Electronic","Authority":"CEB","Material":"Metal","Condition":"Good"},"geometry":{"type":"Point","coordinates":[79.85881191489507,6.905996841072995]}},{"type":"Feature","properties":{"ID":"3262","Elevation":"6.151","Type":"Electronic","Authority":"CEB","Material":"Metal","Condition":"Good"},"geometry":{"type":"Point","coordinates":[79.85902817324411,6.906221962106849]}},{"type":"Feature","properties":{"ID":"3265","Elevation":"6.129","Type":"Electronic","Authority":"CEB","Material":"Metal","Condition":"Good"},"geometry":{"type":"Point","coordinates":[79.85908306051063,6.906225793069521]}},{"type":"Feature","properties":{"ID":"3269","Elevation":"6.106","Type":"Electronic","Authority":"CEB","Material":"Metal","Condition":"Good"},"geometry":{"type":"Point","coordinates":[79.8590750518995,6.906226347309542]}},{"type":"Feature","properties":{"ID":"3292","Elevation":"6.041","Type":"Electronic","Authority":"CEB","Material":"Metal","Condition":"Good"},"geometry":{"type":"Point","coordinates":[79.8596827478126,6.906912210149909]}},{"type":"Feature","properties":{"ID":"3306","Elevation":"5.978","Type":"Electronic","Authority":"CEB","Material":"Metal","Condition":"Good"},"geometry":{"type":"Point","coordinates":[79.8599404287912,6.907301994576099]}},{"type":"Feature","properties":{"ID":"3321","Elevation":"6.208","Type":"Electronic","Authority":"CEB","Material":"Metal","Condition":"Good"},"geometry":{"type":"Point","coordinates":[79.85969115324976,6.906635122576713]}},{"type":"Feature","properties":{"ID":"4043","Elevation":"6.548","Type":"Electronic","Authority":"CEB","Material":"Metal","Condition":"Good"},"geometry":{"type":"Point","coordinates":[79.86062011392863,6.909059970507138]}},{"type":"Feature","properties":{"ID":"4044","Elevation":"6.383","Type":"Electronic","Authority":"CEB","Material":"Metal","Condition":"Good"},"geometry":{"type":"Point","coordinates":[79.86062234410929,6.909071819926577]}},{"type":"Feature","properties":{"ID":"4045","Elevation":"6.985","Type":"Electronic","Authority":"CEB","Material":"Metal","Condition":"Good"},"geometry":{"type":"Point","coordinates":[79.86063732705828,6.909105123600084]}},{"type":"Feature","properties":{"ID":"4064","Elevation":"6.99","Type":"Electronic","Authority":"CEB","Material":"Metal","Condition":"Good"},"geometry":{"type":"Point","coordinates":[79.86056020313688,6.909254350639215]}},{"type":"Feature","properties":{"ID":"4067","Elevation":"6.998","Type":"Postal","Authority":"SLP","Material":"Metal","Condition":"Good"},"geometry":{"type":"Point","coordinates":[79.86045932255843,6.909288787920425]}},{"type":"Feature","properties":{"ID":"4068","Elevation":"7.003","Type":"Postal","Authority":"SLP","Material":"Metal","Condition":"Good"},"geometry":{"type":"Point","coordinates":[79.86045287683062,6.90929058394714]}},{"type":"Feature","properties":{"ID":"4085","Elevation":"7.3","Type":"Electronic","Authority":"CEB","Material":"Metal","Condition":"Good"},"geometry":{"type":"Point","coordinates":[79.85984763480685,6.909527226936307]}},{"type":"Feature","properties":{"ID":"4207","Elevation":"6.354","Type":"Electronic","Authority":"CEB","Material":"Metal","Condition":"Good"},"geometry":{"type":"Point","coordinates":[79.86164537612613,6.909177407304077]}},{"type":"Feature","properties":{"ID":"4236","Elevation":"7.061","Type":"Electronic","Authority":"CEB","Material":"Metal","Condition":"Good"},"geometry":{"type":"Point","coordinates":[79.86252879626994,6.909344156764719]}},{"type":"Feature","properties":{"ID":"4238","Elevation":"6.662","Type":"Electronic","Authority":"CEB","Material":"Metal","Condition":"Good"},"geometry":{"type":"Point","coordinates":[79.8625617836702,6.909359392660524]}},{"type":"Feature","properties":{"ID":"4345","Elevation":"7.044","Type":"Electronic","Authority":"SLT","Material":"Metal","Condition":"Poor"},"geometry":{"type":"Point","coordinates":[79.86446444794184,6.910948777359777]}},{"type":"Feature","properties":{"ID":"4385","Elevation":"6.994","Type":"Postal","Authority":"SLP","Material":"Metal","Condition":"Good"},"geometry":{"type":"Point","coordinates":[79.86432086256036,6.910726907850316]}},{"type":"Feature","properties":{"ID":"4386","Elevation":"7.005","Type":"Postal","Authority":"SLP","Material":"Metal","Condition":"Good"},"geometry":{"type":"Point","coordinates":[79.86431201533902,6.910716483460451]}},{"type":"Feature","properties":{"ID":"4390","Elevation":"7.199","Type":"Electronic","Authority":"CEB","Material":"Metal","Condition":"Good"},"geometry":{"type":"Point","coordinates":[79.86399045325595,6.910305591714452]}},{"type":"Feature","properties":{"ID":"5032","Elevation":"8.057","Type":"Electronic","Authority":"CEB","Material":"Concreate","Condition":"Good"},"geometry":{"type":"Point","coordinates":[79.86061902984622,6.905437852976762]}},{"type":"Feature","properties":{"ID":"5049","Elevation":"7.962","Type":"Electronic","Authority":"CEB","Material":"Metal","Condition":"Good"},"geometry":{"type":"Point","coordinates":[79.86109141517068,6.905336846758261]}},{"type":"Feature","properties":{"ID":"5053","Elevation":"7.567","Type":"Electronic","Authority":"CEB","Material":"Metal","Condition":"Good"},"geometry":{"type":"Point","coordinates":[79.86135447794258,6.905407735358783]}},{"type":"Feature","properties":{"ID":"5079","Elevation":"7.37","Type":"Electronic","Authority":"CEB","Material":"Metal","Condition":"Good"},"geometry":{"type":"Point","coordinates":[79.86294699445847,6.905561765116705]}},{"type":"Feature","properties":{"ID":"5088","Elevation":"7.995","Type":"Electronic","Authority":"CEB","Material":"Metal","Condition":"Good"},"geometry":{"type":"Point","coordinates":[79.86260958060056,6.9053461337018165]}},{"type":"Feature","properties":{"ID":"5089","Elevation":"7.748","Type":"Electronic","Authority":"CEB","Material":"Metal","Condition":"Good"},"geometry":{"type":"Point","coordinates":[79.86257139606799,6.905342308043879]}},{"type":"Feature","properties":{"ID":"5118","Elevation":"7.118","Type":"Postal","Authority":"SLP","Material":"Concreate","Condition":"Good"},"geometry":{"type":"Point","coordinates":[79.86174936309942,6.905176635825417]}},{"type":"Feature","properties":{"ID":"5194","Elevation":"5.434","Type":"Electronic","Authority":"CEB","Material":"Metal","Condition":"Good"},"geometry":{"type":"Point","coordinates":[79.85882795184338,6.905760150201082]}},{"type":"Feature","properties":{"ID":"5236","Elevation":"5.315","Type":"Electronic","Authority":"CEB","Material":"Metal","Condition":"Good"},"geometry":{"type":"Point","coordinates":[79.8585129458669,6.904609056310356]}},{"type":"Feature","properties":{"ID":"5248","Elevation":"5.192","Type":"Electronic","Authority":"CEB","Material":"Metal","Condition":"Good"},"geometry":{"type":"Point","coordinates":[79.85850894923487,6.9037252030755925]}},{"type":"Feature","properties":{"ID":"5258","Elevation":"5.366","Type":"Electronic","Authority":"CEB","Material":"Metal","Condition":"Good"},"geometry":{"type":"Point","coordinates":[79.85866851631678,6.903257654693654]}},{"type":"Feature","properties":{"ID":"5304","Elevation":"7.412","Type":"Electronic","Authority":"CEB","Material":"Metal","Condition":"Good"},"geometry":{"type":"Point","coordinates":[79.85931144764571,6.901289841697231]}},{"type":"Feature","properties":{"ID":"5358","Elevation":"7.757","Type":"Electronic","Authority":"CEB","Material":"Metal","Condition":"Good"},"geometry":{"type":"Point","coordinates":[79.86003830869471,6.899332360527329]}},{"type":"Feature","properties":{"ID":"5360","Elevation":"7.544","Type":"Postal","Authority":"SLP","Material":"Concreate","Condition":"Good"},"geometry":{"type":"Point","coordinates":[79.86007561898751,6.8992870861032545]}},{"type":"Feature","properties":{"ID":"5361","Elevation":"7.524","Type":"Postal","Authority":"SLP","Material":"Metal","Condition":"Good"},"geometry":{"type":"Point","coordinates":[79.86008627055253,6.899276563482424]}}]}