{
"type": "FeatureCollection",
"name": "waterValves",
"crs": { "type": "name", "properties": { "name": "urn:ogc:def:crs:OGC:1.3:CRS84" } },
"features": [
{ "type": "Feature", "properties": { "waterValveId": "2213", "depthM": "1.5", "lengthCm": "30", "widthCm": "30", "material": "Metal", "condition": "Good", "elevation": "6.78" }, "geometry": { "type": "Point", "coordinates": [ 79.861258181786582, 6.906893898179746 ] } },
{ "type": "Feature", "properties": { "waterValveId": "2257", "depthM": "1.5", "lengthCm": "30", "widthCm": "30", "material": "Metal", "condition": "Good", "elevation": "5.623" }, "geometry": { "type": "Point", "coordinates": [ 79.860007048895923, 6.906968831390771 ] } },
{ "type": "Feature", "properties": { "waterValveId": "2260", "depthM": "1.5", "lengthCm": "30", "widthCm": "30", "material": "Metal", "condition": "Good", "elevation": "5.7" }, "geometry": { "type": "Point", "coordinates": [ 79.859927089984097, 6.906936433578625 ] } },
{ "type": "Feature", "properties": { "waterValveId": "3045", "depthM": "1.5", "lengthCm": "60", "widthCm": "60", "material": "Metal", "condition": "Good", "elevation": "7.437" }, "geometry": { "type": "Point", "coordinates": [ 79.859475236362016, 6.899718361554347 ] } },
{ "type": "Feature", "properties": { "waterValveId": "3046", "depthM": "1.5", "lengthCm": "60", "widthCm": "60", "material": "Metal", "condition": "Good", "elevation": "7.381" }, "geometry": { "type": "Point", "coordinates": [ 79.859496743069755, 6.899751415544385 ] } },
{ "type": "Feature", "properties": { "waterValveId": "3148", "depthM": "1.5", "lengthCm": "20", "widthCm": "20", "material": "Metal", "condition": "Good", "elevation": "5.261" }, "geometry": { "type": "Point", "coordinates": [ 79.858588850766225, 6.903096868762858 ] } },
{ "type": "Feature", "properties": { "waterValveId": "3155", "depthM": "1.5", "lengthCm": "60", "widthCm": "60", "material": "Metal", "condition": "Good", "elevation": "5.035" }, "geometry": { "type": "Point", "coordinates": [ 79.858491098468065, 6.903306881940923 ] } },
{ "type": "Feature", "properties": { "waterValveId": "3181", "depthM": "1.5", "lengthCm": "50", "widthCm": "50", "material": "Metal", "condition": "Good", "elevation": "4.841" }, "geometry": { "type": "Point", "coordinates": [ 79.858215804304791, 6.904174708380659 ] } },
{ "type": "Feature", "properties": { "waterValveId": "3188", "depthM": "1.5", "lengthCm": "50", "widthCm": "50", "material": "Metal", "condition": "Good", "elevation": "5.066" }, "geometry": { "type": "Point", "coordinates": [ 79.858344477174427, 6.904263450997584 ] } },
{ "type": "Feature", "properties": { "waterValveId": "3236", "depthM": "1.5", "lengthCm": "20", "widthCm": "20", "material": "Metal", "condition": "Good", "elevation": "5.444" }, "geometry": { "type": "Point", "coordinates": [ 79.858737158088175, 6.905852195643769 ] } },
{ "type": "Feature", "properties": { "waterValveId": "3241", "depthM": "1.5", "lengthCm": "20", "widthCm": "20", "material": "Metal", "condition": "Good", "elevation": "5.579" }, "geometry": { "type": "Point", "coordinates": [ 79.858773169462566, 6.905889708228833 ] } },
{ "type": "Feature", "properties": { "waterValveId": "3251", "depthM": "1.5", "lengthCm": "20", "widthCm": "20", "material": "Metal", "condition": "Good", "elevation": "5.688" }, "geometry": { "type": "Point", "coordinates": [ 79.858901952302034, 6.905912281007725 ] } },
{ "type": "Feature", "properties": { "waterValveId": "3252", "depthM": "2", "lengthCm": "20", "widthCm": "20", "material": "Metal", "condition": "Good", "elevation": "5.815" }, "geometry": { "type": "Point", "coordinates": [ 79.858928572756668, 6.90594460343731 ] } },
{ "type": "Feature", "properties": { "waterValveId": "3271", "depthM": "2", "lengthCm": "20", "widthCm": "20", "material": "Metal", "condition": "Good", "elevation": "5.768" }, "geometry": { "type": "Point", "coordinates": [ 79.859156865807662, 6.906211612428355 ] } },
{ "type": "Feature", "properties": { "waterValveId": "3272", "depthM": "2", "lengthCm": "20", "widthCm": "20", "material": "Metal", "condition": "Good", "elevation": "5.757" }, "geometry": { "type": "Point", "coordinates": [ 79.859251337370395, 6.906272330951787 ] } },
{ "type": "Feature", "properties": { "waterValveId": "3283", "depthM": "2", "lengthCm": "20", "widthCm": "20", "material": "Metal", "condition": "Good", "elevation": "5.991" }, "geometry": { "type": "Point", "coordinates": [ 79.859492917554277, 6.906663983397667 ] } },
{ "type": "Feature", "properties": { "waterValveId": "3331", "depthM": "1.5", "lengthCm": "20", "widthCm": "20", "material": "Metal", "condition": "Good", "elevation": "5.637" }, "geometry": { "type": "Point", "coordinates": [ 79.859253880814066, 6.906116857207436 ] } },
{ "type": "Feature", "properties": { "waterValveId": "4107", "depthM": "1.5", "lengthCm": "30", "widthCm": "30", "material": "Metal", "condition": "Good", "elevation": "6.902" }, "geometry": { "type": "Point", "coordinates": [ 79.860697183182623, 6.909258863682862 ] } },
{ "type": "Feature", "properties": { "waterValveId": "4108", "depthM": "1.5", "lengthCm": "30", "widthCm": "30", "material": "Metal", "condition": "Good", "elevation": "6.888" }, "geometry": { "type": "Point", "coordinates": [ 79.860708523930597, 6.909242971404472 ] } },
{ "type": "Feature", "properties": { "waterValveId": "4109", "depthM": "1.5", "lengthCm": "30", "widthCm": "30", "material": "Metal", "condition": "Good", "elevation": "6.831" }, "geometry": { "type": "Point", "coordinates": [ 79.860768347526189, 6.909234948487793 ] } },
{ "type": "Feature", "properties": { "waterValveId": "4110", "depthM": "1.5", "lengthCm": "30", "widthCm": "30", "material": "Metal", "condition": "Good", "elevation": "6.752" }, "geometry": { "type": "Point", "coordinates": [ 79.860805173638497, 6.909234838410015 ] } },
{ "type": "Feature", "properties": { "waterValveId": "4200", "depthM": "1.5", "lengthCm": "40", "widthCm": "40", "material": "Metal", "condition": "Good", "elevation": "6.429" }, "geometry": { "type": "Point", "coordinates": [ 79.861428585292998, 6.909227898027879 ] } },
{ "type": "Feature", "properties": { "waterValveId": "4218", "depthM": "1.5", "lengthCm": "30", "widthCm": "30", "material": "Metal", "condition": "Good", "elevation": "6.487" }, "geometry": { "type": "Point", "coordinates": [ 79.862041343892201, 6.90926515220492 ] } },
{ "type": "Feature", "properties": { "waterValveId": "5008", "depthM": "1.5", "lengthCm": "30", "widthCm": "30", "material": "Metal", "condition": "Good", "elevation": "4.894" }, "geometry": { "type": "Point", "coordinates": [ 79.859457333969402, 6.905652675319593 ] } },
{ "type": "Feature", "properties": { "waterValveId": "5010", "depthM": "1.5", "lengthCm": "30", "widthCm": "30", "material": "Metal", "condition": "Good", "elevation": "4.893" }, "geometry": { "type": "Point", "coordinates": [ 79.859361250864666, 6.905667672165152 ] } },
{ "type": "Feature", "properties": { "waterValveId": "5056", "depthM": "1.5", "lengthCm": "50", "widthCm": "50", "material": "Metal", "condition": "Good", "elevation": "7.227" }, "geometry": { "type": "Point", "coordinates": [ 79.861332240487485, 6.905302768269058 ] } },
{ "type": "Feature", "properties": { "waterValveId": "5072", "depthM": "1.5", "lengthCm": "30", "widthCm": "30", "material": "Metal", "condition": "Good", "elevation": "7.322" }, "geometry": { "type": "Point", "coordinates": [ 79.862679451620281, 6.90542059362162 ] } },
{ "type": "Feature", "properties": { "waterValveId": "5171", "depthM": "1.5", "lengthCm": "30", "widthCm": "30", "material": "Metal", "condition": "Good", "elevation": "4.829" }, "geometry": { "type": "Point", "coordinates": [ 79.85936519649934, 6.905639133893596 ] } },
{ "type": "Feature", "properties": { "waterValveId": "5243", "depthM": "1.5", "lengthCm": "30", "widthCm": "30", "material": "Metal", "condition": "Good", "elevation": "4.995" }, "geometry": { "type": "Point", "coordinates": [ 79.858456828525632, 6.903844684297597 ] } },
{ "type": "Feature", "properties": { "waterValveId": "5389", "depthM": "1.5", "lengthCm": "40", "widthCm": "40", "material": "Metal", "condition": "Good", "elevation": "7.566" }, "geometry": { "type": "Point", "coordinates": [ 79.860515123528202, 6.898830038473075 ] } }
]
}
