{
"type": "FeatureCollection",
"name": "billboards",
"crs": { "type": "name", "properties": { "name": "urn:ogc:def:crs:OGC:1.3:CRS84" } },
"features": [
{ "type": "Feature", "properties": { "billboardId": "235", "type": "Banner", "authority": "CMC", "material": "Metal", "condition": "Good", "elevation": "6.926" }, "geometry": { "type": "Point", "coordinates": [ 79.862966412994794, 6.911623358867888 ] } },
{ "type": "Feature", "properties": { "billboardId": "1034", "type": "Banner", "authority": "CMC", "material": "Metal", "condition": "Good", "elevation": "7.388" }, "geometry": { "type": "Point", "coordinates": [ 79.863676278142208, 6.906373387874195 ] } },
{ "type": "Feature", "properties": { "billboardId": "1084", "type": "Banner", "authority": "CMC", "material": "Metal", "condition": "Good", "elevation": "7.225" }, "geometry": { "type": "Point", "coordinates": [ 79.863681595517448, 6.9060964567682 ] } },
{ "type": "Feature", "properties": { "billboardId": "1156", "type": "Banner", "authority": "CMC", "material": "Metal", "condition": "Moderate", "elevation": "7.215" }, "geometry": { "type": "Point", "coordinates": [ 79.864362076025145, 6.908697569813039 ] } },
{ "type": "Feature", "properties": { "billboardId": "1171", "type": "Banner", "authority": "CMC", "material": "Metal", "condition": "Good", "elevation": "7.016" }, "geometry": { "type": "Point", "coordinates": [ 79.863831999329648, 6.90946244751243 ] } },
{ "type": "Feature", "properties": { "billboardId": "1184", "type": "Banner", "authority": "CMC", "material": "Metal", "condition": "Good", "elevation": "6.78" }, "geometry": { "type": "Point", "coordinates": [ 79.863608622350029, 6.909866201223568 ] } },
{ "type": "Feature", "properties": { "billboardId": "1199", "type": "Banner", "authority": "CMC", "material": "Metal", "condition": "Good", "elevation": "7.242" }, "geometry": { "type": "Point", "coordinates": [ 79.864480024319874, 6.91097004705939 ] } },
{ "type": "Feature", "properties": { "billboardId": "2132", "type": "Banner", "authority": "CMC", "material": "Metal", "condition": "Good", "elevation": "6.098" }, "geometry": { "type": "Point", "coordinates": [ 79.860196315219511, 6.907275206557427 ] } },
{ "type": "Feature", "properties": { "billboardId": "3002", "type": "Banner", "authority": "CMC", "material": "Metal", "condition": "Good", "elevation": "7.298" }, "geometry": { "type": "Point", "coordinates": [ 79.860407216240475, 6.898670826203892 ] } },
{ "type": "Feature", "properties": { "billboardId": "3016", "type": "Banner", "authority": "CMC", "material": "Metal", "condition": "Good", "elevation": "7.38" }, "geometry": { "type": "Point", "coordinates": [ 79.860253043467679, 6.89887585801092 ] } },
{ "type": "Feature", "properties": { "billboardId": "3136", "type": "Digital Screen", "authority": "CMC", "material": "Metal", "condition": "Good", "elevation": "2.319" }, "geometry": { "type": "Point", "coordinates": [ 79.858698915591887, 6.902784432431362 ] } },
{ "type": "Feature", "properties": { "billboardId": "3230", "type": "Banner", "authority": "CMC", "material": "Metal", "condition": "Good", "elevation": "5.589" }, "geometry": { "type": "Point", "coordinates": [ 79.858617177138115, 6.905807143066911 ] } },
{ "type": "Feature", "properties": { "billboardId": "3328", "type": "Banner", "authority": "CMC", "material": "Metal", "condition": "Good", "elevation": "5.921" }, "geometry": { "type": "Point", "coordinates": [ 79.859353581861569, 6.906177730444623 ] } },
{ "type": "Feature", "properties": { "billboardId": "4065", "type": "Banner", "authority": "CMC", "material": "Metal", "condition": "Good", "elevation": "7.09" }, "geometry": { "type": "Point", "coordinates": [ 79.860518394652246, 6.909262227315183 ] } },
{ "type": "Feature", "properties": { "billboardId": "4134", "type": "Banner", "authority": "CMC", "material": "Metal", "condition": "Good", "elevation": "7.037" }, "geometry": { "type": "Point", "coordinates": [ 79.861852044156592, 6.909469501815755 ] } },
{ "type": "Feature", "properties": { "billboardId": "4344", "type": "Banner", "authority": "CMC", "material": "Metal", "condition": "Good", "elevation": "7.104" }, "geometry": { "type": "Point", "coordinates": [ 79.864480811941505, 6.910969822514743 ] } },
{ "type": "Feature", "properties": { "billboardId": "4389", "type": "Banner", "authority": "CMC", "material": "Metal", "condition": "Good", "elevation": "6.869" }, "geometry": { "type": "Point", "coordinates": [ 79.864013774357758, 6.910327102308981 ] } },
{ "type": "Feature", "properties": { "billboardId": "4406", "type": "Banner", "authority": "CMC", "material": "Metal", "condition": "Good", "elevation": "6.791" }, "geometry": { "type": "Point", "coordinates": [ 79.863608553815908, 6.909864193747505 ] } },
{ "type": "Feature", "properties": { "billboardId": "5083", "type": "Banner", "authority": "CMC", "material": "Glass", "condition": "Good", "elevation": "8.59" }, "geometry": { "type": "Point", "coordinates": [ 79.862735964276794, 6.905341249056778 ] } },
{ "type": "Feature", "properties": { "billboardId": "5085", "type": "Banner", "authority": "CMC", "material": "Glass", "condition": "Good", "elevation": "8.575" }, "geometry": { "type": "Point", "coordinates": [ 79.862655831812305, 6.905205988530135 ] } },
{ "type": "Feature", "properties": { "billboardId": "5086", "type": "Banner", "authority": "CMC", "material": "Glass", "condition": "Good", "elevation": "8.623" }, "geometry": { "type": "Point", "coordinates": [ 79.862531710442653, 6.905333307428632 ] } },
{ "type": "Feature", "properties": { "billboardId": "5119", "type": "Banner", "authority": "CMC", "material": "Metal", "condition": "Good", "elevation": "7.131" }, "geometry": { "type": "Point", "coordinates": [ 79.861834153128811, 6.905180994013451 ] } },
{ "type": "Feature", "properties": { "billboardId": "5159", "type": "Banner", "authority": "CMC", "material": "Metal", "condition": "Good", "elevation": "5.718" }, "geometry": { "type": "Point", "coordinates": [ 79.859814554363197, 6.905383266112644 ] } },
{ "type": "Feature", "properties": { "billboardId": "5213", "type": "Banner", "authority": "CMC", "material": "Metal", "condition": "Good", "elevation": "5.273" }, "geometry": { "type": "Point", "coordinates": [ 79.858641057795424, 6.905505273893241 ] } },
{ "type": "Feature", "properties": { "billboardId": "5289", "type": "Banner", "authority": "CMC", "material": "Metal", "condition": "Good", "elevation": "6.547" }, "geometry": { "type": "Point", "coordinates": [ 79.85912288339749, 6.901879502354863 ] } },
{ "type": "Feature", "properties": { "billboardId": "5368", "type": "Banner", "authority": "CMC", "material": "Metal", "condition": "Good", "elevation": "7.418" }, "geometry": { "type": "Point", "coordinates": [ 79.86031006132427, 6.899037052298747 ] } },
{ "type": "Feature", "properties": { "billboardId": "5369", "type": "Banner", "authority": "CMC", "material": "Metal", "condition": "Good", "elevation": "7.638" }, "geometry": { "type": "Point", "coordinates": [ 79.860344279629984, 6.899037570094317 ] } },
{ "type": "Feature", "properties": { "billboardId": "5374", "type": "Banner", "authority": "CMC", "material": "Metal", "condition": "Good", "elevation": "7.447" }, "geometry": { "type": "Point", "coordinates": [ 79.860401323828057, 6.898996791270782 ] } }
]
}
