{
"type": "FeatureCollection",
"name": "busStopAreas",
"crs": { "type": "name", "properties": { "name": "urn:ogc:def:crs:OGC:1.3:CRS84" } },
"features": [
{ "type": "Feature", "properties": { "busStopAreaId": "1" }, "geometry": { "type": "Polygon", "coordinates": [ [ [ 79.863573164252827, 6.91029407862562 ], [ 79.863559150363898, 6.910280322393532 ], [ 79.863542974984242, 6.910264863693249 ], [ 79.863534733861343, 6.91027326037191 ], [ 79.863565619488568, 6.910301981001958 ], [ 79.863573164252827, 6.91029407862562 ] ] ] } },
{ "type": "Feature", "properties": { "busStopAreaId": "2" }, "geometry": { "type": "Polygon", "coordinates": [ [ [ 79.862882428181464, 6.911622896349767 ], [ 79.862838716032314, 6.911623167819553 ], [ 79.862838861963326, 6.911645139947107 ], [ 79.862882733326188, 6.911645190696229 ], [ 79.862882428181464, 6.911622896349767 ] ] ] } },
{ "type": "Feature", "properties": { "busStopAreaId": "3" }, "geometry": { "type": "Polygon", "coordinates": [ [ [ 79.86444155010912, 6.910903178427154 ], [ 79.864421235438556, 6.910871641997725 ], [ 79.864413897540373, 6.910875975531463 ], [ 79.864432925074169, 6.910908683130172 ], [ 79.86444155010912, 6.910903178427154 ] ] ] } }
]
}
