{"type":"FeatureCollection","features":[{"type":"Feature","properties":{"ID":"3079","Elevation":"7.424","Material":"Metal","Condition":"Good","Length (m)":"5","width (m)":"1.5","Location":"Kumarathunga Munidasa Road","Authority":"CMC"},"geometry":{"type":"Point","coordinates":[79.8593821638354,6.900534466109095]}},{"type":"Feature","properties":{"ID":"3203","Elevation":"5.025","Material":"Metal","Condition":"Good","Length (m)":"5","width (m)":"1.5","Location":"Kumarathunga Munidasa Road","Authority":"CMC"},"geometry":{"type":"Point","coordinates":[79.85839533105775,6.905115575311852]}},{"type":"Feature","properties":{"ID":"3289","Elevation":"6.136","Material":"Metal","Condition":"Good","Length (m)":"5","width (m)":"1.5","Location":"Kumarathunga Munidasa Road","Authority":"CMC"},"geometry":{"type":"Point","coordinates":[79.8596074144194,6.906784861209156]}},{"type":"Feature","properties":{"ID":"4147","Elevation":"6.412","Material":"Fiber","Condition":"Good","Length (m)":"4.5","width (m)":"1.5","Location":"Albert Cresent","Authority":"CMC"},"geometry":{"type":"Point","coordinates":[79.86224938198065,6.909508331499969]}},{"type":"Feature","properties":{"ID":"4348","Elevation":"7.114","Material":"Fiber","Condition":"Good","Length (m)":"5","width (m)":"1.5","Location":"Albert Cresent","Authority":"CMC"},"geometry":{"type":"Point","coordinates":[79.8644232862648,6.9108929359608595]}},{"type":"Feature","properties":{"ID":"4377","Elevation":"7.136","Material":"Fiber","Condition":"Good","Length (m)":"5","width (m)":"1.5","Location":"Albert Cresent","Authority":"CMC"},"geometry":{"type":"Point","coordinates":[79.8635605211441,6.910281864519597]}},{"type":"Feature","properties":{"ID":"4396","Elevation":"6.46","Material":"Metal","Condition":"Good","Length (m)":"5","width (m)":"1.5","Location":"Albert Cresent","Authority":"CMC"},"geometry":{"type":"Point","coordinates":[79.86364110297244,6.909975853623786]}}]}