{"type":"FeatureCollection","features":[{"type":"Feature","properties":{"Type":null,"ImageName":null,"MCode":null,"SCode":null,"ID":null},"geometry":{"type":"MultiPolygon","coordinates":[[[[79.85922176878668,6.905811743386483],[79.85920021783686,6.905827327449265],[79.85920355949067,6.905831942454974],[79.85922511044639,6.905816358383859],[79.85922176878668,6.905811743386483]]],[[[79.85923569139388,6.905827694946328],[79.85921392055059,6.905843438028905],[79.85921726220592,6.90584805301767],[79.85923903305337,6.905832309943506],[79.85923569139388,6.905827694946328]]],[[[79.85918701333543,6.9057720327629655],[79.85916601975384,6.905788358949664],[79.85916952053272,6.905792854596244],[79.85919051411148,6.905776528408772],[79.85918701333543,6.9057720327629655]]],[[[79.85917357820144,6.905756461450936],[79.8591523704048,6.905772954230478],[79.85915587118366,6.905777449877119],[79.85917707898209,6.90576095709809],[79.85917357820144,6.905756461450936]]],[[[79.85922881110231,6.9058196235576075],[79.85920726014604,6.9058352076114815],[79.85921060180479,6.905839822608681],[79.85923215275567,6.9058242385543],[79.85922881110231,6.9058196235576075]]],[[[79.859201105182,6.905787994059362],[79.85917955424662,6.905803578124444],[79.85918305501366,6.905808412899737],[79.85920460595794,6.905792828835218],[79.859201105182,6.905787994059362]]],[[[79.85919426319245,6.9057798771550365],[79.85917277060351,6.9057959975438585],[79.85917635527923,6.9058007705241415],[79.85919784786714,6.905784650134508],[79.85919426319245,6.9057798771550365]]],[[[79.85920809595389,6.905795714681858],[79.85918610519875,6.905811616777544],[79.85918960596734,6.905816451548922],[79.85921159673154,6.905800549458141],[79.85920809595389,6.905795714681858]]],[[[79.85916067861054,6.905740473660245],[79.85913818549353,6.905757965993789],[79.85914168627069,6.90576246162961],[79.85916417939131,6.905744969297791],[79.85916067861054,6.905740473660245]]],[[[79.85916691340194,6.905749041037296],[79.85914549138126,6.9057657004100825],[79.8591489921661,6.90577019605826],[79.85917041418361,6.9057535366847835],[79.85916691340194,6.905749041037296]]],[[[79.85918034906453,6.9057643410915865],[79.85915914126461,6.9057808338681665],[79.85916264204212,6.905785329514505],[79.8591838498403,6.905768836734905],[79.85918034906453,6.9057643410915865]]],[[[79.85921510786272,6.905803784236529],[79.85919333702219,6.9058195273201415],[79.85919667867644,6.905824142325406],[79.85921844951744,6.905808399242397],[79.85921510786272,6.905803784236529]]],[[[79.8592384115092,6.9058389482610805],[79.85922147862044,6.905851192871171],[79.85922482027576,6.90585580786848],[79.85924175314585,6.905843563244075],[79.8592384115092,6.9058389482610805]]]]}},{"type":"Feature","properties":{"Type":null,"ImageName":null,"MCode":null,"SCode":null,"ID":null},"geometry":{"type":"MultiPolygon","coordinates":[[[[79.8592217684841,6.905811734114759],[79.85920021753425,6.905827318177539],[79.85920355918809,6.905831933183248],[79.8592251101438,6.905816349112138],[79.8592217684841,6.905811734114759]]],[[[79.85923569109129,6.905827685674603],[79.859213920248,6.905843428757178],[79.85921726190334,6.905848043745938],[79.85923903275078,6.90583230067178],[79.85923569109129,6.905827685674603]]],[[[79.85918701303285,6.905772023491249],[79.85916601945127,6.905788349677945],[79.85916952023011,6.905792845324521],[79.85919051380888,6.905776519137053],[79.85918701303285,6.905772023491249]]],[[[79.85917357789886,6.905756452179219],[79.85915237010221,6.905772944958761],[79.85915587088108,6.9057774406054],[79.8591770786795,6.905760947826373],[79.85917357789886,6.905756452179219]]],[[[79.85922881079973,6.905819614285881],[79.85920725984347,6.905835198339753],[79.8592106015022,6.905839813336956],[79.85923215245309,6.905824229282572],[79.85922881079973,6.905819614285881]]],[[[79.85920110487939,6.905787984787643],[79.85917955394403,6.905803568852722],[79.85918305471105,6.905808403628012],[79.85920460565536,6.905792819563498],[79.85920110487939,6.905787984787643]]],[[[79.85919426288987,6.905779867883316],[79.85917277030093,6.905795988272139],[79.85917635497667,6.905800761252421],[79.85919784756456,6.905784640862789],[79.85919426288987,6.905779867883316]]],[[[79.8592080956513,6.905795705410136],[79.85918610489617,6.905811607505821],[79.85918960566478,6.905816442277194],[79.85921159642896,6.905800540186419],[79.8592080956513,6.905795705410136]]],[[[79.85916067830793,6.905740464388535],[79.85913818519096,6.905757956722073],[79.8591416859681,6.905762452357896],[79.85916417908874,6.905744960026077],[79.85916067830793,6.905740464388535]]],[[[79.85916691309934,6.905749031765581],[79.85914549107868,6.905765691138368],[79.85914899186353,6.905770186786545],[79.85917041388103,6.905753527413073],[79.85916691309934,6.905749031765581]]],[[[79.85918034876194,6.905764331819872],[79.859159140962,6.90578082459645],[79.85916264173956,6.905785320242783],[79.8591838495377,6.905768827463184],[79.85918034876194,6.905764331819872]]],[[[79.85921510756015,6.905803774964808],[79.85919333671963,6.90581951804842],[79.85919667837385,6.905824133053682],[79.85921844921486,6.905808389970677],[79.85921510756015,6.905803774964808]]],[[[79.8592384112066,6.905838938989354],[79.85922147831788,6.905851183599439],[79.85922481997316,6.90585579859675],[79.85924175284327,6.905843553972348],[79.8592384112066,6.905838938989354]]]]}},{"type":"Feature","properties":{"Type":null,"ImageName":null,"MCode":null,"SCode":null,"ID":null},"geometry":{"type":"MultiPolygon","coordinates":[[[[79.8592217684841,6.905811734114759],[79.85920021753425,6.905827318177539],[79.85920355918809,6.905831933183248],[79.8592251101438,6.905816349112138],[79.8592217684841,6.905811734114759]]],[[[79.85923569109129,6.905827685674603],[79.859213920248,6.905843428757178],[79.85921726190334,6.905848043745938],[79.85923903275078,6.90583230067178],[79.85923569109129,6.905827685674603]]],[[[79.85918701303285,6.905772023491249],[79.85916601945127,6.905788349677945],[79.85916952023011,6.905792845324521],[79.85919051380888,6.905776519137053],[79.85918701303285,6.905772023491249]]],[[[79.85917357789886,6.905756452179219],[79.85915237010221,6.905772944958761],[79.85915587088108,6.9057774406054],[79.8591770786795,6.905760947826373],[79.85917357789886,6.905756452179219]]],[[[79.85922881079973,6.905819614285881],[79.85920725984347,6.905835198339753],[79.8592106015022,6.905839813336956],[79.85923215245309,6.905824229282572],[79.85922881079973,6.905819614285881]]],[[[79.85920110487939,6.905787984787643],[79.85917955394403,6.905803568852722],[79.85918305471105,6.905808403628012],[79.85920460565536,6.905792819563498],[79.85920110487939,6.905787984787643]]],[[[79.85919426288987,6.905779867883316],[79.85917277030093,6.905795988272139],[79.85917635497667,6.905800761252421],[79.85919784756456,6.905784640862789],[79.85919426288987,6.905779867883316]]],[[[79.8592080956513,6.905795705410136],[79.85918610489617,6.905811607505821],[79.85918960566478,6.905816442277194],[79.85921159642896,6.905800540186419],[79.8592080956513,6.905795705410136]]],[[[79.85916067830793,6.905740464388535],[79.85913818519096,6.905757956722073],[79.8591416859681,6.905762452357896],[79.85916417908874,6.905744960026077],[79.85916067830793,6.905740464388535]]],[[[79.85916691309934,6.905749031765581],[79.85914549107868,6.905765691138368],[79.85914899186353,6.905770186786545],[79.85917041388103,6.905753527413073],[79.85916691309934,6.905749031765581]]],[[[79.85918034876194,6.905764331819872],[79.859159140962,6.90578082459645],[79.85916264173956,6.905785320242783],[79.8591838495377,6.905768827463184],[79.85918034876194,6.905764331819872]]],[[[79.85921510756015,6.905803774964808],[79.85919333671963,6.90581951804842],[79.85919667837385,6.905824133053682],[79.85921844921486,6.905808389970677],[79.85921510756015,6.905803774964808]]],[[[79.8592384112066,6.905838938989354],[79.85922147831788,6.905851183599439],[79.85922481997316,6.90585579859675],[79.85924175284327,6.905843553972348],[79.8592384112066,6.905838938989354]]]]}},{"type":"Feature","properties":{"Type":null,"ImageName":null,"MCode":null,"SCode":null,"ID":null},"geometry":{"type":"MultiPolygon","coordinates":[[[[79.8639473792211,6.90758424562783],[79.86392166416734,6.907573279342644],[79.86391995953078,6.907577271262072],[79.86394567458973,6.907588237547196],[79.8639473792211,6.90758424562783]]],[[[79.8639165479029,6.907585343564975],[79.86394183044361,6.907596650640339],[79.86394371542151,6.907592441455568],[79.86391843287664,6.907581134380183],[79.8639165479029,6.907585343564975]]],[[[79.86391691117812,6.907650940559994],[79.86389114382739,6.907639416654162],[79.86388936970275,6.907643378232942],[79.86391513708328,6.907654902147719],[79.86391691117812,6.907650940559994]]],[[[79.86392085190512,6.90764232286421],[79.86389483674884,6.907630688135933],[79.86389306265455,6.90763464972375],[79.86391907780892,6.907646284451533],[79.86392085190512,6.90764232286421]]],[[[79.86392551431759,6.907633909071547],[79.86389900362893,6.907622052737951],[79.86389711863882,6.907626261910374],[79.86392362931785,6.907638118245501],[79.86392551431759,6.907633909071547]]],[[[79.86393815934265,6.907600126621615],[79.86391363074861,6.907589156736877],[79.86391174578219,6.907593365919982],[79.86393627432354,6.907604335789122],[79.86393815934265,6.907600126621615]]],[[[79.86393150937715,6.907606872743602],[79.8639089629103,6.907596789311128],[79.86390696704075,6.907601246093916],[79.86393312958853,6.907612995108708],[79.86393512546572,6.90760853832448],[79.86393150937715,6.907606872743602]]],[[[79.86392972489885,6.907626105678619],[79.86390296647681,6.907614138536819],[79.86390108150239,6.9076183477135125],[79.86392783990304,6.907630314846886],[79.86392972489885,6.907626105678619]]],[[[79.86395127576148,6.907576651444175],[79.86392431240465,6.907565152810534],[79.86392260776526,6.90756914473039],[79.86394957113204,6.9075806433645175],[79.86395127576148,6.907576651444175]]],[[[79.86393131732893,6.907617042141817],[79.86390629326131,6.907605850658296],[79.86390440828231,6.907610059834027],[79.86392943235226,6.907621251318323],[79.86393131732893,6.907617042141817]]]]}},{"type":"Feature","properties":{"Type":null,"ImageName":null,"MCode":null,"SCode":null,"ID":null},"geometry":{"type":"MultiPolygon","coordinates":[[[[79.86279091862164,6.90955236454753],[79.86276382327887,6.9095419109176435],[79.86276196578065,6.909546719020209],[79.86278906112506,6.9095571726457035],[79.86279091862164,6.90955236454753]]],[[[79.86280184201176,6.9095247966649715],[79.8627756878045,6.909514178369483],[79.86277395095416,6.909518450712632],[79.86280010516299,6.909529069010494],[79.86280184201176,6.9095247966649715]]],[[[79.86280603767702,6.909515462943886],[79.86277912902294,6.909504538347575],[79.86277739217368,6.909508810690409],[79.86280430082898,6.909519735287473],[79.86280603767702,6.909515462943886]]],[[[79.86278697356869,6.909561802565609],[79.86276013145057,6.9095514466393775],[79.86275827395298,6.909556254746444],[79.86278511606841,6.909566610672578],[79.86278697356869,6.909561802565609]]],[[[79.86279767746925,6.909534106311302],[79.86277177474294,6.909523590113698],[79.86276993573092,6.909528113772108],[79.8627958384532,6.9095386299698545],[79.86279767746925,6.909534106311302]]],[[[79.86278270766583,6.909571637869466],[79.86275611877728,6.909561379629815],[79.86275435909668,6.909565934689114],[79.86278094793225,6.909576192913089],[79.86278270766583,6.909571637869466]]],[[[79.86281410182865,6.9094970592093325],[79.86278643872538,6.909485828317913],[79.86278459971074,6.909490351984277],[79.86281226281201,6.909501582875587],[79.86281410182865,6.9094970592093325]]],[[[79.86281025382605,6.909505756375828],[79.8627830936907,6.909494729681032],[79.86278135683918,6.909499002032051],[79.86280851697569,6.909510028727512],[79.86281025382605,6.909505756375828]]],[[[79.86279463877973,6.9095434019911774],[79.86276754343494,6.9095329483657935],[79.86276588146652,6.909537250354817],[79.86279297680936,6.909547703980323],[79.86279463877973,6.9095434019911774]]]]}},{"type":"Feature","properties":{"Type":null,"ImageName":null,"MCode":null,"SCode":null,"ID":null},"geometry":{"type":"MultiPolygon","coordinates":[[[[79.86276717467638,6.909608633134482],[79.86274271289379,6.90959877741467],[79.8627411240195,6.909602485611479],[79.86276558580222,6.909612341331389],[79.86276717467638,6.909608633134482]]],[[[79.86276320249092,6.909617903626735],[79.862738740708,6.909608047906672],[79.86273715183364,6.909611756103457],[79.8627616136167,6.909621611823619],[79.86276320249092,6.909617903626735]]],[[[79.86275923030531,6.9096271741189295],[79.86273476852203,6.909617318398615],[79.86273317964762,6.909621026595377],[79.86275764143102,6.909630882315791],[79.86275923030531,6.9096271741189295]]],[[[79.86275525811952,6.909636444611067],[79.86273079633592,6.909626588890504],[79.86272920746141,6.909630297087241],[79.86275366924515,6.909640152807906],[79.86275525811952,6.909636444611067]]],[[[79.86275128593357,6.909645715103148],[79.8627268241496,6.909635859382331],[79.86272523527504,6.909639567579046],[79.86274969705913,6.909649423299962],[79.86275128593357,6.909645715103148]]],[[[79.86274731374742,6.909654985595172],[79.86272285196313,6.909645129874104],[79.86272126308849,6.909648838070794],[79.86274572487291,6.9096586937919655],[79.86274731374742,6.909654985595172]]]]}},{"type":"Feature","properties":{"Type":null,"ImageName":null,"MCode":null,"SCode":null,"ID":null},"geometry":{"type":"MultiPolygon","coordinates":[[[[79.86196037421811,6.911792837888748],[79.8619331140126,6.911789921731251],[79.86193256505928,6.911795046433074],[79.86195982526677,6.911797962586499],[79.86196037421811,6.911792837888748]]],[[[79.86196243985299,6.911772379182184],[79.86193540324187,6.911769963066982],[79.86193491969617,6.911775366745797],[79.86196195630616,6.911777782863122],[79.86196243985299,6.911772379182184]]],[[[79.86196355499315,6.911762448397013],[79.86193656468816,6.911759561112111],[79.86193601573343,6.91176468581268],[79.86196300603788,6.91176757309735],[79.86196355499315,6.911762448397013]]],[[[79.8619648089319,6.911752564632513],[79.86193754872816,6.911749648477116],[79.86193697088521,6.911755042902931],[79.86196423108812,6.911757959058383],[79.8619648089319,6.911752564632513]]],[[[79.86196146996808,6.911782425861656],[79.86193416299108,6.911779985584947],[79.86193367944777,6.9117853892638434],[79.86196098642391,6.911787829540268],[79.86196146996808,6.911782425861656]]],[[[79.86195952718525,6.911802465342417],[79.86193226698364,6.91179954918885],[79.86193174692283,6.911804404168653],[79.86195900712286,6.911807320326687],[79.86195952718525,6.911802465342417]]],[[[79.86195801519777,6.911812756243279],[79.86193102489531,6.911809868960693],[79.86193050483323,6.911814723940437],[79.86195749513496,6.911817611227433],[79.86195801519777,6.911812756243279]]],[[[79.86196564409457,6.911742501162571],[79.86193892369691,6.911739642749644],[79.86193834585413,6.9117450371756615],[79.86196506624967,6.911747895588049],[79.86196564409457,6.911742501162571]]]]}},{"type":"Feature","properties":{"Type":null,"ImageName":null,"MCode":null,"SCode":null,"ID":null},"geometry":{"type":"MultiPolygon","coordinates":[[[[79.86197655613772,6.9116502550550925],[79.86194902603933,6.911647310029175],[79.86194853487189,6.911651895284996],[79.86197606496974,6.911654840311061],[79.86197655613772,6.9116502550550925]]],[[[79.8619735302802,6.911677619961225],[79.86194605580324,6.9116741952404634],[79.86194548462898,6.911678771238379],[79.86197295910647,6.9116821959592025],[79.8619735302802,6.911677619961225]]],[[[79.86197531820052,6.911659190169452],[79.86194805800079,6.911656274014448],[79.8619475668307,6.911660859270118],[79.86197482703184,6.911663775425218],[79.86197531820052,6.911659190169452]]],[[[79.86197462160477,6.911668154672914],[79.86194709150271,6.911665209648826],[79.86194660033159,6.911669794906365],[79.86197413043253,6.911672739930334],[79.86197462160477,6.911668154672914]]],[[[79.86197242728919,6.91168656950812],[79.86194495281288,6.911683144791604],[79.86194438163947,6.911687720785461],[79.8619718561132,6.911691145506045],[79.86197242728919,6.91168656950812]]],[[[79.86197753914357,6.9116408849453235],[79.8619502789486,6.911637968795294],[79.86194975888594,6.911642823772645],[79.86197701908019,6.911645739922758],[79.86197753914357,6.9116408849453235]]],[[[79.86197161306416,6.911695113728073],[79.86194413858865,6.9116916890076485],[79.86194353381646,6.911696534183786],[79.86197100829163,6.911699958904085],[79.86197161306416,6.911695113728073]]],[[[79.86197862873199,6.91163152773583],[79.86195136853443,6.911628611581925],[79.86195087736559,6.9116331968381335],[79.86197813756203,6.911636112991749],[79.86197862873199,6.91163152773583]]]]}},{"type":"Feature","properties":{"Type":null,"ImageName":null,"MCode":null,"SCode":null,"ID":null},"geometry":{"type":"MultiPolygon","coordinates":[[[[79.86413728167993,6.911634776573248],[79.86411017169836,6.911636144327767],[79.86411039068628,6.911640479008096],[79.86413750066919,6.911639111253527],[79.86413728167993,6.911634776573248]]],[[[79.86413896963805,6.91169726482489],[79.86411156855876,6.9116981684931025],[79.8641117208467,6.9117027774588236],[79.86413912180431,6.911701873754049],[79.86413896963805,6.91169726482489]]],[[[79.86413871532272,6.911688312646763],[79.86411131428457,6.911689216327163],[79.86411146658664,6.911693825314341],[79.86413886762367,6.911692921633195],[79.86413871532272,6.911688312646763]]],[[[79.86413954145753,6.911706455541961],[79.8641121288006,6.911706881195431],[79.86411220042265,6.9117114920833185],[79.86413961317234,6.911711066457029],[79.86413954145753,6.911706455541961]]],[[[79.86413881730974,6.911679388231577],[79.86411116512906,6.911680783341782],[79.86411139780473,6.911685388940852],[79.86413904998568,6.911683993830586],[79.86413881730974,6.911679388231577]]],[[[79.86413780705301,6.911643715054456],[79.86411015495723,6.911645110189405],[79.86411037386168,6.911649444844321],[79.86413802604324,6.911648049734477],[79.86413780705301,6.911643715054456]]],[[[79.86413979575075,6.911715407713524],[79.86411238310393,6.911715833361397],[79.86411245469928,6.9117204442413485],[79.86413986737172,6.911720018600702],[79.86413979575075,6.911715407713524]]],[[[79.86413804416034,6.911661618852706],[79.86411039197873,6.91166301396721],[79.86411061101902,6.911667348659295],[79.86413826314698,6.911665953529071],[79.86413804416034,6.911661618852706]]],[[[79.86413675516819,6.9116260809797865],[79.86410910298808,6.911627476090036],[79.8641093219036,6.911631810748779],[79.86413697408383,6.911630415638141],[79.86413675516819,6.9116260809797865]]],[[[79.86413829159007,6.911670435554096],[79.86411063940949,6.911671830664342],[79.86411087208454,6.911676436263267],[79.86413852426318,6.911675041148594],[79.86413829159007,6.911670435554096]]],[[[79.86413765433512,6.911652673528514],[79.86411027325339,6.9116540549702865],[79.86411049232422,6.911658389673561],[79.86413787332422,6.911657008209287],[79.86413765433512,6.911652673528514]]]]}},{"type":"Feature","properties":{"Type":null,"ImageName":null,"MCode":null,"SCode":null,"ID":null},"geometry":{"type":"MultiPolygon","coordinates":[[[[79.86414141219923,6.911782115210657],[79.86411453924873,6.911782063763599],[79.86411452989294,6.911786946479197],[79.86414140283843,6.91178699792472],[79.86414141219923,6.911782115210657]]],[[[79.86414088704007,6.911772891281611],[79.86411401402147,6.911772839814682],[79.8641140056522,6.911777179990263],[79.86414087867269,6.911777231457721],[79.86414088704007,6.911772891281611]]],[[[79.86414063409518,6.911763260976369],[79.86411376107831,6.911763209509692],[79.8641137522607,6.911767820968512],[79.86414062524523,6.911767872425537],[79.86414063409518,6.911763260976369]]],[[[79.86414152946006,6.911791745266355],[79.8641149278826,6.911791694318385],[79.86411491800088,6.911796848295481],[79.8641415195789,6.911796899243562],[79.86414152946006,6.911791745266355]]],[[[79.86414205284699,6.91180191862643],[79.86411490842684,6.9118018666526835],[79.86411489901798,6.911806749351978],[79.86414204354634,6.911806801357827],[79.86414205284699,6.91180191862643]]],[[[79.86414284793771,6.911811956874288],[79.8641151605801,6.911811903846632],[79.86411515121726,6.911816786559598],[79.86414283857572,6.911816839587459],[79.86414284793771,6.911811956874288]]],[[[79.86414214369535,6.911754583458951],[79.86411282758179,6.911754527285247],[79.86411281978229,6.911758596214282],[79.86414213580544,6.911758652361084],[79.86414214369535,6.911754583458951]]],[[[79.86414350808545,6.911821587970603],[79.8641152285555,6.91181992794703],[79.86411521971377,6.9118245394008495],[79.8641434992438,6.911826199424401],[79.86414350808545,6.911821587970603]]]]}},{"type":"Feature","properties":{"Type":null,"ImageName":null,"MCode":null,"SCode":null,"ID":null},"geometry":{"type":"MultiPolygon","coordinates":[[[[79.86454419741611,6.911289320999208],[79.8645332042727,6.911264518859247],[79.86452824050552,6.9112667160080905],[79.86453923364867,6.9112915181481345],[79.86454419741611,6.911289320999208]]],[[[79.86453510785302,6.9112934277082125],[79.86452411471106,6.911268625567863],[79.86451939913134,6.911270712858293],[79.86453039227166,6.911295514998935],[79.86453510785302,6.9112934277082125]]],[[[79.864525870417,6.911297750228375],[79.86451487727805,6.911272948088436],[79.86451016169416,6.9112750353788135],[79.86452115483164,6.911299837519106],[79.864525870417,6.911297750228375]]],[[[79.86456238511907,6.91128179217238],[79.86455117211743,6.911256493990833],[79.8645464565399,6.911258581281515],[79.86455766953763,6.911283879463323],[79.86456238511907,6.91128179217238]]],[[[79.86451690494209,6.9113018020078485],[79.86450591180622,6.9112769998667325],[79.86450119622619,6.911279087156958],[79.8645121893638,6.911303889298689],[79.86451690494209,6.9113018020078485]]],[[[79.8645078649649,6.911305936284885],[79.86449730664835,6.911280946194862],[79.86449230526483,6.911283056436401],[79.86450286358023,6.911308046526601],[79.8645078649649,6.911305936284885]]],[[[79.86455276682864,6.91128559489151],[79.86454177368684,6.9112607927507606],[79.86453705810663,6.911262880041835],[79.86454805124686,6.911287682182263],[79.86455276682864,6.91128559489151]]],[[[79.86458108397595,6.911273589214955],[79.86456908812279,6.911247752248213],[79.86456416347953,6.911250035634735],[79.86457615933136,6.911275872599634],[79.86458108397595,6.911273589214955]]],[[[79.86457122648987,6.911277795320882],[79.86456001349296,6.91125249713988],[79.86455554610978,6.911254474572617],[79.86456675910577,6.91127977275456],[79.86457122648987,6.911277795320882]]],[[[79.86458989172341,6.911270054243551],[79.86457766738307,6.911243725142364],[79.86457274274072,6.911246008529239],[79.86458496707887,6.911272337628867],[79.86458989172341,6.911270054243551]]],[[[79.86459890013892,6.911265510849004],[79.86458713279563,6.911240166016708],[79.86458220815227,6.911242449403374],[79.86459397550402,6.91126779423364],[79.86459890013892,6.911265510849004]]],[[[79.86449769750314,6.9113097358708036],[79.86448705043836,6.911281858463796],[79.86448400722176,6.911283019181256],[79.86449465428555,6.911310896586828],[79.86449769750314,6.9113097358708036]]]]}},{"type":"Feature","properties":{"Type":null,"ImageName":null,"MCode":null,"SCode":null,"ID":null},"geometry":{"type":"MultiPolygon","coordinates":[[[[79.86492096188196,6.907928975413741],[79.86493651005009,6.907908580090541],[79.86493346525049,6.907906383581984],[79.86491791708235,6.907926778905082],[79.86492096188196,6.907928975413741]]],[[[79.864913349883,6.907923484142065],[79.86492889805118,6.907903088819126],[79.86492585325166,6.907900892310533],[79.86491030508344,6.907921287633367],[79.864913349883,6.907923484142065]]],[[[79.86490573788419,6.907917992870289],[79.86492128605246,6.907897597547611],[79.86491824125302,6.907895401038976],[79.86490269308472,6.907915796361548],[79.86490573788419,6.907917992870289]]],[[[79.86489812588557,6.9079125015984095],[79.86491367405392,6.907892106275996],[79.86491062925457,6.9078899097673245],[79.86489508108616,6.90791030508963],[79.86489812588557,6.9079125015984095]]],[[[79.86489051388712,6.907907010326432],[79.86490606205558,6.907886615004284],[79.8649030172563,6.907884418495569],[79.8648874690878,6.907904813817614],[79.86489051388712,6.907907010326432]]],[[[79.86488290188889,6.907901519054355],[79.86489845005741,6.90788112373247],[79.86489540525818,6.907878927223717],[79.86487985708963,6.907899322545497],[79.86488290188889,6.907901519054355]]],[[[79.86487528989082,6.907896027782181],[79.86489083805942,6.907875632460556],[79.86488779326028,6.907873435951761],[79.86487224509163,6.90789383127328],[79.86487528989082,6.907896027782181]]],[[[79.86486767789293,6.907890536509904],[79.86488322606162,6.907870141188542],[79.86488018126255,6.907867944679707],[79.86486463309383,6.907888340000961],[79.86486767789293,6.907890536509904]]],[[[79.86486006589523,6.907885045237525],[79.864875614064,6.907864649916428],[79.86487256926502,6.907862453407557],[79.8648570210962,6.907882848728547],[79.86486006589523,6.907885045237525]]],[[[79.86485245389771,6.907879553965051],[79.86486800206657,6.907859158644216],[79.86486495726766,6.907856962135303],[79.86484940909877,6.907877357456033],[79.86485245389771,6.907879553965051]]],[[[79.86484484190038,6.907874062692475],[79.86486039006932,6.907853667371902],[79.86485734527047,6.90785147086295],[79.86484179710148,6.9078718661834175],[79.86484484190038,6.907874062692475]]],[[[79.86483722990322,6.9078685714197965],[79.86485277807225,6.907848176099488],[79.86484973327347,6.907845979590492],[79.86483418510441,6.9078663749107],[79.86483722990322,6.9078685714197965]]],[[[79.86482961790625,6.9078630801470196],[79.86484516607538,6.907842684826972],[79.86484212127665,6.90784048831794],[79.8648265731075,6.907860883637887],[79.86482961790625,6.9078630801470196]]],[[[79.86482200590947,6.907857588874147],[79.86483755407866,6.9078371935543625],[79.86483450928003,6.90783499704529],[79.8648189611108,6.907855392364967],[79.86482200590947,6.907857588874147]]],[[[79.86481439391287,6.907852097601172],[79.86482994208215,6.90783170228165],[79.86482689728359,6.907829505772535],[79.86481134911428,6.907849901091952],[79.86481439391287,6.907852097601172]]],[[[79.86480678191646,6.907846606328095],[79.86482233008581,6.907826211008836],[79.86481928528734,6.907824014499682],[79.86480373711794,6.907844409818835],[79.86480678191646,6.907846606328095]]],[[[79.86479916992022,6.907841115054918],[79.86481471808966,6.907820719735922],[79.86481167329124,6.90781852322673],[79.86479612512177,6.907838918545621],[79.86479916992022,6.907841115054918]]],[[[79.86479155792416,6.907835623781642],[79.86480710609369,6.907815228462909],[79.86480406129536,6.907813031953681],[79.8647885131258,6.907833427272305],[79.86479155792416,6.907835623781642]]]]}},{"type":"Feature","properties":{"Type":null,"ImageName":null,"MCode":null,"SCode":null,"ID":null},"geometry":{"type":"MultiPolygon","coordinates":[[[[79.86277299325405,6.903190647374385],[79.86275518564608,6.903212537574694],[79.86275939806116,6.903215959868933],[79.86277720566373,6.903194069668141],[79.86277299325405,6.903190647374385]]],[[[79.8627060945076,6.903132756390125],[79.86268773245611,6.903154540151146],[79.86269188446096,6.903158035399281],[79.86271024650937,6.9031362516368775],[79.8627060945076,6.903132756390125]]],[[[79.86276567686616,6.903184123051754],[79.86274786926245,6.903206013256097],[79.86275208167395,6.903209435540733],[79.86276988928206,6.903187545336269],[79.86276567686616,6.903184123051754]]],[[[79.86272067770925,6.903144930041565],[79.86270235643134,6.9031674516914965],[79.86270656883666,6.90317087399207],[79.86272489011571,6.903148352340169],[79.86272067770925,6.903144930041565]]],[[[79.8627350828973,6.903158159983473],[79.86271707058859,6.903179528811832],[79.86272143018682,6.903183198816464],[79.86273944249592,6.903161829985892],[79.8627350828973,6.903158159983473]]],[[[79.86275764637026,6.903177808162755],[79.86274018122492,6.9031992774079995],[79.86274439364017,6.903202699698157],[79.86276185878492,6.903181230456901],[79.86275764637026,6.903177808162755]]],[[[79.86272812539154,6.903151532448938],[79.8627099382157,6.903173108744838],[79.86271429782053,6.903176778744647],[79.86273248500241,6.903155202449096],[79.86272812539154,6.903151532448938]]],[[[79.86274312510658,6.903165332123118],[79.86272528768198,6.903186493486708],[79.86272964728256,6.90319016348698],[79.86274748470605,6.90316900212353],[79.86274312510658,6.903165332123118]]],[[[79.86271366647854,6.903138818868788],[79.8626951295543,6.903160810081121],[79.86269948915755,6.903164480083347],[79.8627180260832,6.903142488870268],[79.86271366647854,6.903138818868788]]],[[[79.86275031028538,6.9031710930434205],[79.86273267390752,6.903192772766799],[79.86273709694733,6.903196366165264],[79.86275473332351,6.903174686445538],[79.86275031028538,6.9031710930434205]]],[[[79.86278047628893,6.903196815391549],[79.86276266868194,6.903218705601055],[79.86276709173005,6.903222299021921],[79.86278489933113,6.9032004088117676],[79.86278047628893,6.903196815391549]]],[[[79.86269831545899,6.903126247904543],[79.86268012828559,6.9031478241977835],[79.86268448788687,6.903151494199521],[79.86270267505758,6.903129917905582],[79.86269831545899,6.903126247904543]]]]}},{"type":"Feature","properties":{"Type":null,"ImageName":null,"MCode":null,"SCode":null,"ID":null},"geometry":{"type":"MultiPolygon","coordinates":[[[[79.86079979762007,6.899359976859998],[79.8607887117962,6.8993337372272165],[79.86078371054016,6.899335847453596],[79.86079479636287,6.899362087082951],[79.86079979762007,6.899359976859998]]],[[[79.86082745436354,6.8993479695221565],[79.86081647411497,6.899321979786504],[79.8608114728547,6.899324090007578],[79.8608224531026,6.899350079741022],[79.86082745436354,6.8993479695221565]]],[[[79.86081844880798,6.899351946620933],[79.86080725740365,6.899325457088572],[79.86080200608318,6.899327672818222],[79.86081319748796,6.899354162350888],[79.86081844880798,6.899351946620933]]],[[[79.86080894068792,6.899355997317901],[79.86079774928452,6.899329507783787],[79.86079249796096,6.899331723517706],[79.86080368936558,6.8993582130477105],[79.86080894068792,6.899355997317901]]],[[[79.86079039560076,6.8993640061960475],[79.86077909861963,6.8993372667632435],[79.8607740973621,6.899339376986946],[79.86078539434342,6.899366116419415],[79.86079039560076,6.8993640061960475]]],[[[79.86078115891871,6.89936805741403],[79.86076986193663,6.89934131798126],[79.8607648606773,6.899343428204327],[79.86077615765896,6.8993701676367465],[79.86078115891871,6.89936805741403]]],[[[79.86083653320924,6.899343272189451],[79.86082586970235,6.899318032162138],[79.86082086843462,6.8993201423823365],[79.86083153194154,6.899345382411988],[79.86083653320924,6.899343272189451]]],[[[79.86084557210235,6.899339722697103],[79.86083480302214,6.899314232771299],[79.86083030188468,6.899316131967257],[79.860841070964,6.899341621892929],[79.86084557210235,6.899339722697103]]]]}},{"type":"Feature","properties":{"Type":null,"ImageName":null,"MCode":null,"SCode":null,"ID":null},"geometry":{"type":"MultiPolygon","coordinates":[[[[79.86086342866152,6.899302433490477],[79.86085965236752,6.899304008104259],[79.8608702196292,6.899328733262804],[79.86087399592338,6.899327158648962],[79.86086342866152,6.899302433490477]]],[[[79.86085398792649,6.899306370024865],[79.86085021163242,6.89930794463856],[79.86086077889365,6.899332669797255],[79.86086455518789,6.899331095183498],[79.86085398792649,6.899306370024865]]],[[[79.8608445471913,6.899310306559042],[79.8608407708972,6.899311881172653],[79.86085133815796,6.899336606331504],[79.86085511445225,6.899335031717827],[79.8608445471913,6.899310306559042]]]]}},{"type":"Feature","properties":{"Type":null,"ImageName":null,"MCode":null,"SCode":null,"ID":null},"geometry":{"type":"MultiPolygon","coordinates":[[[[79.86180339866976,6.901712393888086],[79.86181011201438,6.901729597274719],[79.86181360788895,6.901728009184581],[79.86180689454423,6.9017108057979835],[79.86180339866976,6.901712393888086]]],[[[79.86181213835586,6.901708423662773],[79.86181885170076,6.901725627049318],[79.86182234757526,6.901724038959106],[79.86181563423025,6.901706835572596],[79.86181213835586,6.901708423662773]]],[[[79.86182087804181,6.901704453437277],[79.861827591387,6.901721656823738],[79.86183108726146,6.901720068733453],[79.86182437391615,6.90170286534703],[79.86182087804181,6.901704453437277]]],[[[79.86182961772764,6.9017004832116],[79.86183633107312,6.901717686597977],[79.86183982694754,6.9017160985076185],[79.86183311360192,6.901698895121281],[79.86182961772764,6.9017004832116]]],[[[79.86183835741333,6.901696512985744],[79.86184507075912,6.90171371637203],[79.86184856663347,6.901712128281603],[79.86184185328756,6.9016949248953505],[79.86183835741333,6.901696512985744]]],[[[79.86184709709889,6.901692542759708],[79.86185381044497,6.901709746145911],[79.86185730631927,6.901708158055412],[79.86185059297308,6.901690954669244],[79.86184709709889,6.901692542759708]]],[[[79.86185583678433,6.901688572533496],[79.8618625501307,6.90170577591961],[79.86186604600496,6.90170418782904],[79.86185933265847,6.901686984442958],[79.86185583678433,6.901688572533496]]],[[[79.86186457646964,6.9016846023071],[79.8618712898163,6.901701805693127],[79.86187478569052,6.9017002176024835],[79.86186807234373,6.901683014216491],[79.86186457646964,6.9016846023071]]],[[[79.86187331615481,6.901680632080524],[79.86188002950178,6.901697835466467],[79.86188352537594,6.90169624737575],[79.86187681202885,6.9016790439898426],[79.86187331615481,6.901680632080524]]],[[[79.86188205583987,6.90167666185377],[79.86188876918712,6.901693865239627],[79.86189226506123,6.901692277148837],[79.86188555171384,6.901675073763016],[79.86188205583987,6.90167666185377]]]]}},{"type":"Feature","properties":{"Type":null,"ImageName":null,"MCode":null,"SCode":null,"ID":null},"geometry":{"type":"MultiPolygon","coordinates":[[[[79.86189574485815,6.901698667577149],[79.86189207972656,6.901700244272685],[79.86189780861149,6.901714823454527],[79.86190147374316,6.901713246758959],[79.86189574485815,6.901698667577149]]],[[[79.86188658202916,6.9017026093159295],[79.86188291689754,6.901704186011387],[79.8618886457822,6.901718765193305],[79.86189231091393,6.901717188497814],[79.86188658202916,6.9017026093159295]]],[[[79.86187741920007,6.901706551054515],[79.8618737540684,6.901708127749892],[79.8618794829528,6.901722706931888],[79.86188314808456,6.901721130236479],[79.86187741920007,6.901706551054515]]],[[[79.86186825637084,6.901710492792901],[79.86186459123911,6.901712069488203],[79.86187032012323,6.901726648670274],[79.86187398525507,6.901725071974944],[79.86186825637084,6.901710492792901]]],[[[79.86185909354147,6.901714434531095],[79.86185542840967,6.901716011226316],[79.86186115729356,6.901730590408463],[79.86186482242543,6.9017290137132115],[79.86185909354147,6.901714434531095]]],[[[79.86184993071197,6.901718376269087],[79.86184626558013,6.901719952964229],[79.86185199446373,6.901734532146457],[79.86185565959568,6.901732955451284],[79.86184993071197,6.901718376269087]]],[[[79.86184076788234,6.901722318006887],[79.86183710275044,6.90172389470195],[79.8618428316338,6.901738473884253],[79.86184649676579,6.901736897189157],[79.86184076788234,6.901722318006887]]],[[[79.86183160505257,6.9017262597444855],[79.86182793992063,6.901727836439473],[79.86183366880371,6.901742415621857],[79.86183733393575,6.901740838926837],[79.86183160505257,6.9017262597444855]]],[[[79.86182244222266,6.901730201481893],[79.86181877709068,6.901731778176799],[79.8618245059735,6.901746357359257],[79.8618281711056,6.9017447806643215],[79.86182244222266,6.901730201481893]]],[[[79.86181327939265,6.901734143219102],[79.86180961426058,6.901735719913931],[79.86181534314315,6.901750299096465],[79.8618190082753,6.901748722401606],[79.86181327939265,6.901734143219102]]]]}},{"type":"Feature","properties":{"Type":null,"ImageName":null,"MCode":null,"SCode":null,"ID":null},"geometry":{"type":"MultiPolygon","coordinates":[[[[79.86044500971028,6.898298768753642],[79.86043163351269,6.89827454340751],[79.86042688037591,6.898277164500389],[79.86044025657108,6.89830138984661],[79.86044500971028,6.898298768753642]]],[[[79.86045355194192,6.898294107930304],[79.86044017574415,6.898269882584419],[79.86043518495451,6.898272634729568],[79.86044856115205,6.898296860076102],[79.86045355194192,6.898294107930304]]],[[[79.86046226013625,6.898289273659913],[79.86044862166708,6.898264573307221],[79.86044386852859,6.898267194400383],[79.86045750699732,6.898291894752979],[79.86046226013625,6.898289273659913]]],[[[79.86042773780414,6.898308435301557],[79.86041436161275,6.898284209955589],[79.86040937081921,6.898286962100576],[79.86042274700958,6.898311187446462],[79.86042773780414,6.898308435301557]]],[[[79.8604363675974,6.898303450511472],[79.86042312254746,6.898279462668239],[79.8604181317562,6.898282214817067],[79.86043137680555,6.898306202660299],[79.8604363675974,6.898303450511472]]],[[[79.86041904244021,6.898313301338575],[79.860405666248,6.8982890759922615],[79.86040067545478,6.898291828137281],[79.86041405164683,6.898316053485592],[79.86041904244021,6.898313301338575]]]]}},{"type":"Feature","properties":{"Type":null,"ImageName":null,"MCode":null,"SCode":null,"ID":null},"geometry":{"type":"MultiPolygon","coordinates":[[[[79.86047987676392,6.898279133101728],[79.86046636942741,6.898254670257212],[79.86046327989004,6.898256373965865],[79.86047678722572,6.8982808368110415],[79.86047987676392,6.898279133101728]]],[[[79.86048758217306,6.898275184694603],[79.86047381255798,6.898250246834516],[79.8604702477081,6.898252212656823],[79.86048401732295,6.898277150517076],[79.86048758217306,6.898275184694603]]]]}},{"type":"Feature","properties":{"Type":null,"ImageName":null,"MCode":null,"SCode":null,"ID":null},"geometry":{"type":"MultiPolygon","coordinates":[[[[79.86034568146873,6.898358096267075],[79.8603313280725,6.898334119410531],[79.86032643643406,6.898337043943785],[79.8603407898299,6.898361020799893],[79.86034568146873,6.898358096267075]]],[[[79.86033746710068,6.898363040743128],[79.8603226956464,6.898338365530085],[79.86031780400971,6.898341290064192],[79.86033257546384,6.898365965276381],[79.86033746710068,6.898363040743128]]],[[[79.86035410538756,6.898353229707575],[79.86033975199152,6.898329252851016],[79.86033486035272,6.898332177383998],[79.86034921375001,6.898356154240527],[79.86035410538756,6.898353229707575]]],[[[79.86032828566678,6.898367886671323],[79.86031365913118,6.898344394121411],[79.86030904977885,6.898347260220992],[79.86032367631546,6.898370752767824],[79.86032828566678,6.898367886671323]]],[[[79.86036300197553,6.898348519057048],[79.86034878793924,6.898324774984536],[79.86034389630525,6.898327699521768],[79.86035811033845,6.898351443594534],[79.86036300197553,6.898348519057048]]],[[[79.86032001847248,6.898372554137248],[79.86030539193781,6.898349061590221],[79.86030101305195,6.898351784387738],[79.86031563958828,6.898375276939419],[79.86032001847248,6.898372554137248]]],[[[79.86037181379888,6.8983435833857],[79.8603575997598,6.898319839316917],[79.86035247519065,6.898322903115728],[79.86036668923101,6.898346647184266],[79.86037181379888,6.8983435833857]]]]}},{"type":"Feature","properties":{"Type":null,"ImageName":null,"MCode":null,"SCode":null,"ID":null},"geometry":{"type":"MultiPolygon","coordinates":[[[[79.8624928560815,6.904201801591132],[79.86249661636928,6.904201359541819],[79.86249383555,6.90418326973054],[79.86249007526237,6.9041837117798535],[79.8624928560815,6.904201801591132]]],[[[79.86250225680094,6.9042006964677896],[79.86250601708869,6.904200254418402],[79.86250323626905,6.904182164607131],[79.86249947598144,6.904182606656519],[79.86250225680094,6.9042006964677896]]],[[[79.86251165752032,6.904199591344257],[79.86251541780808,6.90419914929479],[79.86251263698809,6.9041810594835304],[79.86250887670047,6.904181501532995],[79.86251165752032,6.904199591344257]]],[[[79.8625210582397,6.904198486220538],[79.86252481852743,6.904198044170991],[79.86252203770707,6.90417995435974],[79.86251827741948,6.904180396409276],[79.8625210582397,6.904198486220538]]],[[[79.86253045895906,6.904197381096623],[79.8625342192468,6.9041969390470035],[79.86253143842607,6.904178849235756],[79.86252767813848,6.904179291285374],[79.86253045895906,6.904197381096623]]],[[[79.8625398596784,6.904196275972515],[79.86254361996612,6.904195833922819],[79.86254083914503,6.904177744111583],[79.86253707885744,6.904178186161276],[79.8625398596784,6.904196275972515]]],[[[79.86254926039773,6.90419517084822],[79.86255302068544,6.904194728798448],[79.86255023986398,6.904176638987219],[79.8625464795764,6.904177081036986],[79.86254926039773,6.90419517084822]]],[[[79.862558661117,6.904194065723732],[79.86256242140473,6.9041936236738835],[79.86255964058292,6.904175533862662],[79.86255588029533,6.904175975912509],[79.862558661117,6.904194065723732]]],[[[79.86256806183628,6.904192960599052],[79.86257182212401,6.904192518549127],[79.86256904130182,6.904174428737914],[79.86256528101426,6.904174870787838],[79.86256806183628,6.904192960599052]]],[[[79.86257746255555,6.904191855474182],[79.86258122284325,6.904191413424182],[79.8625784420207,6.904173323612976],[79.86257468173315,6.904173765662977],[79.86257746255555,6.904191855474182]]],[[[79.8625868632748,6.904190750349121],[79.86259062356248,6.904190308299047],[79.86258784273957,6.9041722184878465],[79.86258408245203,6.904172660537923],[79.8625868632748,6.904190750349121]]]]}},{"type":"Feature","properties":{"Type":null,"ImageName":null,"MCode":null,"SCode":null,"ID":null},"geometry":{"type":"MultiPolygon","coordinates":[[[[79.86057110491674,6.907011042194012],[79.86054460041409,6.907013308193258],[79.86054497061801,6.907017632583278],[79.86057147512324,6.907015366584098],[79.86057110491674,6.907011042194012]]],[[[79.86057135966425,6.90701972308951],[79.86054485515824,6.907021989086335],[79.8605452253655,6.907026313478231],[79.86057172986962,6.907024047477108],[79.86057135966425,6.90701972308951]]],[[[79.86057029571434,6.907002225113466],[79.86054379121319,6.90700449111583],[79.8605441845566,6.907009085786203],[79.8605706890601,6.907006819786639],[79.86057029571434,6.907002225113466]]],[[[79.8605672812385,6.906950226420446],[79.86054087201518,6.906953415418845],[79.8605414255706,6.90695799357322],[79.86056783479152,6.9069548045761815],[79.8605672812385,6.906950226420446]]],[[[79.86056764826883,6.906941607937881],[79.86054064735417,6.9069443915174045],[79.86054109301125,6.90694870879894],[79.86056809392589,6.906945925219986],[79.86056764826883,6.906941607937881]]],[[[79.86056984406943,6.90699333095618],[79.86054365318,6.9069960310431435],[79.86054412670839,6.907000618152978],[79.86057031759657,6.906997918066641],[79.86056984406943,6.90699333095618]]],[[[79.86056960324669,6.906984784974114],[79.86054341235885,6.906987485060555],[79.86054385803352,6.906991802344428],[79.86057004891978,6.906989102258355],[79.86056960324669,6.906984784974114]]],[[[79.86056874185162,6.906976150326531],[79.86054260211647,6.906979306785956],[79.86054312311586,6.906983615634194],[79.86056926285444,6.906980459179391],[79.86056874185162,6.906976150326531]]],[[[79.86056780740724,6.90695890783149],[79.86054139818987,6.90696209683394],[79.86054195175147,6.906966674987986],[79.860568360972,6.9069634859864095],[79.86056780740724,6.90695890783149]]],[[[79.86056819885873,6.906967605517777],[79.86054205911826,6.906970761978601],[79.86054261268255,6.906975340135613],[79.86056875242502,6.906972183676389],[79.86056819885873,6.906967605517777]]],[[[79.86056677436706,6.9069337122043475],[79.86053999940962,6.906936001327831],[79.86054036960422,6.9069403257172395],[79.86056714456325,6.90693803658986],[79.86056677436706,6.9069337122043475]]]]}},{"type":"Feature","properties":{"Type":null,"ImageName":null,"MCode":null,"SCode":null,"ID":null},"geometry":{"type":"MultiPolygon","coordinates":[[[[79.85979794178714,6.906819074498611],[79.85979495081551,6.906821197669397],[79.8598059577583,6.90683582975761],[79.85980894872996,6.906833706586763],[79.85979794178714,6.906819074498611]]],[[[79.85979046435803,6.9068243824255235],[79.85978747338632,6.906826505596251],[79.85979848032896,6.9068411376846175],[79.8598014713007,6.906839014513832],[79.85979046435803,6.9068243824255235]]],[[[79.85978298692874,6.906829690352299],[79.85977999595698,6.906831813522965],[79.85979100289946,6.90684644561149],[79.85979399387126,6.906844322440756],[79.85978298692874,6.906829690352299]]],[[[79.85977550949931,6.906834998278928],[79.85977251852748,6.9068371214495405],[79.85978352546981,6.90685175353822],[79.85978651644167,6.906849630367544],[79.85977550949931,6.906834998278928]]],[[[79.85976803206971,6.906840306205418],[79.85976504109783,6.906842429375977],[79.85977604804,6.906857061464808],[79.85977903901194,6.906854938294188],[79.85976803206971,6.906840306205418]]],[[[79.85976055463995,6.906845614131768],[79.85975756366801,6.906847737302268],[79.85976857061004,6.906862369391258],[79.85977156158204,6.906860246220692],[79.85976055463995,6.906845614131768]]],[[[79.85975307721004,6.906850922057978],[79.85975008623802,6.9068530452284245],[79.8597610931799,6.906867677317565],[79.85976408415199,6.90686555414706],[79.85975307721004,6.906850922057978]]],[[[79.85974559977996,6.906856229984048],[79.85974260880789,6.906858353154436],[79.85975361574963,6.9068729852437345],[79.85975660672175,6.906870862073284],[79.85974559977996,6.906856229984048]]],[[[79.85973812234973,6.906861537909976],[79.85973513137759,6.906863661080308],[79.85974613831917,6.906878293169764],[79.85974912929137,6.906876169999371],[79.85973812234973,6.906861537909976]]],[[[79.85973064491934,6.906866845835762],[79.85972765394715,6.906868969006044],[79.85973866088857,6.906883601095654],[79.85974165186082,6.906881477925315],[79.85973064491934,6.906866845835762]]],[[[79.8597231674888,6.906872153761411],[79.85972017651653,6.906874276931633],[79.8597311834578,6.906888909021395],[79.85973417443013,6.9068867858511185],[79.8597231674888,6.906872153761411]]],[[[79.8597156900581,6.906877461686925],[79.85971269908575,6.906879584857085],[79.85972370602687,6.906894216947005],[79.85972669699926,6.906892093776779],[79.8597156900581,6.906877461686925]]],[[[79.85970821262723,6.906882769612288],[79.85970522165482,6.906884892782397],[79.8597162285958,6.906899524872472],[79.85971921956823,6.906897401702302],[79.85970821262723,6.906882769612288]]]]}},{"type":"Feature","properties":{"Type":null,"ImageName":null,"MCode":null,"SCode":null,"ID":null},"geometry":{"type":"MultiPolygon","coordinates":[[[[79.85972657945572,6.906918375290917],[79.8597295593455,6.906916223584187],[79.85971910327815,6.906901349284993],[79.85971612338844,6.9069035009916595],[79.85972657945572,6.906918375290917]]],[[[79.85973402918013,6.906912996024056],[79.85973700906985,6.906910844317271],[79.85972655300235,6.906895970018217],[79.85972357311267,6.9068981217249465],[79.85973402918013,6.906912996024056]]],[[[79.85974147890438,6.906907616757054],[79.85974445879403,6.906905465050214],[79.85973400272636,6.906890590751304],[79.85973102283677,6.906892742458085],[79.85974147890438,6.906907616757054]]],[[[79.85974892862846,6.90690223748991],[79.85975190851805,6.906900085783012],[79.85974145245021,6.906885211484249],[79.8597384725607,6.906887363191088],[79.85974892862846,6.90690223748991]]],[[[79.8597563783524,6.906896858222627],[79.85975935824192,6.906894706515674],[79.85974890217393,6.906879832217055],[79.85974592228446,6.906881983923951],[79.8597563783524,6.906896858222627]]],[[[79.85976382807615,6.906891478955203],[79.8597668079656,6.906889327248194],[79.85975635189746,6.906874452949727],[79.85975337200807,6.906876604656676],[79.85976382807615,6.906891478955203]]],[[[79.85977127779975,6.906886099687645],[79.85977425768914,6.906883947980579],[79.85976380162084,6.906869073682253],[79.85976082173151,6.906871225389256],[79.85977127779975,6.906886099687645]]],[[[79.8597787275232,6.906880720419942],[79.85978170741252,6.906878568712819],[79.85977125134406,6.906863694414638],[79.85976827145478,6.9068658461217],[79.8597787275232,6.906880720419942]]],[[[79.85978617724648,6.9068753411521],[79.85978915713574,6.906873189444924],[79.85977870106711,6.906858315146887],[79.85977572117791,6.906860466854004],[79.85978617724648,6.9068753411521]]],[[[79.85979362696959,6.906869961884118],[79.85979660685878,6.9068678101768874],[79.85978615079001,6.9068529358789945],[79.85978317090087,6.906855087586167],[79.85979362696959,6.906869961884118]]],[[[79.85980107669256,6.906864582615998],[79.85980405658168,6.906862430908708],[79.85979360051276,6.9068475566109635],[79.85979062062367,6.906849708318194],[79.85980107669256,6.906864582615998]]],[[[79.85980852641535,6.906859203347736],[79.85981150630442,6.906857051640392],[79.85980105023533,6.90684217734279],[79.85979807034633,6.906844329050076],[79.85980852641535,6.906859203347736]]],[[[79.85981597613798,6.906853824079335],[79.85981895602698,6.9068516723719355],[79.85980849995774,6.906836798074477],[79.85980552006879,6.90683894978182],[79.85981597613798,6.906853824079335]]]]}}]}