{
"type": "FeatureCollection",
"name": "extractedTrees",
"crs": { "type": "name", "properties": { "name": "urn:ogc:def:crs:OGC:1.3:CRS84" } },
"features": [
{ "type": "Feature", "properties": { "extractedTreeId": "912", "height": 9.0508492389822841, "dbh": 0.92487424612045299, "elevation": 7.532962142468012 }, "geometry": { "type": "Point", "coordinates": [ 79.86460313579866, 6.908374650299158 ] } },
{ "type": "Feature", "properties": { "extractedTreeId": "913", "height": 9.2033487213937768, "dbh": 0.0, "elevation": 7.6644621031107203 }, "geometry": { "type": "Point", "coordinates": [ 79.864745447268049, 6.908286665629561 ] } },
{ "type": "Feature", "properties": { "extractedTreeId": "914", "height": 20.053563935550432, "dbh": 1.0022730827331541, "elevation": 7.5404067511519983 }, "geometry": { "type": "Point", "coordinates": [ 79.864405744446444, 6.908407290127382 ] } },
{ "type": "Feature", "properties": { "extractedTreeId": "915", "height": 8.8769998578300306, "dbh": 0.43688449263572698, "elevation": 7.4892617548907596 }, "geometry": { "type": "Point", "coordinates": [ 79.864541316155766, 6.908458267405673 ] } },
{ "type": "Feature", "properties": { "extractedTreeId": "916", "height": 12.109499740198384, "dbh": 0.53998857736587502, "elevation": 7.3999617931767023 }, "geometry": { "type": "Point", "coordinates": [ 79.864444738700442, 6.908590068978987 ] } },
{ "type": "Feature", "properties": { "extractedTreeId": "917", "height": 13.126199787870046, "dbh": 0.83364892005920399, "elevation": 7.4394617729708603 }, "geometry": { "type": "Point", "coordinates": [ 79.864397933865988, 6.908654570913259 ] } },
{ "type": "Feature", "properties": { "extractedTreeId": "918", "height": 14.396345246037061, "dbh": 0.69893074035644498, "elevation": 7.3915617886267961 }, "geometry": { "type": "Point", "coordinates": [ 79.864191015661049, 6.908708642397333 ] } },
{ "type": "Feature", "properties": { "extractedTreeId": "919", "height": 14.6604004719246, "dbh": 0.251212477684021, "elevation": 7.3833618655886681 }, "geometry": { "type": "Point", "coordinates": [ 79.864303524253287, 6.908778018224734 ] } },
{ "type": "Feature", "properties": { "extractedTreeId": "920", "height": 14.081400147859139, "dbh": 0.66361993551254295, "elevation": 7.5828618005550084 }, "geometry": { "type": "Point", "coordinates": [ 79.864256399739759, 6.908853765327528 ] } },
{ "type": "Feature", "properties": { "extractedTreeId": "921", "height": 11.95387981554147, "dbh": 0.48546850681304898, "elevation": 7.3976820274559003 }, "geometry": { "type": "Point", "coordinates": [ 79.864060223853869, 6.908885192681391 ] } },
{ "type": "Feature", "properties": { "extractedTreeId": "922", "height": 15.57034495315683, "dbh": 0.78455024957656905, "elevation": 7.5118820512728677 }, "geometry": { "type": "Point", "coordinates": [ 79.864184294998722, 6.908953035701575 ] } },
{ "type": "Feature", "properties": { "extractedTreeId": "923", "height": 12.318863997297171, "dbh": 0.52891618013382002, "elevation": 7.3944978001116803 }, "geometry": { "type": "Point", "coordinates": [ 79.863982227946252, 6.908998044541126 ] } },
{ "type": "Feature", "properties": { "extractedTreeId": "924", "height": 10.933879754451706, "dbh": 0.38633662462234503, "elevation": 7.2494821077502856 }, "geometry": { "type": "Point", "coordinates": [ 79.863914908116882, 6.909325871742292 ] } },
{ "type": "Feature", "properties": { "extractedTreeId": "925", "height": 10.987923377962819, "dbh": 0.51563167572021495, "elevation": 7.332638883411474 }, "geometry": { "type": "Point", "coordinates": [ 79.86376651999565, 6.909294648478492 ] } },
{ "type": "Feature", "properties": { "extractedTreeId": "926", "height": 12.960123355606145, "dbh": 0.82449114322662398, "elevation": 7.3029388413951324 }, "geometry": { "type": "Point", "coordinates": [ 79.863688778770893, 6.909405220625278 ] } },
{ "type": "Feature", "properties": { "extractedTreeId": "927", "height": 13.880144462265658, "dbh": 0.80227023363113403, "elevation": 7.3780621688389916 }, "geometry": { "type": "Point", "coordinates": [ 79.863796758308169, 6.909495875716196 ] } },
{ "type": "Feature", "properties": { "extractedTreeId": "928", "height": 15.194999974870443, "dbh": 0.95997059345245395, "elevation": 6.8346710543307081 }, "geometry": { "type": "Point", "coordinates": [ 79.863629693936844, 6.90753785519743 ] } },
{ "type": "Feature", "properties": { "extractedTreeId": "929", "height": 16.742100317116822, "dbh": 0.97430437803268399, "elevation": 6.8748710126824717 }, "geometry": { "type": "Point", "coordinates": [ 79.863645681187364, 6.907547432469356 ] } },
{ "type": "Feature", "properties": { "extractedTreeId": "930", "height": 13.780435317197886, "dbh": 1.2899971008300779, "elevation": 6.9534269198890062 }, "geometry": { "type": "Point", "coordinates": [ 79.863702814991143, 6.907572599526136 ] } },
{ "type": "Feature", "properties": { "extractedTreeId": "931", "height": 14.950300028081797, "dbh": 1.197533845901489, "elevation": 6.9423709171960137 }, "geometry": { "type": "Point", "coordinates": [ 79.8636984944755, 6.907567693449479 ] } },
{ "type": "Feature", "properties": { "extractedTreeId": "932", "height": 15.611899837875287, "dbh": 0.89639663696289096, "elevation": 6.9743269393117044 }, "geometry": { "type": "Point", "coordinates": [ 79.863754954019996, 6.907597206459208 ] } },
{ "type": "Feature", "properties": { "extractedTreeId": "933", "height": 16.547444895641966, "dbh": 0.76291912794113204, "elevation": 6.9608269952680022 }, "geometry": { "type": "Point", "coordinates": [ 79.863781111740394, 6.907452525918556 ] } },
{ "type": "Feature", "properties": { "extractedTreeId": "934", "height": 15.337143798385272, "dbh": 0.52929639816284202, "elevation": 6.9953269941779856 }, "geometry": { "type": "Point", "coordinates": [ 79.863818662988081, 6.907460090349918 ] } },
{ "type": "Feature", "properties": { "extractedTreeId": "935", "height": 13.717442535931008, "dbh": 0.92608022689819303, "elevation": 7.0446288890747857 }, "geometry": { "type": "Point", "coordinates": [ 79.863878515464521, 6.907495242220441 ] } },
{ "type": "Feature", "properties": { "extractedTreeId": "936", "height": 14.557597877248979, "dbh": 0.482781052589417, "elevation": 7.0689290126281339 }, "geometry": { "type": "Point", "coordinates": [ 79.863927721212988, 6.907510185151536 ] } },
{ "type": "Feature", "properties": { "extractedTreeId": "937", "height": 12.091098170682301, "dbh": 1.1636372804641719, "elevation": 7.2499288094868177 }, "geometry": { "type": "Point", "coordinates": [ 79.864007877272357, 6.907596172216746 ] } },
{ "type": "Feature", "properties": { "extractedTreeId": "938", "height": 12.573142528962562, "dbh": 1.4496357440948491, "elevation": 7.2475288492520944 }, "geometry": { "type": "Point", "coordinates": [ 79.864050408565532, 6.907587417189791 ] } },
{ "type": "Feature", "properties": { "extractedTreeId": "939", "height": 16.690198156795709, "dbh": 0.0, "elevation": 7.3101290107913659 }, "geometry": { "type": "Point", "coordinates": [ 79.864066005219954, 6.907560615545701 ] } },
{ "type": "Feature", "properties": { "extractedTreeId": "940", "height": 16.907898179164413, "dbh": 1.134871363639832, "elevation": 7.464629000629694 }, "geometry": { "type": "Point", "coordinates": [ 79.864083036647955, 6.907498347351297 ] } },
{ "type": "Feature", "properties": { "extractedTreeId": "941", "height": 14.115435510097383, "dbh": 0.41246384382247903, "elevation": 7.4369269892157659 }, "geometry": { "type": "Point", "coordinates": [ 79.863935236825597, 6.907689488349676 ] } },
{ "type": "Feature", "properties": { "extractedTreeId": "942", "height": 8.5365910552302644, "dbh": 0.382630795240402, "elevation": 7.287870939016968 }, "geometry": { "type": "Point", "coordinates": [ 79.864020494165743, 6.907725339701137 ] } },
{ "type": "Feature", "properties": { "extractedTreeId": "943", "height": 12.341375679010616, "dbh": 1.2903028726577761, "elevation": 7.6378109542096997 }, "geometry": { "type": "Point", "coordinates": [ 79.8642668577763, 6.90785729924592 ] } },
{ "type": "Feature", "properties": { "extractedTreeId": "944", "height": 16.917402108449593, "dbh": 0.49758318066597002, "elevation": 7.5138688702962302 }, "geometry": { "type": "Point", "coordinates": [ 79.864501670768703, 6.908161014200402 ] } },
{ "type": "Feature", "properties": { "extractedTreeId": "945", "height": 10.51945529140969, "dbh": 0.0, "elevation": 7.4645067893640258 }, "geometry": { "type": "Point", "coordinates": [ 79.864521549242127, 6.90817062980703 ] } },
{ "type": "Feature", "properties": { "extractedTreeId": "946", "height": 14.591064574624683, "dbh": 0.63588303327560403, "elevation": 7.2503976911722763 }, "geometry": { "type": "Point", "coordinates": [ 79.864271056458549, 6.908596347079252 ] } },
{ "type": "Feature", "properties": { "extractedTreeId": "947", "height": 15.153089082748812, "dbh": 0.72878730297088601, "elevation": 7.3907820943493423 }, "geometry": { "type": "Point", "coordinates": [ 79.864103839403583, 6.909071405581705 ] } },
{ "type": "Feature", "properties": { "extractedTreeId": "948", "height": 11.7550995591938, "dbh": 0.0, "elevation": 7.4041388401985664 }, "geometry": { "type": "Point", "coordinates": [ 79.8635746493743, 6.91010070889794 ] } },
{ "type": "Feature", "properties": { "extractedTreeId": "949", "height": 22.423661423762212, "dbh": 0.86814135313034102, "elevation": 7.3625864646746981 }, "geometry": { "type": "Point", "coordinates": [ 79.863203660860023, 6.909808610150319 ] } },
{ "type": "Feature", "properties": { "extractedTreeId": "950", "height": 15.842561758128557, "dbh": 0.87936198711395297, "elevation": 7.1469361119322441 }, "geometry": { "type": "Point", "coordinates": [ 79.863724613986875, 6.909591117747316 ] } },
{ "type": "Feature", "properties": { "extractedTreeId": "951", "height": 19.749599138513652, "dbh": 1.3735426664352419, "elevation": 7.0683470168034743 }, "geometry": { "type": "Point", "coordinates": [ 79.863096699891187, 6.909744017411676 ] } },
{ "type": "Feature", "properties": { "extractedTreeId": "952", "height": 14.189160271314609, "dbh": 0.74058651924133301, "elevation": 6.8862864925495462 }, "geometry": { "type": "Point", "coordinates": [ 79.863218971453676, 6.909662159021734 ] } },
{ "type": "Feature", "properties": { "extractedTreeId": "953", "height": 15.086939390785245, "dbh": 0.67887431383132901, "elevation": 7.1444470534645061 }, "geometry": { "type": "Point", "coordinates": [ 79.863048050339813, 6.909714266038241 ] } },
{ "type": "Feature", "properties": { "extractedTreeId": "954", "height": 12.113699625846801, "dbh": 0.41934427618980402, "elevation": 7.1014471138819477 }, "geometry": { "type": "Point", "coordinates": [ 79.862937370132514, 6.909663159918781 ] } },
{ "type": "Feature", "properties": { "extractedTreeId": "955", "height": 5.2094396044986624, "dbh": 0.584472715854645, "elevation": 7.2512471002949139 }, "geometry": { "type": "Point", "coordinates": [ 79.862849497541106, 6.909620783606911 ] } },
{ "type": "Feature", "properties": { "extractedTreeId": "956", "height": 8.9694608034856298, "dbh": 0.0, "elevation": 7.0856865595646523 }, "geometry": { "type": "Point", "coordinates": [ 79.862894198834908, 6.909503944022343 ] } },
{ "type": "Feature", "properties": { "extractedTreeId": "957", "height": 3.7124004224901568, "dbh": 1.151323676109314, "elevation": 6.9867467486808543 }, "geometry": { "type": "Point", "coordinates": [ 79.862995213860103, 6.909536778286186 ] } },
{ "type": "Feature", "properties": { "extractedTreeId": "958", "height": 12.306739081965338, "dbh": 0.31796395778656, "elevation": 7.0476475072429103 }, "geometry": { "type": "Point", "coordinates": [ 79.862812342954271, 6.909736573327034 ] } },
{ "type": "Feature", "properties": { "extractedTreeId": "959", "height": 11.855139486086328, "dbh": 0.0, "elevation": 6.9333472541839303 }, "geometry": { "type": "Point", "coordinates": [ 79.862893597165055, 6.909765609286225 ] } },
{ "type": "Feature", "properties": { "extractedTreeId": "960", "height": 16.886589876741411, "dbh": 0.71821749210357699, "elevation": 7.2687566969749877 }, "geometry": { "type": "Point", "coordinates": [ 79.863608495826284, 6.910160367073462 ] } },
{ "type": "Feature", "properties": { "extractedTreeId": "961", "height": 14.180205456136024, "dbh": 0.29648587107658397, "elevation": 7.2947412228660218 }, "geometry": { "type": "Point", "coordinates": [ 79.863500324267548, 6.910238824281437 ] } },
{ "type": "Feature", "properties": { "extractedTreeId": "962", "height": 15.722645069192829, "dbh": 0.0, "elevation": 7.5346412621418821 }, "geometry": { "type": "Point", "coordinates": [ 79.863774763953344, 6.91031868287906 ] } },
{ "type": "Feature", "properties": { "extractedTreeId": "963", "height": 13.733545732068727, "dbh": 0.68455213308334395, "elevation": 7.5494411684188183 }, "geometry": { "type": "Point", "coordinates": [ 79.863844306476096, 6.910400630853957 ] } },
{ "type": "Feature", "properties": { "extractedTreeId": "964", "height": 16.598864565676813, "dbh": 0.0, "elevation": 7.5748427062969776 }, "geometry": { "type": "Point", "coordinates": [ 79.863962927763225, 6.910529750125015 ] } },
{ "type": "Feature", "properties": { "extractedTreeId": "965", "height": 15.095264600787353, "dbh": 0.0, "elevation": 7.678742506391516 }, "geometry": { "type": "Point", "coordinates": [ 79.86392364388098, 6.910485663999251 ] } },
{ "type": "Feature", "properties": { "extractedTreeId": "966", "height": 16.292364204969402, "dbh": 0.0, "elevation": 7.54264277250976 }, "geometry": { "type": "Point", "coordinates": [ 79.863970514933811, 6.910537931616569 ] } },
{ "type": "Feature", "properties": { "extractedTreeId": "967", "height": 10.722635720366972, "dbh": 0.129287123680115, "elevation": 7.4642069492317864 }, "geometry": { "type": "Point", "coordinates": [ 79.864031229038204, 6.910615730789821 ] } },
{ "type": "Feature", "properties": { "extractedTreeId": "968", "height": 10.189656994044091, "dbh": 0.272012799978256, "elevation": 7.348141113635096 }, "geometry": { "type": "Point", "coordinates": [ 79.86382972601109, 6.910580342441702 ] } },
{ "type": "Feature", "properties": { "extractedTreeId": "969", "height": 9.0431995741262359, "dbh": 0.29948061704635598, "elevation": 7.37894220588512 }, "geometry": { "type": "Point", "coordinates": [ 79.863883291584003, 6.910639127356534 ] } },
{ "type": "Feature", "properties": { "extractedTreeId": "970", "height": 7.4472455795236518, "dbh": 0.266375422477722, "elevation": 7.331441084261928 }, "geometry": { "type": "Point", "coordinates": [ 79.863782155116411, 6.910527759885546 ] } },
{ "type": "Feature", "properties": { "extractedTreeId": "971", "height": 8.3009977084896622, "dbh": 0.247842833399773, "elevation": 7.1972410348706779 }, "geometry": { "type": "Point", "coordinates": [ 79.863728870558475, 6.910465829586074 ] } },
{ "type": "Feature", "properties": { "extractedTreeId": "972", "height": 14.48330617974351, "dbh": 0.30734422802925099, "elevation": 7.3040411105801644 }, "geometry": { "type": "Point", "coordinates": [ 79.863581662617847, 6.91030886919445 ] } },
{ "type": "Feature", "properties": { "extractedTreeId": "973", "height": 18.954336156730243, "dbh": 0.0, "elevation": 7.5910069935203719 }, "geometry": { "type": "Point", "coordinates": [ 79.86409193726162, 6.910696082879846 ] } },
{ "type": "Feature", "properties": { "extractedTreeId": "974", "height": 16.480000296233946, "dbh": 0.65275406837463401, "elevation": 7.534042260640506 }, "geometry": { "type": "Point", "coordinates": [ 79.864138692081156, 6.910748469960009 ] } },
{ "type": "Feature", "properties": { "extractedTreeId": "975", "height": 13.75770292926161, "dbh": 1.1282171010971069, "elevation": 7.2011390994680076 }, "geometry": { "type": "Point", "coordinates": [ 79.864171753507591, 6.910789491095792 ] } },
{ "type": "Feature", "properties": { "extractedTreeId": "976", "height": 10.250935502056828, "dbh": 0.28782185912132302, "elevation": 7.42640666400189 }, "geometry": { "type": "Point", "coordinates": [ 79.863945736047526, 6.910715358085252 ] } },
{ "type": "Feature", "properties": { "extractedTreeId": "977", "height": 10.108500192368416, "dbh": 0.25445505976676902, "elevation": 7.3190422452967479 }, "geometry": { "type": "Point", "coordinates": [ 79.863974474143646, 6.910764268527732 ] } },
{ "type": "Feature", "properties": { "extractedTreeId": "978", "height": 10.270935018000754, "dbh": 0.27135509252548201, "elevation": 7.3431070153064999 }, "geometry": { "type": "Point", "coordinates": [ 79.86401124458861, 6.910813958036027 ] } },
{ "type": "Feature", "properties": { "extractedTreeId": "979", "height": 17.086090480480379, "dbh": 0.80032753944396995, "elevation": 7.3237517132348984 }, "geometry": { "type": "Point", "coordinates": [ 79.864275029489193, 6.910936238874307 ] } },
{ "type": "Feature", "properties": { "extractedTreeId": "980", "height": 21.031200545752242, "dbh": 0.0, "elevation": 7.4744517159936903 }, "geometry": { "type": "Point", "coordinates": [ 79.864340205324396, 6.911044044284055 ] } },
{ "type": "Feature", "properties": { "extractedTreeId": "981", "height": 15.379890859472553, "dbh": 0.58203744888305697, "elevation": 7.1850516798542916 }, "geometry": { "type": "Point", "coordinates": [ 79.864330493089881, 6.910746452990692 ] } },
{ "type": "Feature", "properties": { "extractedTreeId": "982", "height": 13.814800480440651, "dbh": 0.99682295322418202, "elevation": 7.2933517431583059 }, "geometry": { "type": "Point", "coordinates": [ 79.864388538606462, 6.91113939364427 ] } },
{ "type": "Feature", "properties": { "extractedTreeId": "983", "height": 18.419854424353467, "dbh": 1.4896501302719121, "elevation": 7.0908980876366057 }, "geometry": { "type": "Point", "coordinates": [ 79.86442880060676, 6.911198416441549 ] } },
{ "type": "Feature", "properties": { "extractedTreeId": "984", "height": 12.793409076145808, "dbh": 0.75385993719100997, "elevation": 7.1590981924320083 }, "geometry": { "type": "Point", "coordinates": [ 79.864218285530256, 6.91110806911591 ] } },
{ "type": "Feature", "properties": { "extractedTreeId": "985", "height": 14.642353143874429, "dbh": 0.91928720474243197, "elevation": 7.1610982282840983 }, "geometry": { "type": "Point", "coordinates": [ 79.864295155658255, 6.911218054338017 ] } },
{ "type": "Feature", "properties": { "extractedTreeId": "986", "height": 11.029108816506753, "dbh": 0.31984284520149198, "elevation": 7.140198188094014 }, "geometry": { "type": "Point", "coordinates": [ 79.864298486705081, 6.911289107358035 ] } },
{ "type": "Feature", "properties": { "extractedTreeId": "987", "height": 8.8947403342107716, "dbh": 0.43289992213249201, "elevation": 7.2900982103069856 }, "geometry": { "type": "Point", "coordinates": [ 79.864326960368558, 6.911370255030154 ] } },
{ "type": "Feature", "properties": { "extractedTreeId": "988", "height": 19.19239828009912, "dbh": 0.27593415975570701, "elevation": 7.3267902180246143 }, "geometry": { "type": "Point", "coordinates": [ 79.864179773240053, 6.911590955258786 ] } },
{ "type": "Feature", "properties": { "extractedTreeId": "989", "height": 15.627803143392502, "dbh": 1.4841412305831909, "elevation": 6.2844211728215242 }, "geometry": { "type": "Point", "coordinates": [ 79.863812223106692, 6.911584425943666 ] } },
{ "type": "Feature", "properties": { "extractedTreeId": "990", "height": 17.063750814694089, "dbh": 1.26042652130127, "elevation": 7.2942886584662698 }, "geometry": { "type": "Point", "coordinates": [ 79.863505642798231, 6.911739322752947 ] } },
{ "type": "Feature", "properties": { "extractedTreeId": "991", "height": 15.075307011604311, "dbh": 0.96169102191925004, "elevation": 6.831367631331088 }, "geometry": { "type": "Point", "coordinates": [ 79.863052488882673, 6.911751340667404 ] } },
{ "type": "Feature", "properties": { "extractedTreeId": "992", "height": 26.583295739855473, "dbh": 1.306925296783447, "elevation": 6.79854383621901 }, "geometry": { "type": "Point", "coordinates": [ 79.861995334833452, 6.911720876044997 ] } },
{ "type": "Feature", "properties": { "extractedTreeId": "993", "height": 17.367623680753226, "dbh": 1.0856301784515381, "elevation": 6.4919437853359039 }, "geometry": { "type": "Point", "coordinates": [ 79.861908065157664, 6.911708803279386 ] } },
{ "type": "Feature", "properties": { "extractedTreeId": "994", "height": 17.821994927601814, "dbh": 1.109744548797607, "elevation": 7.0538441296738359 }, "geometry": { "type": "Point", "coordinates": [ 79.861817456958789, 6.911700500056408 ] } },
{ "type": "Feature", "properties": { "extractedTreeId": "995", "height": 14.715793787175217, "dbh": 0.93453168869018599, "elevation": 6.7782677413987136 }, "geometry": { "type": "Point", "coordinates": [ 79.861714648567158, 6.911692178820735 ] } },
{ "type": "Feature", "properties": { "extractedTreeId": "85", "height": null, "dbh": null, "elevation": null }, "geometry": { "type": "Point", "coordinates": [ 79.864156215874715, 6.907783865693908 ] } },
{ "type": "Feature", "properties": { "extractedTreeId": "86", "height": null, "dbh": null, "elevation": null }, "geometry": { "type": "Point", "coordinates": [ 79.862871957050132, 6.909513911958562 ] } },
{ "type": "Feature", "properties": { "extractedTreeId": "87", "height": null, "dbh": null, "elevation": null }, "geometry": { "type": "Point", "coordinates": [ 79.862910975057346, 6.909775868434808 ] } },
{ "type": "Feature", "properties": { "extractedTreeId": "88", "height": null, "dbh": null, "elevation": null }, "geometry": { "type": "Point", "coordinates": [ 79.863030918253031, 6.90988123842095 ] } },
{ "type": "Feature", "properties": { "extractedTreeId": "89", "height": null, "dbh": null, "elevation": null }, "geometry": { "type": "Point", "coordinates": [ 79.863030918253031, 6.90988123842095 ] } },
{ "type": "Feature", "properties": { "extractedTreeId": "90", "height": null, "dbh": null, "elevation": null }, "geometry": { "type": "Point", "coordinates": [ 79.863052227322058, 6.909869499445586 ] } },
{ "type": "Feature", "properties": { "extractedTreeId": "91", "height": null, "dbh": null, "elevation": null }, "geometry": { "type": "Point", "coordinates": [ 79.863052227322058, 6.909869499445586 ] } },
{ "type": "Feature", "properties": { "extractedTreeId": "92", "height": null, "dbh": null, "elevation": null }, "geometry": { "type": "Point", "coordinates": [ 79.863124741665501, 6.909934179490308 ] } },
{ "type": "Feature", "properties": { "extractedTreeId": "93", "height": null, "dbh": null, "elevation": null }, "geometry": { "type": "Point", "coordinates": [ 79.863299799678984, 6.910082702876077 ] } },
{ "type": "Feature", "properties": { "extractedTreeId": "94", "height": null, "dbh": null, "elevation": null }, "geometry": { "type": "Point", "coordinates": [ 79.86338964474713, 6.910157014913395 ] } },
{ "type": "Feature", "properties": { "extractedTreeId": "95", "height": null, "dbh": null, "elevation": null }, "geometry": { "type": "Point", "coordinates": [ 79.86338964474713, 6.910157014913395 ] } },
{ "type": "Feature", "properties": { "extractedTreeId": "96", "height": null, "dbh": null, "elevation": null }, "geometry": { "type": "Point", "coordinates": [ 79.863434254453367, 6.910190400962741 ] } },
{ "type": "Feature", "properties": { "extractedTreeId": "97", "height": null, "dbh": null, "elevation": null }, "geometry": { "type": "Point", "coordinates": [ 79.864139671660396, 6.910975722429333 ] } },
{ "type": "Feature", "properties": { "extractedTreeId": "98", "height": null, "dbh": null, "elevation": null }, "geometry": { "type": "Point", "coordinates": [ 79.864174748930367, 6.911032965403016 ] } },
{ "type": "Feature", "properties": { "extractedTreeId": "99", "height": null, "dbh": null, "elevation": null }, "geometry": { "type": "Point", "coordinates": [ 79.864257674217555, 6.911170146829638 ] } },
{ "type": "Feature", "properties": { "extractedTreeId": "100", "height": null, "dbh": null, "elevation": null }, "geometry": { "type": "Point", "coordinates": [ 79.863150776409924, 6.911636550953892 ] } },
{ "type": "Feature", "properties": { "extractedTreeId": "101", "height": null, "dbh": null, "elevation": null }, "geometry": { "type": "Point", "coordinates": [ 79.863150776409924, 6.911636550953892 ] } },
{ "type": "Feature", "properties": { "extractedTreeId": "102", "height": null, "dbh": null, "elevation": null }, "geometry": { "type": "Point", "coordinates": [ 79.862760233582563, 6.911632479778804 ] } },
{ "type": "Feature", "properties": { "extractedTreeId": "103", "height": null, "dbh": null, "elevation": null }, "geometry": { "type": "Point", "coordinates": [ 79.862347970396669, 6.911617348467813 ] } },
{ "type": "Feature", "properties": { "extractedTreeId": "996", "height": 0.0, "dbh": 0.0, "elevation": 6.6459211571342216 }, "geometry": { "type": "Point", "coordinates": [ 79.86224494370596, 6.911608529570656 ] } },
{ "type": "Feature", "properties": { "extractedTreeId": "997", "height": 0.0, "dbh": 0.0, "elevation": 6.6443212378449319 }, "geometry": { "type": "Point", "coordinates": [ 79.862143603160916, 6.911589313748958 ] } },
{ "type": "Feature", "properties": { "extractedTreeId": "998", "height": 0.0, "dbh": 0.0, "elevation": 6.6436211858593923 }, "geometry": { "type": "Point", "coordinates": [ 79.862102227138379, 6.911587993810628 ] } },
{ "type": "Feature", "properties": { "extractedTreeId": "999", "height": 14.367899837675804, "dbh": 0.0, "elevation": 6.6864890269501878 }, "geometry": { "type": "Point", "coordinates": [ 79.86192600892511, 6.911575692090105 ] } },
{ "type": "Feature", "properties": { "extractedTreeId": "1000", "height": 0.0, "dbh": 0.0, "elevation": 6.492489111585126 }, "geometry": { "type": "Point", "coordinates": [ 79.861841403775841, 6.911566458400977 ] } },
{ "type": "Feature", "properties": { "extractedTreeId": "1001", "height": 0.0, "dbh": 0.0, "elevation": 6.5888438638628744 }, "geometry": { "type": "Point", "coordinates": [ 79.861517717842787, 6.911556899017106 ] } },
{ "type": "Feature", "properties": { "extractedTreeId": "110", "height": null, "dbh": null, "elevation": null }, "geometry": { "type": "Point", "coordinates": [ 79.861785142314133, 6.911700559692733 ] } },
{ "type": "Feature", "properties": { "extractedTreeId": "111", "height": null, "dbh": null, "elevation": null }, "geometry": { "type": "Point", "coordinates": [ 79.862122590274367, 6.911869939019192 ] } },
{ "type": "Feature", "properties": { "extractedTreeId": "112", "height": null, "dbh": null, "elevation": null }, "geometry": { "type": "Point", "coordinates": [ 79.862865726391234, 6.911892774966834 ] } },
{ "type": "Feature", "properties": { "extractedTreeId": "113", "height": null, "dbh": null, "elevation": null }, "geometry": { "type": "Point", "coordinates": [ 79.862886182074874, 6.911893010480585 ] } },
{ "type": "Feature", "properties": { "extractedTreeId": "114", "height": null, "dbh": null, "elevation": null }, "geometry": { "type": "Point", "coordinates": [ 79.862904835160904, 6.911890600731213 ] } },
{ "type": "Feature", "properties": { "extractedTreeId": "115", "height": null, "dbh": null, "elevation": null }, "geometry": { "type": "Point", "coordinates": [ 79.862916716226607, 6.911889549908582 ] } },
{ "type": "Feature", "properties": { "extractedTreeId": "116", "height": null, "dbh": null, "elevation": null }, "geometry": { "type": "Point", "coordinates": [ 79.863106637648968, 6.911892903711355 ] } },
{ "type": "Feature", "properties": { "extractedTreeId": "117", "height": null, "dbh": null, "elevation": null }, "geometry": { "type": "Point", "coordinates": [ 79.863207002681946, 6.911889534034006 ] } },
{ "type": "Feature", "properties": { "extractedTreeId": "118", "height": null, "dbh": null, "elevation": null }, "geometry": { "type": "Point", "coordinates": [ 79.863203832090861, 6.911737167826589 ] } },
{ "type": "Feature", "properties": { "extractedTreeId": "119", "height": null, "dbh": null, "elevation": null }, "geometry": { "type": "Point", "coordinates": [ 79.863248171729808, 6.911883958321584 ] } },
{ "type": "Feature", "properties": { "extractedTreeId": "120", "height": null, "dbh": null, "elevation": null }, "geometry": { "type": "Point", "coordinates": [ 79.863566170628815, 6.91189617840174 ] } },
{ "type": "Feature", "properties": { "extractedTreeId": "121", "height": null, "dbh": null, "elevation": null }, "geometry": { "type": "Point", "coordinates": [ 79.863741050956733, 6.911912955441306 ] } },
{ "type": "Feature", "properties": { "extractedTreeId": "122", "height": null, "dbh": null, "elevation": null }, "geometry": { "type": "Point", "coordinates": [ 79.863875734154263, 6.911913582929449 ] } },
{ "type": "Feature", "properties": { "extractedTreeId": "123", "height": null, "dbh": null, "elevation": null }, "geometry": { "type": "Point", "coordinates": [ 79.864049854041795, 6.911917458486815 ] } },
{ "type": "Feature", "properties": { "extractedTreeId": "124", "height": null, "dbh": null, "elevation": null }, "geometry": { "type": "Point", "coordinates": [ 79.864197440218462, 6.911906001822237 ] } },
{ "type": "Feature", "properties": { "extractedTreeId": "125", "height": null, "dbh": null, "elevation": null }, "geometry": { "type": "Point", "coordinates": [ 79.864418226349002, 6.910857620721211 ] } },
{ "type": "Feature", "properties": { "extractedTreeId": "126", "height": null, "dbh": null, "elevation": null }, "geometry": { "type": "Point", "coordinates": [ 79.864380452385831, 6.910809599104114 ] } },
{ "type": "Feature", "properties": { "extractedTreeId": "127", "height": null, "dbh": null, "elevation": null }, "geometry": { "type": "Point", "coordinates": [ 79.864279399690687, 6.910653046613755 ] } },
{ "type": "Feature", "properties": { "extractedTreeId": "128", "height": null, "dbh": null, "elevation": null }, "geometry": { "type": "Point", "coordinates": [ 79.863886000522896, 6.910204364908347 ] } },
{ "type": "Feature", "properties": { "extractedTreeId": "129", "height": null, "dbh": null, "elevation": null }, "geometry": { "type": "Point", "coordinates": [ 79.863660339444465, 6.90967479760269 ] } },
{ "type": "Feature", "properties": { "extractedTreeId": "1002", "height": 12.136999858856202, "dbh": 0.198223629737525, "elevation": 6.798000259399414 }, "geometry": { "type": "Point", "coordinates": [ 79.862577436012543, 6.903699606508388 ] } },
{ "type": "Feature", "properties": { "extractedTreeId": "1003", "height": 11.078999769210821, "dbh": 0.23269859060690001, "elevation": 7.2600001525878923 }, "geometry": { "type": "Point", "coordinates": [ 79.862582549134743, 6.90362859016696 ] } },
{ "type": "Feature", "properties": { "extractedTreeId": "1004", "height": 11.545000566482544, "dbh": 0.26159750854631297, "elevation": 7.2699994277954101 }, "geometry": { "type": "Point", "coordinates": [ 79.862585370204343, 6.903660879805135 ] } },
{ "type": "Feature", "properties": { "extractedTreeId": "1005", "height": 11.650999798155233, "dbh": 0.0, "elevation": 7.2220000435348322 }, "geometry": { "type": "Point", "coordinates": [ 79.862580116146731, 6.903589216912408 ] } },
{ "type": "Feature", "properties": { "extractedTreeId": "1006", "height": 9.9660000599202316, "dbh": 0.22808946669101701, "elevation": 7.2019996196452016 }, "geometry": { "type": "Point", "coordinates": [ 79.862597292701153, 6.903540797536393 ] } },
{ "type": "Feature", "properties": { "extractedTreeId": "1008", "height": 8.3000003765492654, "dbh": 0.0, "elevation": 7.2259998218149937 }, "geometry": { "type": "Point", "coordinates": [ 79.862688748524562, 6.903387421211006 ] } },
{ "type": "Feature", "properties": { "extractedTreeId": "1010", "height": 11.961999625727763, "dbh": 0.797493696212769, "elevation": 7.2150001167801756 }, "geometry": { "type": "Point", "coordinates": [ 79.862743693597523, 6.903295254861078 ] } },
{ "type": "Feature", "properties": { "extractedTreeId": "1011", "height": 6.1870003208136177, "dbh": 1.1332260370254521, "elevation": 7.3219994388604599 }, "geometry": { "type": "Point", "coordinates": [ 79.862614189199945, 6.903499798945571 ] } },
{ "type": "Feature", "properties": { "extractedTreeId": "1012", "height": 8.8989997000048184, "dbh": 0.98103505373001099, "elevation": 7.2530001855542681 }, "geometry": { "type": "Point", "coordinates": [ 79.862632513519429, 6.903474086516222 ] } },
{ "type": "Feature", "properties": { "extractedTreeId": "1015", "height": 8.6649999432000619, "dbh": 1.299444437026978, "elevation": 7.2550000682440343 }, "geometry": { "type": "Point", "coordinates": [ 79.862642824873831, 6.903454207829855 ] } },
{ "type": "Feature", "properties": { "extractedTreeId": "1017", "height": 6.0760001947334104, "dbh": 1.389456152915955, "elevation": 7.2819995420524837 }, "geometry": { "type": "Point", "coordinates": [ 79.862652763245123, 6.903433913399976 ] } },
{ "type": "Feature", "properties": { "extractedTreeId": "1018", "height": 4.8079996334783219, "dbh": 1.248923182487488, "elevation": 7.2390002330072782 }, "geometry": { "type": "Point", "coordinates": [ 79.862664100748262, 6.903417645709967 ] } },
{ "type": "Feature", "properties": { "extractedTreeId": "1019", "height": 11.657000062080103, "dbh": 0.727774858474731, "elevation": 7.1979998921435362 }, "geometry": { "type": "Point", "coordinates": [ 79.862802686442777, 6.903248814424463 ] } },
{ "type": "Feature", "properties": { "extractedTreeId": "1020", "height": 7.9270005276480697, "dbh": 0.179664492607117, "elevation": 7.4209994570931457 }, "geometry": { "type": "Point", "coordinates": [ 79.862840385345621, 6.903195793939803 ] } },
{ "type": "Feature", "properties": { "extractedTreeId": "1021", "height": 8.1880001982709238, "dbh": 0.0, "elevation": 6.8719996796587681 }, "geometry": { "type": "Point", "coordinates": [ 79.862855356254528, 6.903215698549638 ] } },
{ "type": "Feature", "properties": { "extractedTreeId": "1022", "height": 12.977000359715785, "dbh": 0.35960680246353099, "elevation": 7.3429995086771642 }, "geometry": { "type": "Point", "coordinates": [ 79.862887325882497, 6.903084809742707 ] } },
{ "type": "Feature", "properties": { "extractedTreeId": "1023", "height": 14.597000426769261, "dbh": 0.488878466319837, "elevation": 7.6119994401931761 }, "geometry": { "type": "Point", "coordinates": [ 79.859821931318564, 6.89927847447725 ] } },
{ "type": "Feature", "properties": { "extractedTreeId": "1024", "height": 19.353999861717227, "dbh": 0.39172286461744199, "elevation": 7.5589999437332143 }, "geometry": { "type": "Point", "coordinates": [ 79.859798633997741, 6.899272710602617 ] } },
{ "type": "Feature", "properties": { "extractedTreeId": "1025", "height": 18.622999674797065, "dbh": 0.30790595612983701, "elevation": 7.6070002794265736 }, "geometry": { "type": "Point", "coordinates": [ 79.85977494480727, 6.899266318881236 ] } },
{ "type": "Feature", "properties": { "extractedTreeId": "1026", "height": 15.428000218391425, "dbh": 0.211869126371762, "elevation": 7.5959996461868284 }, "geometry": { "type": "Point", "coordinates": [ 79.859750541127198, 6.899325408715571 ] } },
{ "type": "Feature", "properties": { "extractedTreeId": "1027", "height": 12.304999596595769, "dbh": 0.36245921812989301, "elevation": 7.6330003023147581 }, "geometry": { "type": "Point", "coordinates": [ 79.859707515045116, 6.899305225179699 ] } },
{ "type": "Feature", "properties": { "extractedTreeId": "1028", "height": 13.100000030517583, "dbh": 0.323462318349719, "elevation": 7.6199998140335081 }, "geometry": { "type": "Point", "coordinates": [ 79.859726202966499, 6.899253708983469 ] } },
{ "type": "Feature", "properties": { "extractedTreeId": "1029", "height": 13.578000365912917, "dbh": 0.33389219900571299, "elevation": 7.6309994935989378 }, "geometry": { "type": "Point", "coordinates": [ 79.859687165337647, 6.899295771957367 ] } },
{ "type": "Feature", "properties": { "extractedTreeId": "1030", "height": 15.549999958992011, "dbh": 0.37159955618389001, "elevation": 7.6719998598098744 }, "geometry": { "type": "Point", "coordinates": [ 79.859702013852441, 6.899247282330807 ] } },
{ "type": "Feature", "properties": { "extractedTreeId": "1031", "height": 17.054999647248277, "dbh": 0.0, "elevation": 7.6330002516622502 }, "geometry": { "type": "Point", "coordinates": [ 79.859873564691995, 6.899287690134654 ] } },
{ "type": "Feature", "properties": { "extractedTreeId": "1032", "height": 15.059000146432847, "dbh": 0.344593346118927, "elevation": 7.6009997553387016 }, "geometry": { "type": "Point", "coordinates": [ 79.85997268168137, 6.899365767063472 ] } },
{ "type": "Feature", "properties": { "extractedTreeId": "1033", "height": 22.373000133348988, "dbh": 0.0, "elevation": 7.8419999543890544 }, "geometry": { "type": "Point", "coordinates": [ 79.859898654451058, 6.899484771899957 ] } },
{ "type": "Feature", "properties": { "extractedTreeId": "1034", "height": 0.0, "dbh": 0.0, "elevation": 7.4980001033551504 }, "geometry": { "type": "Point", "coordinates": [ 79.862650284316402, 6.904376019102172 ] } },
{ "type": "Feature", "properties": { "extractedTreeId": "1035", "height": 19.424999680927396, "dbh": 1.372989773750305, "elevation": 7.5640000978201662 }, "geometry": { "type": "Point", "coordinates": [ 79.862698152497074, 6.904646326112083 ] } },
{ "type": "Feature", "properties": { "extractedTreeId": "1036", "height": 19.674999949545732, "dbh": 0.87119150161743197, "elevation": 7.1470002526332239 }, "geometry": { "type": "Point", "coordinates": [ 79.862463530341088, 6.902961794631407 ] } },
{ "type": "Feature", "properties": { "extractedTreeId": "1037", "height": 12.917000389745834, "dbh": 0.86531847715377797, "elevation": 6.9849996169298878 }, "geometry": { "type": "Point", "coordinates": [ 79.862530550641281, 6.902993579520254 ] } },
{ "type": "Feature", "properties": { "extractedTreeId": "1038", "height": 16.223000422170347, "dbh": 0.72496986389160201, "elevation": 7.0459994471762757 }, "geometry": { "type": "Point", "coordinates": [ 79.86262500502886, 6.90309035683212 ] } },
{ "type": "Feature", "properties": { "extractedTreeId": "1039", "height": 20.501000428718715, "dbh": 0.50775629281997703, "elevation": 7.0249995293196204 }, "geometry": { "type": "Point", "coordinates": [ 79.862820400751943, 6.902920672379842 ] } },
{ "type": "Feature", "properties": { "extractedTreeId": "1040", "height": 18.159999858252416, "dbh": 0.52666467428207397, "elevation": 6.9580001074153124 }, "geometry": { "type": "Point", "coordinates": [ 79.862786040469715, 6.902881343892338 ] } },
{ "type": "Feature", "properties": { "extractedTreeId": "1041", "height": 20.870999809599741, "dbh": 0.56596535444259599, "elevation": 7.0780000072947944 }, "geometry": { "type": "Point", "coordinates": [ 79.86283388056826, 6.902884116492782 ] } },
{ "type": "Feature", "properties": { "extractedTreeId": "1042", "height": 18.280000232348726, "dbh": 0.61659276485443104, "elevation": 7.2639998515746136 }, "geometry": { "type": "Point", "coordinates": [ 79.862711159727269, 6.90292478948236 ] } },
{ "type": "Feature", "properties": { "extractedTreeId": "1043", "height": 22.245999733833319, "dbh": 0.0, "elevation": 7.0030002737960801 }, "geometry": { "type": "Point", "coordinates": [ 79.862791727381435, 6.902950184882224 ] } },
{ "type": "Feature", "properties": { "extractedTreeId": "1044", "height": 18.883999850155707, "dbh": 0.51781439781188998, "elevation": 7.1020001460296003 }, "geometry": { "type": "Point", "coordinates": [ 79.86270117498114, 6.903080037173841 ] } },
{ "type": "Feature", "properties": { "extractedTreeId": "1045", "height": 12.187999776840211, "dbh": 0.11136967852141801, "elevation": 6.6350001144409179 }, "geometry": { "type": "Point", "coordinates": [ 79.862104462501662, 6.902641848089084 ] } },
{ "type": "Feature", "properties": { "extractedTreeId": "1046", "height": 13.92100041294098, "dbh": 0.018342547958737999, "elevation": 6.6359995651245116 }, "geometry": { "type": "Point", "coordinates": [ 79.862120096714989, 6.902678081153248 ] } },
{ "type": "Feature", "properties": { "extractedTreeId": "1047", "height": 13.223000339508058, "dbh": 0.172597839588397, "elevation": 6.6079996871948241 }, "geometry": { "type": "Point", "coordinates": [ 79.862088551426581, 6.902601682286979 ] } },
{ "type": "Feature", "properties": { "extractedTreeId": "1048", "height": 16.472999948978426, "dbh": 0.052629312203088002, "elevation": 6.6769999623298641 }, "geometry": { "type": "Point", "coordinates": [ 79.862133423166654, 6.902720790750438 ] } },
{ "type": "Feature", "properties": { "extractedTreeId": "1049", "height": 16.893999954700469, "dbh": 0.021605632533588, "elevation": 6.6820000767707821 }, "geometry": { "type": "Point", "coordinates": [ 79.862179471823126, 6.902856401738998 ] } },
{ "type": "Feature", "properties": { "extractedTreeId": "1050", "height": 16.677999755382537, "dbh": 0.050996676174061999, "elevation": 6.6730002522468563 }, "geometry": { "type": "Point", "coordinates": [ 79.86214674403783, 6.902755800110892 ] } },
{ "type": "Feature", "properties": { "extractedTreeId": "1051", "height": 15.57500014448166, "dbh": 0.99747369661233298, "elevation": 6.7569998693466182 }, "geometry": { "type": "Point", "coordinates": [ 79.862245130247118, 6.902989749433928 ] } },
{ "type": "Feature", "properties": { "extractedTreeId": "1052", "height": 15.87199983739853, "dbh": 0.061814443671376, "elevation": 6.6940001440048222 }, "geometry": { "type": "Point", "coordinates": [ 79.862198451411629, 6.902908036539024 ] } },
{ "type": "Feature", "properties": { "extractedTreeId": "1053", "height": 25.493999484986308, "dbh": 0.0, "elevation": 6.9960002212820056 }, "geometry": { "type": "Point", "coordinates": [ 79.862373671427335, 6.903579646849471 ] } },
{ "type": "Feature", "properties": { "extractedTreeId": "1054", "height": 17.635000311951035, "dbh": 0.0, "elevation": 6.9479998082119296 }, "geometry": { "type": "Point", "coordinates": [ 79.862316155431458, 6.903186848361285 ] } },
{ "type": "Feature", "properties": { "extractedTreeId": "1055", "height": 16.782000229388196, "dbh": 0.0, "elevation": 6.6929997315111596 }, "geometry": { "type": "Point", "coordinates": [ 79.862044473842971, 6.902449776064768 ] } },
{ "type": "Feature", "properties": { "extractedTreeId": "1056", "height": 12.794999888121158, "dbh": 0.28773099184036299, "elevation": 6.4580000680098282 }, "geometry": { "type": "Point", "coordinates": [ 79.861894138929756, 6.902082057433006 ] } },
{ "type": "Feature", "properties": { "extractedTreeId": "1057", "height": 12.064000421451016, "dbh": 0.040649797767400998, "elevation": 6.5179995327726177 }, "geometry": { "type": "Point", "coordinates": [ 79.861920682744866, 6.902169890102445 ] } },
{ "type": "Feature", "properties": { "extractedTreeId": "1058", "height": 9.1479997697211708, "dbh": 0.91074120998382602, "elevation": 6.5240000967644276 }, "geometry": { "type": "Point", "coordinates": [ 79.861943208809606, 6.902214386055147 ] } },
{ "type": "Feature", "properties": { "extractedTreeId": "1059", "height": 10.125000228659058, "dbh": 0.91293203830719005, "elevation": 6.5869998400054941 }, "geometry": { "type": "Point", "coordinates": [ 79.861970078303372, 6.902265901683897 ] } },
{ "type": "Feature", "properties": { "extractedTreeId": "1060", "height": 18.25900004564976, "dbh": 1.1041997671127319, "elevation": 6.4759997845962163 }, "geometry": { "type": "Point", "coordinates": [ 79.861838978397714, 6.901948173554189 ] } },
{ "type": "Feature", "properties": { "extractedTreeId": "1061", "height": 17.540999877134976, "dbh": 1.120219469070435, "elevation": 6.7010001629193461 }, "geometry": { "type": "Point", "coordinates": [ 79.861812789426963, 6.901879335892463 ] } },
{ "type": "Feature", "properties": { "extractedTreeId": "1062", "height": 24.725000624455191, "dbh": 0.120955489575863, "elevation": 6.609999589167856 }, "geometry": { "type": "Point", "coordinates": [ 79.862003885095021, 6.901857855294072 ] } },
{ "type": "Feature", "properties": { "extractedTreeId": "1063", "height": 24.395000566291856, "dbh": 0.93451362848281905, "elevation": 6.6009996587752884 }, "geometry": { "type": "Point", "coordinates": [ 79.862015064203945, 6.901879074357927 ] } },
{ "type": "Feature", "properties": { "extractedTreeId": "1064", "height": 10.174999944882178, "dbh": 0.16585771739482899, "elevation": 6.8089999597503921 }, "geometry": { "type": "Point", "coordinates": [ 79.862040151057329, 6.901965373958669 ] } },
{ "type": "Feature", "properties": { "extractedTreeId": "1065", "height": 7.1740000723071482, "dbh": 0.069206610321998999, "elevation": 6.5749996988110162 }, "geometry": { "type": "Point", "coordinates": [ 79.862064933158678, 6.902012445146997 ] } },
{ "type": "Feature", "properties": { "extractedTreeId": "1066", "height": 9.4020001629584762, "dbh": 0.18981350958347301, "elevation": 6.5380000697380583 }, "geometry": { "type": "Point", "coordinates": [ 79.862070590010518, 6.902054464349653 ] } },
{ "type": "Feature", "properties": { "extractedTreeId": "1067", "height": 14.307000349979123, "dbh": 0.47952538728714, "elevation": 6.6219996667101784 }, "geometry": { "type": "Point", "coordinates": [ 79.862038639053495, 6.901936889637323 ] } },
{ "type": "Feature", "properties": { "extractedTreeId": "1068", "height": 9.2510004557228278, "dbh": 0.0, "elevation": 6.2509993344688262 }, "geometry": { "type": "Point", "coordinates": [ 79.862129446120008, 6.902108079579981 ] } },
{ "type": "Feature", "properties": { "extractedTreeId": "1069", "height": 8.9170002606325838, "dbh": 0.202116474509239, "elevation": 6.3249995410031596 }, "geometry": { "type": "Point", "coordinates": [ 79.862096244563858, 6.90212628947827 ] } },
{ "type": "Feature", "properties": { "extractedTreeId": "1070", "height": 8.3450000243526965, "dbh": 0.0, "elevation": 6.3629998573916904 }, "geometry": { "type": "Point", "coordinates": [ 79.862090679536294, 6.90210702932537 ] } },
{ "type": "Feature", "properties": { "extractedTreeId": "1071", "height": 8.8659999410373924, "dbh": 0.065940886735915999, "elevation": 6.3190001772182258 }, "geometry": { "type": "Point", "coordinates": [ 79.862080735434603, 6.902067385524903 ] } },
{ "type": "Feature", "properties": { "extractedTreeId": "1072", "height": 8.7590005614275022, "dbh": 0.20073440670967099, "elevation": 6.6359995949750861 }, "geometry": { "type": "Point", "coordinates": [ 79.862124823750037, 6.902203344165871 ] } },
{ "type": "Feature", "properties": { "extractedTreeId": "1073", "height": 9.7970006582505071, "dbh": 0.099089197814464999, "elevation": 6.3339995591872382 }, "geometry": { "type": "Point", "coordinates": [ 79.862106259192089, 6.902145305438575 ] } },
{ "type": "Feature", "properties": { "extractedTreeId": "1074", "height": 10.47499969454817, "dbh": 0.149886384606361, "elevation": 6.5550002138990964 }, "geometry": { "type": "Point", "coordinates": [ 79.86209353596908, 6.902157799711465 ] } },
{ "type": "Feature", "properties": { "extractedTreeId": "1075", "height": 4.0179996551101489, "dbh": 0.0, "elevation": 6.8229998833114864 }, "geometry": { "type": "Point", "coordinates": [ 79.862167550565673, 6.902304326712874 ] } },
{ "type": "Feature", "properties": { "extractedTreeId": "1076", "height": 0.0, "dbh": 0.0, "elevation": 6.8789996455127236 }, "geometry": { "type": "Point", "coordinates": [ 79.862174200866733, 6.90233245811574 ] } },
{ "type": "Feature", "properties": { "extractedTreeId": "1077", "height": 13.514999748034381, "dbh": 0.0, "elevation": 6.8500003177691484 }, "geometry": { "type": "Point", "coordinates": [ 79.862181396656226, 6.902346703691901 ] } },
{ "type": "Feature", "properties": { "extractedTreeId": "1078", "height": 4.0520000443557258, "dbh": 0.0, "elevation": 6.8229998907944243 }, "geometry": { "type": "Point", "coordinates": [ 79.862167927592537, 6.902304071809003 ] } },
{ "type": "Feature", "properties": { "extractedTreeId": "1079", "height": 5.84700036587778, "dbh": 0.34609061479568498, "elevation": 6.7239999087804243 }, "geometry": { "type": "Point", "coordinates": [ 79.862171417612316, 6.902288840723275 ] } },
{ "type": "Feature", "properties": { "extractedTreeId": "1080", "height": 4.0450000859816662, "dbh": 0.0, "elevation": 6.822999879686062 }, "geometry": { "type": "Point", "coordinates": [ 79.862168002944173, 6.902304190301857 ] } },
{ "type": "Feature", "properties": { "extractedTreeId": "1081", "height": 15.688000422601233, "dbh": 0.77157860994339, "elevation": 6.786999597902768 }, "geometry": { "type": "Point", "coordinates": [ 79.862230600256837, 6.902452618506586 ] } },
{ "type": "Feature", "properties": { "extractedTreeId": "1082", "height": 17.569000174869412, "dbh": 0.42254328727722201, "elevation": 6.883999830852634 }, "geometry": { "type": "Point", "coordinates": [ 79.862267078519054, 6.902570395632447 ] } },
{ "type": "Feature", "properties": { "extractedTreeId": "1083", "height": 17.845000468174671, "dbh": 0.36734056472778298, "elevation": 6.7629995070298001 }, "geometry": { "type": "Point", "coordinates": [ 79.862260509578803, 6.902526376821183 ] } },
{ "type": "Feature", "properties": { "extractedTreeId": "1084", "height": 17.074000315473132, "dbh": 0.67196148633956898, "elevation": 6.6969995281242838 }, "geometry": { "type": "Point", "coordinates": [ 79.862301177920244, 6.902669506507144 ] } },
{ "type": "Feature", "properties": { "extractedTreeId": "1085", "height": 17.455000494766132, "dbh": 0.255504131317139, "elevation": 6.7229994155884816 }, "geometry": { "type": "Point", "coordinates": [ 79.862168821192171, 6.902793014561914 ] } },
{ "type": "Feature", "properties": { "extractedTreeId": "1086", "height": 17.40300016662642, "dbh": 0.0, "elevation": 6.7239998638911596 }, "geometry": { "type": "Point", "coordinates": [ 79.862172754047776, 6.902806991450402 ] } },
{ "type": "Feature", "properties": { "extractedTreeId": "1087", "height": 16.46400039539424, "dbh": 0.25509351491928101, "elevation": 6.854999426268666 }, "geometry": { "type": "Point", "coordinates": [ 79.862409683362117, 6.902925415577835 ] } },
{ "type": "Feature", "properties": { "extractedTreeId": "1088", "height": 19.922000214330385, "dbh": 0.0, "elevation": 6.9339999077399277 }, "geometry": { "type": "Point", "coordinates": [ 79.862435217216742, 6.902972120017391 ] } },
{ "type": "Feature", "properties": { "extractedTreeId": "1089", "height": 7.9559993685935178, "dbh": 0.461947321891785, "elevation": 6.7720002537514583 }, "geometry": { "type": "Point", "coordinates": [ 79.86236274806059, 6.902817667652584 ] } },
{ "type": "Feature", "properties": { "extractedTreeId": "1090", "height": 8.0679998997927633, "dbh": 0.0, "elevation": 6.8229998293637344 }, "geometry": { "type": "Point", "coordinates": [ 79.862383409104808, 6.902777035616749 ] } },
{ "type": "Feature", "properties": { "extractedTreeId": "1091", "height": 19.966000693070853, "dbh": 0.0, "elevation": 4.5319993889451382 }, "geometry": { "type": "Point", "coordinates": [ 79.86179045768192, 6.901355572360377 ] } },
{ "type": "Feature", "properties": { "extractedTreeId": "1092", "height": 15.305999961227293, "dbh": 0.0, "elevation": 6.6230000480114279 }, "geometry": { "type": "Point", "coordinates": [ 79.861676524155556, 6.901547784790723 ] } },
{ "type": "Feature", "properties": { "extractedTreeId": "1093", "height": 15.699999876180652, "dbh": 0.84246647357940696, "elevation": 6.6039999597873704 }, "geometry": { "type": "Point", "coordinates": [ 79.861638438371727, 6.901433252466131 ] } },
{ "type": "Feature", "properties": { "extractedTreeId": "1094", "height": 15.805999991604679, "dbh": 0.0, "elevation": 7.185999808123718 }, "geometry": { "type": "Point", "coordinates": [ 79.86172729494109, 6.901604042718361 ] } },
{ "type": "Feature", "properties": { "extractedTreeId": "1095", "height": 20.015000123348681, "dbh": 0.0, "elevation": 6.6820000788302742 }, "geometry": { "type": "Point", "coordinates": [ 79.861923390386096, 6.901727406782824 ] } },
{ "type": "Feature", "properties": { "extractedTreeId": "1096", "height": 14.300000409451176, "dbh": 0.0, "elevation": 6.6359995767205477 }, "geometry": { "type": "Point", "coordinates": [ 79.861742806069515, 6.901240329637119 ] } },
{ "type": "Feature", "properties": { "extractedTreeId": "1097", "height": 15.449000576819984, "dbh": 0.0, "elevation": 6.7769994308094121 }, "geometry": { "type": "Point", "coordinates": [ 79.861586893937258, 6.90131383333276 ] } },
{ "type": "Feature", "properties": { "extractedTreeId": "1098", "height": 15.879999580664037, "dbh": 1.052938580513, "elevation": 7.0550002972656536 }, "geometry": { "type": "Point", "coordinates": [ 79.861740682647678, 6.901185268587082 ] } },
{ "type": "Feature", "properties": { "extractedTreeId": "1099", "height": 11.430000146609856, "dbh": 0.0, "elevation": 6.88599977518885 }, "geometry": { "type": "Point", "coordinates": [ 79.861383912162466, 6.900418608964447 ] } },
{ "type": "Feature", "properties": { "extractedTreeId": "1100", "height": 6.7019999059467743, "dbh": 1.494372487068176, "elevation": 6.9689997965068402 }, "geometry": { "type": "Point", "coordinates": [ 79.861347943454888, 6.900323697084875 ] } },
{ "type": "Feature", "properties": { "extractedTreeId": "1101", "height": 15.819999807123924, "dbh": 0.518748819828033, "elevation": 6.9460000412418639 }, "geometry": { "type": "Point", "coordinates": [ 79.861064073888627, 6.90013003140571 ] } },
{ "type": "Feature", "properties": { "extractedTreeId": "1102", "height": 9.0589995639900245, "dbh": 0.34093999862670898, "elevation": 6.8970002223869322 }, "geometry": { "type": "Point", "coordinates": [ 79.86112639699931, 6.900316159614237 ] } },
{ "type": "Feature", "properties": { "extractedTreeId": "1103", "height": 9.5039997075782132, "dbh": 0.39598697423934898, "elevation": 6.973999914766762 }, "geometry": { "type": "Point", "coordinates": [ 79.861225327130924, 6.900498296802819 ] } },
{ "type": "Feature", "properties": { "extractedTreeId": "1104", "height": 8.5910003890402393, "dbh": 0.0, "elevation": 6.661999568998092 }, "geometry": { "type": "Point", "coordinates": [ 79.861212883176663, 6.90038040551014 ] } },
{ "type": "Feature", "properties": { "extractedTreeId": "1105", "height": 14.110999619183943, "dbh": 0.0, "elevation": 6.9820003722329904 }, "geometry": { "type": "Point", "coordinates": [ 79.861401689649981, 6.900447916276637 ] } },
{ "type": "Feature", "properties": { "extractedTreeId": "1106", "height": 15.669999428854219, "dbh": 0.0, "elevation": 6.8170003756425501 }, "geometry": { "type": "Point", "coordinates": [ 79.861407115262054, 6.900514450688699 ] } },
{ "type": "Feature", "properties": { "extractedTreeId": "1107", "height": 16.060999986119185, "dbh": 0.0, "elevation": 6.7829999924231457 }, "geometry": { "type": "Point", "coordinates": [ 79.861499933298276, 6.900688014671585 ] } },
{ "type": "Feature", "properties": { "extractedTreeId": "1108", "height": 23.449000497949381, "dbh": 0.0, "elevation": 7.0489998224851904 }, "geometry": { "type": "Point", "coordinates": [ 79.860872208137621, 6.899236183259713 ] } },
{ "type": "Feature", "properties": { "extractedTreeId": "1109", "height": 23.811999501813876, "dbh": 0.0, "elevation": 6.9110000060901804 }, "geometry": { "type": "Point", "coordinates": [ 79.86084476854144, 6.899212078147687 ] } },
{ "type": "Feature", "properties": { "extractedTreeId": "1110", "height": 23.088999828173783, "dbh": 0.0, "elevation": 6.9600001336792463 }, "geometry": { "type": "Point", "coordinates": [ 79.860835656366675, 6.899179043943443 ] } },
{ "type": "Feature", "properties": { "extractedTreeId": "1111", "height": 16.252999792555983, "dbh": 0.78978747129440297, "elevation": 7.5430001464088656 }, "geometry": { "type": "Point", "coordinates": [ 79.860505952102699, 6.898543787952717 ] } },
{ "type": "Feature", "properties": { "extractedTreeId": "1112", "height": 14.724999776472171, "dbh": 1.1239645481109619, "elevation": 7.3140000738009663 }, "geometry": { "type": "Point", "coordinates": [ 79.860555215606908, 6.898997876890771 ] } },
{ "type": "Feature", "properties": { "extractedTreeId": "1113", "height": 21.591000322036177, "dbh": 1.6417912244796751, "elevation": 7.5459994605260796 }, "geometry": { "type": "Point", "coordinates": [ 79.860214876642488, 6.898941533890458 ] } },
{ "type": "Feature", "properties": { "extractedTreeId": "1114", "height": 3.354000035807474, "dbh": 0.45324680209159901, "elevation": 7.4379997162372078 }, "geometry": { "type": "Point", "coordinates": [ 79.860231165606621, 6.898094599651865 ] } },
{ "type": "Feature", "properties": { "extractedTreeId": "1115", "height": 9.0859995427113454, "dbh": 0.42565447092056302, "elevation": 7.4110001330393924 }, "geometry": { "type": "Point", "coordinates": [ 79.860320379563078, 6.898213885273195 ] } },
{ "type": "Feature", "properties": { "extractedTreeId": "1116", "height": 16.821999781415958, "dbh": 0.46807780861854598, "elevation": 7.2480000869769903 }, "geometry": { "type": "Point", "coordinates": [ 79.860215347171334, 6.898308413861384 ] } },
{ "type": "Feature", "properties": { "extractedTreeId": "1117", "height": 14.348999975337131, "dbh": 0.43706372380256697, "elevation": 7.2309998835190719 }, "geometry": { "type": "Point", "coordinates": [ 79.860191119728356, 6.898269284457717 ] } },
{ "type": "Feature", "properties": { "extractedTreeId": "1118", "height": 15.3839997275504, "dbh": 0.163994535803795, "elevation": 7.1420001112786444 }, "geometry": { "type": "Point", "coordinates": [ 79.860498733052651, 6.898244289502937 ] } },
{ "type": "Feature", "properties": { "extractedTreeId": "1119", "height": 15.554999912750034, "dbh": 0.0, "elevation": 7.2829999623186339 }, "geometry": { "type": "Point", "coordinates": [ 79.860482504492751, 6.898175237163485 ] } },
{ "type": "Feature", "properties": { "extractedTreeId": "1120", "height": 14.024999590957396, "dbh": 0.45350325107574502, "elevation": 7.2650002687928783 }, "geometry": { "type": "Point", "coordinates": [ 79.860449540061552, 6.898110034444317 ] } },
{ "type": "Feature", "properties": { "extractedTreeId": "1121", "height": 13.912000428277221, "dbh": 0.94721490144729603, "elevation": 7.1259994348705176 }, "geometry": { "type": "Point", "coordinates": [ 79.860382976900141, 6.897930637213158 ] } },
{ "type": "Feature", "properties": { "extractedTreeId": "1122", "height": 12.579999915481945, "dbh": 0.45774331688880898, "elevation": 7.3989999920116496 }, "geometry": { "type": "Point", "coordinates": [ 79.86006410767277, 6.89810326160396 ] } },
{ "type": "Feature", "properties": { "extractedTreeId": "1123", "height": 15.161999096293579, "dbh": 0.0, "elevation": 3.0370007206009539 }, "geometry": { "type": "Point", "coordinates": [ 79.860121686895923, 6.898163447694683 ] } },
{ "type": "Feature", "properties": { "extractedTreeId": "1124", "height": 22.902000548847067, "dbh": 0.44767147302627602, "elevation": 7.0299995465203704 }, "geometry": { "type": "Point", "coordinates": [ 79.861109460604339, 6.899741115305563 ] } },
{ "type": "Feature", "properties": { "extractedTreeId": "1125", "height": 10.849999936018506, "dbh": 0.0, "elevation": 6.8959998122114783 }, "geometry": { "type": "Point", "coordinates": [ 79.861030102931878, 6.899548128166053 ] } },
{ "type": "Feature", "properties": { "extractedTreeId": "1126", "height": 16.088999643444279, "dbh": 0.92783588171005205, "elevation": 7.0360001724965819 }, "geometry": { "type": "Point", "coordinates": [ 79.860866452220037, 6.899716150768072 ] } },
{ "type": "Feature", "properties": { "extractedTreeId": "1127", "height": 13.759000729012609, "dbh": 1.2244347333908081, "elevation": 6.9679993253468284 }, "geometry": { "type": "Point", "coordinates": [ 79.860843617699629, 6.899639572782934 ] } },
{ "type": "Feature", "properties": { "extractedTreeId": "1128", "height": 13.782000054459033, "dbh": 0.76941615343093905, "elevation": 6.9719999503093399 }, "geometry": { "type": "Point", "coordinates": [ 79.860836113098372, 6.899537263743966 ] } },
{ "type": "Feature", "properties": { "extractedTreeId": "1129", "height": 19.810999804874626, "dbh": 0.0, "elevation": 6.8889999395406578 }, "geometry": { "type": "Point", "coordinates": [ 79.860954127394479, 6.899420549418966 ] } },
{ "type": "Feature", "properties": { "extractedTreeId": "1130", "height": 15.85500026653256, "dbh": 0.890283763408661, "elevation": 7.0939997906879002 }, "geometry": { "type": "Point", "coordinates": [ 79.860694733490234, 6.899299350353163 ] } },
{ "type": "Feature", "properties": { "extractedTreeId": "1131", "height": 15.54800020456177, "dbh": 0.66256541013717696, "elevation": 7.1029996342672739 }, "geometry": { "type": "Point", "coordinates": [ 79.860676278923961, 6.899256672990664 ] } },
{ "type": "Feature", "properties": { "extractedTreeId": "1132", "height": 16.890000115557559, "dbh": 0.39501097798347501, "elevation": 7.0869998176852436 }, "geometry": { "type": "Point", "coordinates": [ 79.860695450463368, 6.899315790075108 ] } },
{ "type": "Feature", "properties": { "extractedTreeId": "1133", "height": 22.461000182767538, "dbh": 0.31877049803733798, "elevation": 7.0329999507468663 }, "geometry": { "type": "Point", "coordinates": [ 79.860871757370603, 6.899145534553796 ] } },
{ "type": "Feature", "properties": { "extractedTreeId": "1134", "height": 7.7899999401079079, "dbh": 0.33635720610618602, "elevation": 7.1269998119367743 }, "geometry": { "type": "Point", "coordinates": [ 79.860794644250035, 6.898865153460021 ] } },
{ "type": "Feature", "properties": { "extractedTreeId": "1135", "height": 9.79299969500833, "dbh": 0.34877058863639798, "elevation": 6.6649999464101324 }, "geometry": { "type": "Point", "coordinates": [ 79.860816244273721, 6.898795959405696 ] } },
{ "type": "Feature", "properties": { "extractedTreeId": "1136", "height": 12.197000126865481, "dbh": 0.31660702824592601, "elevation": 7.5559997100562164 }, "geometry": { "type": "Point", "coordinates": [ 79.860759475567832, 6.898620747901992 ] } },
{ "type": "Feature", "properties": { "extractedTreeId": "1137", "height": 15.681000116735344, "dbh": 1.2818595170974729, "elevation": 7.593999794572948 }, "geometry": { "type": "Point", "coordinates": [ 79.860465528855769, 6.898457022229272 ] } },
{ "type": "Feature", "properties": { "extractedTreeId": "1138", "height": 14.99700010200775, "dbh": 0.49082458019256597, "elevation": 7.2849997787829643 }, "geometry": { "type": "Point", "coordinates": [ 79.860260217895188, 6.898379407630914 ] } },
{ "type": "Feature", "properties": { "extractedTreeId": "1139", "height": 5.0300004793617923, "dbh": 0.0, "elevation": 7.1619998448874798 }, "geometry": { "type": "Point", "coordinates": [ 79.860541254896859, 6.898303611013075 ] } },
{ "type": "Feature", "properties": { "extractedTreeId": "1140", "height": 12.524999685424943, "dbh": 0.30204319953918501, "elevation": 7.1560002459105103 }, "geometry": { "type": "Point", "coordinates": [ 79.860474975918336, 6.899040818276108 ] } },
{ "type": "Feature", "properties": { "extractedTreeId": "1141", "height": 21.522000709433406, "dbh": 0.0, "elevation": 7.6689992104579563 }, "geometry": { "type": "Point", "coordinates": [ 79.859976115839316, 6.899135588180828 ] } },
{ "type": "Feature", "properties": { "extractedTreeId": "1142", "height": 20.071000115246665, "dbh": 0.0, "elevation": 7.7659997130919622 }, "geometry": { "type": "Point", "coordinates": [ 79.859923230252861, 6.899474795204777 ] } },
{ "type": "Feature", "properties": { "extractedTreeId": "1143", "height": 19.700999723467444, "dbh": 0.0, "elevation": 7.8850001773504319 }, "geometry": { "type": "Point", "coordinates": [ 79.859836819228363, 6.899615241461468 ] } },
{ "type": "Feature", "properties": { "extractedTreeId": "1144", "height": 23.579999924723385, "dbh": 0.74709647893905595, "elevation": 7.8039998349506918 }, "geometry": { "type": "Point", "coordinates": [ 79.859773413770498, 6.899439450444934 ] } },
{ "type": "Feature", "properties": { "extractedTreeId": "1145", "height": 21.223999891618011, "dbh": 0.0, "elevation": 7.8059997765033318 }, "geometry": { "type": "Point", "coordinates": [ 79.859760438402233, 6.899859157769848 ] } },
{ "type": "Feature", "properties": { "extractedTreeId": "1146", "height": 15.790000013350728, "dbh": 0.070240661501884002, "elevation": 7.8769997386939536 }, "geometry": { "type": "Point", "coordinates": [ 79.859707436784404, 6.900016359678573 ] } },
{ "type": "Feature", "properties": { "extractedTreeId": "1147", "height": 11.685000304758407, "dbh": 0.395491153001785, "elevation": 6.6479998154045576 }, "geometry": { "type": "Point", "coordinates": [ 79.861504754092053, 6.901143391137738 ] } },
{ "type": "Feature", "properties": { "extractedTreeId": "1148", "height": 12.337999632220924, "dbh": 0.41877648234367398, "elevation": 6.8830002609675516 }, "geometry": { "type": "Point", "coordinates": [ 79.861448068451097, 6.901047029758812 ] } },
{ "type": "Feature", "properties": { "extractedTreeId": "1149", "height": 10.242000254098684, "dbh": 0.28475838899612399, "elevation": 6.6239996200163063 }, "geometry": { "type": "Point", "coordinates": [ 79.861526168411459, 6.901224894719676 ] } },
{ "type": "Feature", "properties": { "extractedTreeId": "1150", "height": 16.013000429518012, "dbh": 0.34842953085899397, "elevation": 6.8149994550874 }, "geometry": { "type": "Point", "coordinates": [ 79.861661901613161, 6.901040887124853 ] } },
{ "type": "Feature", "properties": { "extractedTreeId": "1151", "height": 12.807999523943916, "dbh": 0.0, "elevation": 6.8570003730592619 }, "geometry": { "type": "Point", "coordinates": [ 79.861732567522139, 6.901061327395972 ] } },
{ "type": "Feature", "properties": { "extractedTreeId": "1152", "height": 21.228155995006659, "dbh": 0.0, "elevation": 7.5488246797013199 }, "geometry": { "type": "Point", "coordinates": [ 79.864238581904161, 6.906670030985597 ] } },
{ "type": "Feature", "properties": { "extractedTreeId": "1153", "height": 13.99991557707235, "dbh": 0.0049076387658720001, "elevation": 7.3987281912025216 }, "geometry": { "type": "Point", "coordinates": [ 79.863930929025983, 6.906904750919677 ] } },
{ "type": "Feature", "properties": { "extractedTreeId": "1154", "height": 13.595898404964888, "dbh": 0.22111490368843101, "elevation": 7.2297289792969899 }, "geometry": { "type": "Point", "coordinates": [ 79.864020813142943, 6.907373204369292 ] } },
{ "type": "Feature", "properties": { "extractedTreeId": "1155", "height": 15.969855995448302, "dbh": 0.35308510065078702, "elevation": 7.1692709495779177 }, "geometry": { "type": "Point", "coordinates": [ 79.864010847103799, 6.907306566981545 ] } },
{ "type": "Feature", "properties": { "extractedTreeId": "1156", "height": 21.553938510467173, "dbh": 1.3686175346374509, "elevation": 7.598061615417838 }, "geometry": { "type": "Point", "coordinates": [ 79.862917346890029, 6.905528456660987 ] } },
{ "type": "Feature", "properties": { "extractedTreeId": "1157", "height": 18.51600003883998, "dbh": 1.2630846500396731, "elevation": 7.2620000145657819 }, "geometry": { "type": "Point", "coordinates": [ 79.862805136441338, 6.905505546393601 ] } },
{ "type": "Feature", "properties": { "extractedTreeId": "1158", "height": 20.898000457907315, "dbh": 1.363494396209717, "elevation": 7.0269994314664643 }, "geometry": { "type": "Point", "coordinates": [ 79.862687906825187, 6.905482258827679 ] } },
{ "type": "Feature", "properties": { "extractedTreeId": "1159", "height": 12.829999558041399, "dbh": 0.45257821679115301, "elevation": 7.3570002941390884 }, "geometry": { "type": "Point", "coordinates": [ 79.862559209985108, 6.904999649962234 ] } },
{ "type": "Feature", "properties": { "extractedTreeId": "1160", "height": 11.231000179290772, "dbh": 0.32174833640499301, "elevation": 7.3109998130798344 }, "geometry": { "type": "Point", "coordinates": [ 79.862557974565846, 6.905057242708871 ] } },
{ "type": "Feature", "properties": { "extractedTreeId": "1161", "height": 14.274999970436099, "dbh": 0.39725995683248899, "elevation": 7.2620000267028804 }, "geometry": { "type": "Point", "coordinates": [ 79.86253707708876, 6.905112465609679 ] } },
{ "type": "Feature", "properties": { "extractedTreeId": "1162", "height": 14.097000473976136, "dbh": 0.77825016085882404, "elevation": 7.2819995307922358 }, "geometry": { "type": "Point", "coordinates": [ 79.862510642236529, 6.90516302093146 ] } },
{ "type": "Feature", "properties": { "extractedTreeId": "1163", "height": 13.609000436782839, "dbh": 0.0072246782270360002, "elevation": 7.3099994087219242 }, "geometry": { "type": "Point", "coordinates": [ 79.862558162752904, 6.90506267805921 ] } },
{ "type": "Feature", "properties": { "extractedTreeId": "1164", "height": 14.507000379085545, "dbh": 0.59462986791160699, "elevation": 7.4539994621276859 }, "geometry": { "type": "Point", "coordinates": [ 79.862546127324407, 6.904884659173238 ] } },
{ "type": "Feature", "properties": { "extractedTreeId": "1165", "height": 12.267745204071954, "dbh": 0.0, "elevation": 7.4832548989248737 }, "geometry": { "type": "Point", "coordinates": [ 79.862467549816472, 6.905434691168402 ] } },
{ "type": "Feature", "properties": { "extractedTreeId": "1166", "height": 22.80967048054768, "dbh": 0.0, "elevation": 7.3125558560417758 }, "geometry": { "type": "Point", "coordinates": [ 79.864371891384977, 6.907968995308175 ] } },
{ "type": "Feature", "properties": { "extractedTreeId": "1167", "height": 15.312312844683227, "dbh": 0.0, "elevation": 7.2184141632929482 }, "geometry": { "type": "Point", "coordinates": [ 79.864342056985507, 6.907960225819091 ] } },
{ "type": "Feature", "properties": { "extractedTreeId": "1168", "height": 19.619000068183652, "dbh": 0.0, "elevation": 7.1459997334520944 }, "geometry": { "type": "Point", "coordinates": [ 79.862440739260606, 6.903976949647433 ] } },
{ "type": "Feature", "properties": { "extractedTreeId": "1169", "height": 20.597000360393995, "dbh": 0.231955870985985, "elevation": 7.2159995404238764 }, "geometry": { "type": "Point", "coordinates": [ 79.862436201706885, 6.904122711800148 ] } },
{ "type": "Feature", "properties": { "extractedTreeId": "1170", "height": 22.31599996471061, "dbh": 0.0, "elevation": 7.2200002222095643 }, "geometry": { "type": "Point", "coordinates": [ 79.86242280452521, 6.904051212941854 ] } },
{ "type": "Feature", "properties": { "extractedTreeId": "1171", "height": 12.753999710336831, "dbh": 0.0, "elevation": 7.1960001532877458 }, "geometry": { "type": "Point", "coordinates": [ 79.862444833128237, 6.904212429372926 ] } },
{ "type": "Feature", "properties": { "extractedTreeId": "1172", "height": 13.180000170952543, "dbh": 0.222491055727005, "elevation": 7.2449998376305276 }, "geometry": { "type": "Point", "coordinates": [ 79.862449810314686, 6.904307254718463 ] } },
{ "type": "Feature", "properties": { "extractedTreeId": "1173", "height": 13.113000265100748, "dbh": 0.699817895889282, "elevation": 7.2489995990006664 }, "geometry": { "type": "Point", "coordinates": [ 79.862453087541311, 6.904356648691796 ] } },
{ "type": "Feature", "properties": { "extractedTreeId": "1174", "height": 15.739999741294469, "dbh": 0.38513800501823398, "elevation": 7.4130000717853699 }, "geometry": { "type": "Point", "coordinates": [ 79.862498659212832, 6.904466881278031 ] } },
{ "type": "Feature", "properties": { "extractedTreeId": "1175", "height": 13.23300030651955, "dbh": 0.43333083391189597, "elevation": 7.4849995637807476 }, "geometry": { "type": "Point", "coordinates": [ 79.862517095635695, 6.904655093788937 ] } },
{ "type": "Feature", "properties": { "extractedTreeId": "1176", "height": 14.461000000139776, "dbh": 0.57136756181716897, "elevation": 7.4549998839887976 }, "geometry": { "type": "Point", "coordinates": [ 79.862530878908188, 6.904768973231695 ] } },
{ "type": "Feature", "properties": { "extractedTreeId": "1177", "height": 0.0, "dbh": 0.0, "elevation": 7.4069995766207519 }, "geometry": { "type": "Point", "coordinates": [ 79.86250311696989, 6.904560497223345 ] } },
{ "type": "Feature", "properties": { "extractedTreeId": "1178", "height": 9.8710005564408547, "dbh": 0.59370774030685403, "elevation": 7.36699953511188 }, "geometry": { "type": "Point", "coordinates": [ 79.862487831723627, 6.905028790148651 ] } },
{ "type": "Feature", "properties": { "extractedTreeId": "1179", "height": 6.4630005228063441, "dbh": 1.142207145690918, "elevation": 7.3699998357752001 }, "geometry": { "type": "Point", "coordinates": [ 79.862495931890365, 6.904951431773419 ] } },
{ "type": "Feature", "properties": { "extractedTreeId": "1180", "height": 13.312000089576483, "dbh": 0.62300354242324796, "elevation": 6.8109998732302204 }, "geometry": { "type": "Point", "coordinates": [ 79.861337633956822, 6.900748986910693 ] } },
{ "type": "Feature", "properties": { "extractedTreeId": "1181", "height": 7.7400002553314984, "dbh": 0.85969108343124401, "elevation": 6.9429997675566897 }, "geometry": { "type": "Point", "coordinates": [ 79.861243975280402, 6.900552249854794 ] } },
{ "type": "Feature", "properties": { "extractedTreeId": "1182", "height": 10.761000382918471, "dbh": 0.0, "elevation": 6.9099997963723023 }, "geometry": { "type": "Point", "coordinates": [ 79.861267860870754, 6.900592037642362 ] } },
{ "type": "Feature", "properties": { "extractedTreeId": "1183", "height": 7.7550003465700179, "dbh": 0.90446597337722801, "elevation": 6.9499997526121122 }, "geometry": { "type": "Point", "coordinates": [ 79.861210128337049, 6.900472627038881 ] } },
{ "type": "Feature", "properties": { "extractedTreeId": "1184", "height": 6.2240002201239442, "dbh": 0.70867931842803999, "elevation": 6.9609994212945141 }, "geometry": { "type": "Point", "coordinates": [ 79.861193411753149, 6.900426460014496 ] } },
{ "type": "Feature", "properties": { "extractedTreeId": "1185", "height": 9.1889996520704962, "dbh": 0.14715151488781, "elevation": 6.930000241117984 }, "geometry": { "type": "Point", "coordinates": [ 79.861172136308397, 6.900375311511596 ] } },
{ "type": "Feature", "properties": { "extractedTreeId": "1186", "height": 8.75000049565514, "dbh": 0.0, "elevation": 6.9519995806388097 }, "geometry": { "type": "Point", "coordinates": [ 79.86115550930306, 6.900376686626243 ] } },
{ "type": "Feature", "properties": { "extractedTreeId": "1187", "height": 14.128999769310431, "dbh": 0.68980914354324296, "elevation": 6.9910000961022876 }, "geometry": { "type": "Point", "coordinates": [ 79.861089447715329, 6.900194907035578 ] } },
{ "type": "Feature", "properties": { "extractedTreeId": "1188", "height": 12.701999775793237, "dbh": 0.60404884815216098, "elevation": 6.9390000725725516 }, "geometry": { "type": "Point", "coordinates": [ 79.861107838265639, 6.900235276612642 ] } },
{ "type": "Feature", "properties": { "extractedTreeId": "1189", "height": 10.449000620125457, "dbh": 0.18157786130905201, "elevation": 6.9399994943154617 }, "geometry": { "type": "Point", "coordinates": [ 79.861123239004812, 6.900265931801422 ] } },
{ "type": "Feature", "properties": { "extractedTreeId": "1190", "height": 10.151999941427906, "dbh": 0.18396802246570601, "elevation": 6.9099997915432896 }, "geometry": { "type": "Point", "coordinates": [ 79.861001498602263, 6.900001311606554 ] } },
{ "type": "Feature", "properties": { "extractedTreeId": "1191", "height": 16.854999774947952, "dbh": 0.42007538676261902, "elevation": 7.2360000018922621 }, "geometry": { "type": "Point", "coordinates": [ 79.861122581907097, 6.899747352237839 ] } },
{ "type": "Feature", "properties": { "extractedTreeId": "1192", "height": 16.941999643010224, "dbh": 0.25228962302207902, "elevation": 7.1140002864178804 }, "geometry": { "type": "Point", "coordinates": [ 79.861145215538158, 6.899819000551495 ] } },
{ "type": "Feature", "properties": { "extractedTreeId": "1193", "height": 15.853000188052185, "dbh": 0.44353741407394398, "elevation": 7.2869996135835624 }, "geometry": { "type": "Point", "coordinates": [ 79.861215580289027, 6.899999028142436 ] } },
{ "type": "Feature", "properties": { "extractedTreeId": "1194", "height": 13.839999929854859, "dbh": 0.0, "elevation": 6.9840001273656016 }, "geometry": { "type": "Point", "coordinates": [ 79.861250987232978, 6.900140152623016 ] } },
{ "type": "Feature", "properties": { "extractedTreeId": "1195", "height": 19.351000331642293, "dbh": 0.0, "elevation": 6.9399994928816362 }, "geometry": { "type": "Point", "coordinates": [ 79.860942507747666, 6.899427556774263 ] } },
{ "type": "Feature", "properties": { "extractedTreeId": "1196", "height": 15.741000283004066, "dbh": 0.0, "elevation": 7.031999534844144 }, "geometry": { "type": "Point", "coordinates": [ 79.860743600205865, 6.899332611244134 ] } },
{ "type": "Feature", "properties": { "extractedTreeId": "1197", "height": 13.305000122763799, "dbh": 0.0, "elevation": 7.114999709866364 }, "geometry": { "type": "Point", "coordinates": [ 79.860623839745216, 6.899093563281608 ] } },
{ "type": "Feature", "properties": { "extractedTreeId": "1198", "height": 17.118999713882065, "dbh": 0.19731503725051899, "elevation": 6.9630002403415681 }, "geometry": { "type": "Point", "coordinates": [ 79.860811847313613, 6.899074691858366 ] } },
{ "type": "Feature", "properties": { "extractedTreeId": "1200", "height": 0.0, "dbh": 0.0, "elevation": 7.2429999655748762 }, "geometry": { "type": "Point", "coordinates": [ 79.860616988912994, 6.898634859353589 ] } },
{ "type": "Feature", "properties": { "extractedTreeId": "1201", "height": 14.098999668775232, "dbh": 0.0, "elevation": 7.2270001898909841 }, "geometry": { "type": "Point", "coordinates": [ 79.860593099163907, 6.898412169717724 ] } },
{ "type": "Feature", "properties": { "extractedTreeId": "1202", "height": 12.818999792367958, "dbh": 0.83117550611496005, "elevation": 7.2670001084499178 }, "geometry": { "type": "Point", "coordinates": [ 79.860685419172512, 6.898631766759928 ] } },
{ "type": "Feature", "properties": { "extractedTreeId": "1203", "height": 15.137000372898054, "dbh": 0.35609641671180697, "elevation": 7.1709994711762004 }, "geometry": { "type": "Point", "coordinates": [ 79.860349884698721, 6.898586152802292 ] } },
{ "type": "Feature", "properties": { "extractedTreeId": "1204", "height": 11.765000153098431, "dbh": 0.26650413870811501, "elevation": 7.2049998106619499 }, "geometry": { "type": "Point", "coordinates": [ 79.860424254120971, 6.898072391734395 ] } },
{ "type": "Feature", "properties": { "extractedTreeId": "1205", "height": 5.0609998586845117, "dbh": 0.38540172576904302, "elevation": 7.1020001832771644 }, "geometry": { "type": "Point", "coordinates": [ 79.860403782407658, 6.898020291350268 ] } },
{ "type": "Feature", "properties": { "extractedTreeId": "1206", "height": 20.211000545616326, "dbh": 0.0, "elevation": 1.0049993131802739 }, "geometry": { "type": "Point", "coordinates": [ 79.860177471654296, 6.897953645518982 ] } },
{ "type": "Feature", "properties": { "extractedTreeId": "1208", "height": 16.664552010926734, "dbh": 0.130419060587883, "elevation": 7.3991383899562182 }, "geometry": { "type": "Point", "coordinates": [ 79.863755731535079, 6.906541551093738 ] } },
{ "type": "Feature", "properties": { "extractedTreeId": "1210", "height": 13.887017887956382, "dbh": 0.0, "elevation": 7.157341534533014 }, "geometry": { "type": "Point", "coordinates": [ 79.863727277737055, 6.906513082202741 ] } },
{ "type": "Feature", "properties": { "extractedTreeId": "1211", "height": 14.662081046331963, "dbh": 0.0, "elevation": 7.1568145089699344 }, "geometry": { "type": "Point", "coordinates": [ 79.863727277737183, 6.906513082202509 ] } },
{ "type": "Feature", "properties": { "extractedTreeId": "1212", "height": 10.820246885927588, "dbh": 0.0, "elevation": 7.3950605651262622 }, "geometry": { "type": "Point", "coordinates": [ 79.863801397571081, 6.906632580516859 ] } },
{ "type": "Feature", "properties": { "extractedTreeId": "1213", "height": 12.652085705559344, "dbh": 0.0, "elevation": 7.5488403368031003 }, "geometry": { "type": "Point", "coordinates": [ 79.863837478649387, 6.906743971580408 ] } },
{ "type": "Feature", "properties": { "extractedTreeId": "1214", "height": 9.4973065260254366, "dbh": 0.238452538847923, "elevation": 10.937551057779878 }, "geometry": { "type": "Point", "coordinates": [ 79.863750229969071, 6.906595367225943 ] } },
{ "type": "Feature", "properties": { "extractedTreeId": "1215", "height": 14.925179567566403, "dbh": 0.0, "elevation": 7.3935166698033656 }, "geometry": { "type": "Point", "coordinates": [ 79.863808633331416, 6.906690418239314 ] } },
{ "type": "Feature", "properties": { "extractedTreeId": "1216", "height": 13.026071607472396, "dbh": 0.0, "elevation": 7.1652003897850678 }, "geometry": { "type": "Point", "coordinates": [ 79.863830843335791, 6.906591174093776 ] } },
{ "type": "Feature", "properties": { "extractedTreeId": "1217", "height": 14.755571541164493, "dbh": 0.0, "elevation": 7.2256861128312524 }, "geometry": { "type": "Point", "coordinates": [ 79.863954792086659, 6.907007891149234 ] } }
]
}
