{
"type": "FeatureCollection",
"name": "fences",
"crs": { "type": "name", "properties": { "name": "urn:ogc:def:crs:OGC:1.3:CRS84" } },
"features": [
{ "type": "Feature", "properties": { "fenceId": "1" }, "geometry": { "type": "LineString", "coordinates": [ [ 79.859266984727938, 6.906083874683978 ], [ 79.859229806335662, 6.906031797469138 ] ] } },
{ "type": "Feature", "properties": { "fenceId": "2" }, "geometry": { "type": "LineString", "coordinates": [ [ 79.85922691484167, 6.906022008122632 ], [ 79.859251117219486, 6.905935631322264 ] ] } },
{ "type": "Feature", "properties": { "fenceId": "3" }, "geometry": { "type": "LineString", "coordinates": [ [ 79.859266984425361, 6.906083865412217 ], [ 79.859229806033071, 6.906031788197383 ] ] } },
{ "type": "Feature", "properties": { "fenceId": "4" }, "geometry": { "type": "LineString", "coordinates": [ [ 79.859226914539079, 6.90602199885088 ], [ 79.859251116916909, 6.905935622050521 ] ] } },
{ "type": "Feature", "properties": { "fenceId": "5" }, "geometry": { "type": "LineString", "coordinates": [ [ 79.859266984425361, 6.906083865412217 ], [ 79.859229806033071, 6.906031788197383 ] ] } },
{ "type": "Feature", "properties": { "fenceId": "6" }, "geometry": { "type": "LineString", "coordinates": [ [ 79.859226914539079, 6.90602199885088 ], [ 79.859251116916909, 6.905935622050521 ] ] } },
{ "type": "Feature", "properties": { "fenceId": "7" }, "geometry": { "type": "LineString", "coordinates": [ [ 79.863499139279853, 6.90967829619299 ], [ 79.863481162781596, 6.909698771673896 ], [ 79.863480723665518, 6.909699604939879 ], [ 79.863461725196728, 6.909718690913619 ], [ 79.863460781144695, 6.909719229290706 ], [ 79.863437763950188, 6.90973367476084 ], [ 79.863436589223952, 6.909734219914495 ], [ 79.863410663630674, 6.909741429881671 ] ] } },
{ "type": "Feature", "properties": { "fenceId": "8" }, "geometry": { "type": "LineString", "coordinates": [ [ 79.863441119346703, 6.909738264717953 ], [ 79.863441137293862, 6.909738333050112 ] ] } },
{ "type": "Feature", "properties": { "fenceId": "9" }, "geometry": { "type": "LineString", "coordinates": [ [ 79.862862305731241, 6.909508433775568 ], [ 79.862827919612798, 6.909492858968683 ] ] } },
{ "type": "Feature", "properties": { "fenceId": "10" }, "geometry": { "type": "LineString", "coordinates": [ [ 79.863629844945464, 6.90995421659328 ], [ 79.863619581285107, 6.909941152078762 ], [ 79.86361883328, 6.90994019004125 ], [ 79.863605086435982, 6.909916467842597 ], [ 79.863595372105678, 6.909888311181827 ], [ 79.863590197639311, 6.909862050379659 ] ] } },
{ "type": "Feature", "properties": { "fenceId": "11" }, "geometry": { "type": "LineString", "coordinates": [ [ 79.863590197640804, 6.909862050378832 ], [ 79.863588403892564, 6.909836373388362 ], [ 79.863592793222779, 6.909805803656728 ], [ 79.863599885052651, 6.909778624418822 ] ] } },
{ "type": "Feature", "properties": { "fenceId": "12" }, "geometry": { "type": "LineString", "coordinates": [ [ 79.86359961416413, 6.909778765702272 ], [ 79.863609824783509, 6.909752090363915 ], [ 79.863623350070029, 6.909725097255775 ], [ 79.8636525359845, 6.909679421957277 ] ] } }
]
}
