{
"type": "FeatureCollection",
"name": "forbidLines",
"crs": { "type": "name", "properties": { "name": "urn:ogc:def:crs:OGC:1.3:CRS84" } },
"features": [
{ "type": "Feature", "properties": { "forbidLineId": "1" }, "geometry": { "type": "LineString", "coordinates": [ [ 79.860293561109344, 6.905334143227557 ], [ 79.860349927011129, 6.905380158676409 ] ] } },
{ "type": "Feature", "properties": { "forbidLineId": "2" }, "geometry": { "type": "LineString", "coordinates": [ [ 79.860332892465962, 6.905382586264988 ], [ 79.860290947997299, 6.90534834404501 ] ] } },
{ "type": "Feature", "properties": { "forbidLineId": "3" }, "geometry": { "type": "LineString", "coordinates": [ [ 79.860315752443043, 6.905384927744096 ], [ 79.860293284955148, 6.90536658595319 ] ] } },
{ "type": "Feature", "properties": { "forbidLineId": "4" }, "geometry": { "type": "LineString", "coordinates": [ [ 79.86029861242001, 6.905387269222566 ], [ 79.86029562191311, 6.905384827861365 ] ] } },
{ "type": "Feature", "properties": { "forbidLineId": "5" }, "geometry": { "type": "LineString", "coordinates": [ [ 79.860310701130416, 6.905331801749017 ], [ 79.860347590051077, 6.905361916768222 ] ] } },
{ "type": "Feature", "properties": { "forbidLineId": "6" }, "geometry": { "type": "LineString", "coordinates": [ [ 79.860327841151403, 6.905329460269836 ], [ 79.860345253091083, 6.905343674860038 ] ] } },
{ "type": "Feature", "properties": { "forbidLineId": "7" }, "geometry": { "type": "LineString", "coordinates": [ [ 79.860313884508585, 6.905385182920464 ], [ 79.860344980894823, 6.905341550142725 ] ] } },
{ "type": "Feature", "properties": { "forbidLineId": "8" }, "geometry": { "type": "LineString", "coordinates": [ [ 79.86033131955142, 6.905382801139088 ], [ 79.860347378787566, 6.905360267681623 ] ] } },
{ "type": "Feature", "properties": { "forbidLineId": "9" }, "geometry": { "type": "LineString", "coordinates": [ [ 79.860348754594156, 6.905380419357051 ], [ 79.86034977668038, 6.905378985220522 ] ] } },
{ "type": "Feature", "properties": { "forbidLineId": "10" }, "geometry": { "type": "LineString", "coordinates": [ [ 79.860296449465679, 6.905387564701179 ], [ 79.860338940158954, 6.905327944046425 ] ] } },
{ "type": "Feature", "properties": { "forbidLineId": "11" }, "geometry": { "type": "LineString", "coordinates": [ [ 79.860293647306719, 6.905369414409686 ], [ 79.860321505118165, 6.905330325828357 ] ] } },
{ "type": "Feature", "properties": { "forbidLineId": "12" }, "geometry": { "type": "LineString", "coordinates": [ [ 79.860291249416136, 6.905350696870796 ], [ 79.860304070077305, 6.905332707609623 ] ] } },
{ "type": "Feature", "properties": { "forbidLineId": "13" }, "geometry": { "type": "LineString", "coordinates": [ [ 79.860349939666946, 6.905380257465533 ], [ 79.860295980730982, 6.905387628734465 ], [ 79.860289204976823, 6.905334738313702 ], [ 79.860343163906663, 6.90532736704475 ], [ 79.860349939666946, 6.905380257465533 ] ] } },
{ "type": "Feature", "properties": { "forbidLineId": "14" }, "geometry": { "type": "LineString", "coordinates": [ [ 79.860293560806852, 6.905334133955896 ], [ 79.860349926708651, 6.905380149404741 ] ] } },
{ "type": "Feature", "properties": { "forbidLineId": "15" }, "geometry": { "type": "LineString", "coordinates": [ [ 79.860332892163484, 6.905382576993319 ], [ 79.860290947694793, 6.905348334773349 ] ] } },
{ "type": "Feature", "properties": { "forbidLineId": "16" }, "geometry": { "type": "LineString", "coordinates": [ [ 79.860315752140551, 6.905384918472426 ], [ 79.86029328465267, 6.905366576681522 ] ] } },
{ "type": "Feature", "properties": { "forbidLineId": "17" }, "geometry": { "type": "LineString", "coordinates": [ [ 79.860298612117518, 6.905387259950896 ], [ 79.860295621610618, 6.905384818589696 ] ] } },
{ "type": "Feature", "properties": { "forbidLineId": "18" }, "geometry": { "type": "LineString", "coordinates": [ [ 79.860310700827924, 6.905331792477357 ], [ 79.860347589748599, 6.905361907496562 ] ] } },
{ "type": "Feature", "properties": { "forbidLineId": "19" }, "geometry": { "type": "LineString", "coordinates": [ [ 79.86032784084891, 6.905329450998175 ], [ 79.860345252788605, 6.905343665588371 ] ] } },
{ "type": "Feature", "properties": { "forbidLineId": "20" }, "geometry": { "type": "LineString", "coordinates": [ [ 79.860313884206107, 6.905385173648793 ], [ 79.86034498059233, 6.905341540871063 ] ] } },
{ "type": "Feature", "properties": { "forbidLineId": "21" }, "geometry": { "type": "LineString", "coordinates": [ [ 79.860331319248928, 6.905382791867419 ], [ 79.860347378485073, 6.905360258409956 ] ] } },
{ "type": "Feature", "properties": { "forbidLineId": "22" }, "geometry": { "type": "LineString", "coordinates": [ [ 79.860348754291664, 6.90538041008538 ], [ 79.860349776377916, 6.905378975948854 ] ] } },
{ "type": "Feature", "properties": { "forbidLineId": "23" }, "geometry": { "type": "LineString", "coordinates": [ [ 79.860296449163187, 6.905387555429508 ], [ 79.860338939856476, 6.905327934774765 ] ] } },
{ "type": "Feature", "properties": { "forbidLineId": "24" }, "geometry": { "type": "LineString", "coordinates": [ [ 79.860293647004227, 6.905369405138016 ], [ 79.860321504815701, 6.905330316556693 ] ] } },
{ "type": "Feature", "properties": { "forbidLineId": "25" }, "geometry": { "type": "LineString", "coordinates": [ [ 79.860291249113644, 6.905350687599133 ], [ 79.860304069774827, 6.905332698337963 ] ] } },
{ "type": "Feature", "properties": { "forbidLineId": "26" }, "geometry": { "type": "LineString", "coordinates": [ [ 79.860349939364454, 6.905380248193865 ], [ 79.860295980428504, 6.905387619462797 ], [ 79.860289204674331, 6.905334729042043 ], [ 79.860343163604185, 6.905327357773093 ], [ 79.860349939364454, 6.905380248193865 ] ] } },
{ "type": "Feature", "properties": { "forbidLineId": "27" }, "geometry": { "type": "LineString", "coordinates": [ [ 79.860293560806852, 6.905334133955896 ], [ 79.860349926708651, 6.905380149404741 ] ] } },
{ "type": "Feature", "properties": { "forbidLineId": "28" }, "geometry": { "type": "LineString", "coordinates": [ [ 79.860332892163484, 6.905382576993319 ], [ 79.860290947694793, 6.905348334773349 ] ] } },
{ "type": "Feature", "properties": { "forbidLineId": "29" }, "geometry": { "type": "LineString", "coordinates": [ [ 79.860315752140551, 6.905384918472426 ], [ 79.86029328465267, 6.905366576681522 ] ] } },
{ "type": "Feature", "properties": { "forbidLineId": "30" }, "geometry": { "type": "LineString", "coordinates": [ [ 79.860298612117518, 6.905387259950896 ], [ 79.860295621610618, 6.905384818589696 ] ] } },
{ "type": "Feature", "properties": { "forbidLineId": "31" }, "geometry": { "type": "LineString", "coordinates": [ [ 79.860310700827924, 6.905331792477357 ], [ 79.860347589748599, 6.905361907496562 ] ] } },
{ "type": "Feature", "properties": { "forbidLineId": "32" }, "geometry": { "type": "LineString", "coordinates": [ [ 79.86032784084891, 6.905329450998175 ], [ 79.860345252788605, 6.905343665588371 ] ] } },
{ "type": "Feature", "properties": { "forbidLineId": "33" }, "geometry": { "type": "LineString", "coordinates": [ [ 79.860313884206107, 6.905385173648793 ], [ 79.86034498059233, 6.905341540871063 ] ] } },
{ "type": "Feature", "properties": { "forbidLineId": "34" }, "geometry": { "type": "LineString", "coordinates": [ [ 79.860331319248928, 6.905382791867419 ], [ 79.860347378485073, 6.905360258409956 ] ] } },
{ "type": "Feature", "properties": { "forbidLineId": "35" }, "geometry": { "type": "LineString", "coordinates": [ [ 79.860348754291664, 6.90538041008538 ], [ 79.860349776377916, 6.905378975948854 ] ] } },
{ "type": "Feature", "properties": { "forbidLineId": "36" }, "geometry": { "type": "LineString", "coordinates": [ [ 79.860296449163187, 6.905387555429508 ], [ 79.860338939856476, 6.905327934774765 ] ] } },
{ "type": "Feature", "properties": { "forbidLineId": "37" }, "geometry": { "type": "LineString", "coordinates": [ [ 79.860293647004227, 6.905369405138016 ], [ 79.860321504815701, 6.905330316556693 ] ] } },
{ "type": "Feature", "properties": { "forbidLineId": "38" }, "geometry": { "type": "LineString", "coordinates": [ [ 79.860291249113644, 6.905350687599133 ], [ 79.860304069774827, 6.905332698337963 ] ] } },
{ "type": "Feature", "properties": { "forbidLineId": "39" }, "geometry": { "type": "LineString", "coordinates": [ [ 79.860349939364454, 6.905380248193865 ], [ 79.860295980428504, 6.905387619462797 ], [ 79.860289204674331, 6.905334729042043 ], [ 79.860343163604185, 6.905327357773093 ], [ 79.860349939364454, 6.905380248193865 ] ] } },
{ "type": "Feature", "properties": { "forbidLineId": "40" }, "geometry": { "type": "LineString", "coordinates": [ [ 79.859544674438126, 6.906617415066331 ], [ 79.859543228221511, 6.906660874349136 ] ] } },
{ "type": "Feature", "properties": { "forbidLineId": "41" }, "geometry": { "type": "LineString", "coordinates": [ [ 79.859554192094521, 6.906630314950396 ], [ 79.859552444498632, 6.90665999285332 ] ] } },
{ "type": "Feature", "properties": { "forbidLineId": "42" }, "geometry": { "type": "LineString", "coordinates": [ [ 79.859563709751399, 6.906643214834332 ], [ 79.859562271504402, 6.906658853213065 ] ] } },
{ "type": "Feature", "properties": { "forbidLineId": "43" }, "geometry": { "type": "LineString", "coordinates": [ [ 79.859535156782243, 6.906604515182138 ], [ 79.859533432162351, 6.906648494167507 ] ] } },
{ "type": "Feature", "properties": { "forbidLineId": "44" }, "geometry": { "type": "LineString", "coordinates": [ [ 79.859525639126844, 6.906591615297813 ], [ 79.859523914506283, 6.906635594283065 ] ] } },
{ "type": "Feature", "properties": { "forbidLineId": "45" }, "geometry": { "type": "LineString", "coordinates": [ [ 79.859515822108136, 6.906586349390253 ], [ 79.859514396850699, 6.906622694398489 ] ] } },
{ "type": "Feature", "properties": { "forbidLineId": "46" }, "geometry": { "type": "LineString", "coordinates": [ [ 79.85950533828553, 6.906598087423487 ], [ 79.859504879195612, 6.906609794513787 ] ] } },
{ "type": "Feature", "properties": { "forbidLineId": "47" }, "geometry": { "type": "LineString", "coordinates": [ [ 79.859562081331276, 6.906641007733322 ], [ 79.859524339130758, 6.906636169803633 ] ] } },
{ "type": "Feature", "properties": { "forbidLineId": "48" }, "geometry": { "type": "LineString", "coordinates": [ [ 79.859569608185794, 6.906651209356095 ], [ 79.859531865984323, 6.906646371426885 ] ] } },
{ "type": "Feature", "properties": { "forbidLineId": "49" }, "geometry": { "type": "LineString", "coordinates": [ [ 79.859573771684069, 6.906657519534165 ], [ 79.859539392838187, 6.906656573050055 ] ] } },
{ "type": "Feature", "properties": { "forbidLineId": "50" }, "geometry": { "type": "LineString", "coordinates": [ [ 79.859554554477072, 6.906630806110469 ], [ 79.859516812277505, 6.906625968180301 ] ] } },
{ "type": "Feature", "properties": { "forbidLineId": "51" }, "geometry": { "type": "LineString", "coordinates": [ [ 79.859547027623194, 6.906620604487538 ], [ 79.859509285424565, 6.906615766556888 ] ] } },
{ "type": "Feature", "properties": { "forbidLineId": "52" }, "geometry": { "type": "LineString", "coordinates": [ [ 79.859539500769614, 6.906610402864523 ], [ 79.859501758571938, 6.906605564933392 ] ] } },
{ "type": "Feature", "properties": { "forbidLineId": "53" }, "geometry": { "type": "LineString", "coordinates": [ [ 79.859506380452729, 6.906596920578802 ], [ 79.859531973916347, 6.906600201241432 ] ] } },
{ "type": "Feature", "properties": { "forbidLineId": "54" }, "geometry": { "type": "LineString", "coordinates": [ [ 79.859513782826014, 6.906588632637784 ], [ 79.859524447063379, 6.906589999618259 ] ] } },
{ "type": "Feature", "properties": { "forbidLineId": "55" }, "geometry": { "type": "LineString", "coordinates": [ [ 79.859500356733776, 6.906603664932653 ], [ 79.85951907048559, 6.90658271239965 ], [ 79.859574225098712, 6.906657466950419 ], [ 79.859543140102659, 6.906661071886398 ], [ 79.859500356733776, 6.906603664932653 ] ] } },
{ "type": "Feature", "properties": { "forbidLineId": "56" }, "geometry": { "type": "LineString", "coordinates": [ [ 79.858513761502806, 6.905481595297016 ], [ 79.858484416789921, 6.905551922346291 ] ] } },
{ "type": "Feature", "properties": { "forbidLineId": "57" }, "geometry": { "type": "LineString", "coordinates": [ [ 79.858501524832874, 6.905485840503104 ], [ 79.85848023606853, 6.905537088395297 ] ] } },
{ "type": "Feature", "properties": { "forbidLineId": "58" }, "geometry": { "type": "LineString", "coordinates": [ [ 79.858489254033586, 6.90549017795575 ], [ 79.858475866151878, 6.905523586022349 ] ] } },
{ "type": "Feature", "properties": { "forbidLineId": "59" }, "geometry": { "type": "LineString", "coordinates": [ [ 79.858476983234098, 6.905494515408051 ], [ 79.858471790634638, 6.905509872718227 ] ] } },
{ "type": "Feature", "properties": { "forbidLineId": "60" }, "geometry": { "type": "LineString", "coordinates": [ [ 79.858519701273124, 6.905494369833643 ], [ 79.858489695412757, 6.905564495291585 ] ] } },
{ "type": "Feature", "properties": { "forbidLineId": "61" }, "geometry": { "type": "LineString", "coordinates": [ [ 79.858525641043713, 6.90550714437023 ], [ 79.858497110850891, 6.905568668875211 ] ] } },
{ "type": "Feature", "properties": { "forbidLineId": "62" }, "geometry": { "type": "LineString", "coordinates": [ [ 79.858531580814599, 6.905519918906779 ], [ 79.858506323560761, 6.905573367268164 ] ] } },
{ "type": "Feature", "properties": { "forbidLineId": "63" }, "geometry": { "type": "LineString", "coordinates": [ [ 79.858537520585756, 6.905532693443291 ], [ 79.858513952031373, 6.905577987035967 ] ] } },
{ "type": "Feature", "properties": { "forbidLineId": "64" }, "geometry": { "type": "LineString", "coordinates": [ [ 79.858543460357197, 6.905545467979762 ], [ 79.858523083272942, 6.905583286766062 ] ] } },
{ "type": "Feature", "properties": { "forbidLineId": "65" }, "geometry": { "type": "LineString", "coordinates": [ [ 79.858549400128936, 6.905558242516194 ], [ 79.858530934320854, 6.905587705520313 ] ] } },
{ "type": "Feature", "properties": { "forbidLineId": "66" }, "geometry": { "type": "LineString", "coordinates": [ [ 79.858555339900946, 6.90557101705259 ], [ 79.858540840877509, 6.905593101255148 ] ] } },
{ "type": "Feature", "properties": { "forbidLineId": "67" }, "geometry": { "type": "LineString", "coordinates": [ [ 79.858561279673239, 6.905583791588946 ], [ 79.858552082014342, 6.905599607938139 ] ] } },
{ "type": "Feature", "properties": { "forbidLineId": "68" }, "geometry": { "type": "LineString", "coordinates": [ [ 79.858567219445817, 6.905596566125259 ], [ 79.858563159607939, 6.905605572387722 ] ] } },
{ "type": "Feature", "properties": { "forbidLineId": "69" }, "geometry": { "type": "LineString", "coordinates": [ [ 79.858492392146857, 6.905489068703049 ], [ 79.858524968159287, 6.905505697212223 ] ] } },
{ "type": "Feature", "properties": { "forbidLineId": "70" }, "geometry": { "type": "LineString", "coordinates": [ [ 79.858504884402876, 6.905484652970299 ], [ 79.858518388311396, 6.905491546075042 ] ] } },
{ "type": "Feature", "properties": { "forbidLineId": "71" }, "geometry": { "type": "LineString", "coordinates": [ [ 79.858479899890639, 6.905493484435445 ], [ 79.858531548007534, 6.905519848349351 ] ] } },
{ "type": "Feature", "properties": { "forbidLineId": "72" }, "geometry": { "type": "LineString", "coordinates": [ [ 79.858538127856136, 6.90553399948643 ], [ 79.85846854719432, 6.905498481858984 ] ] } },
{ "type": "Feature", "properties": { "forbidLineId": "73" }, "geometry": { "type": "LineString", "coordinates": [ [ 79.858544707705079, 6.905548150623465 ], [ 79.858472297792716, 6.905511768141178 ] ] } },
{ "type": "Feature", "properties": { "forbidLineId": "74" }, "geometry": { "type": "LineString", "coordinates": [ [ 79.858551287554377, 6.905562301760451 ], [ 79.858476300851308, 6.905524529117237 ] ] } },
{ "type": "Feature", "properties": { "forbidLineId": "75" }, "geometry": { "type": "LineString", "coordinates": [ [ 79.858557867404031, 6.905576452897392 ], [ 79.85848023606782, 6.905537088396388 ] ] } },
{ "type": "Feature", "properties": { "forbidLineId": "76" }, "geometry": { "type": "LineString", "coordinates": [ [ 79.858564447254011, 6.905590604034281 ], [ 79.858484830066885, 6.905551315999248 ] ] } },
{ "type": "Feature", "properties": { "forbidLineId": "77" }, "geometry": { "type": "LineString", "coordinates": [ [ 79.858468154047841, 6.905497636327049 ], [ 79.858513729482837, 6.905481526432348 ], [ 79.858574500665455, 6.905612225680905 ], [ 79.858487688459221, 6.905563365729344 ], [ 79.858468154047841, 6.905497636327049 ] ] } },
{ "type": "Feature", "properties": { "forbidLineId": "78" }, "geometry": { "type": "LineString", "coordinates": [ [ 79.858356828413292, 6.904195651178076 ], [ 79.858327088906378, 6.904232652898238 ] ] } },
{ "type": "Feature", "properties": { "forbidLineId": "79" }, "geometry": { "type": "LineString", "coordinates": [ [ 79.85835546049185, 6.904183628744375 ], [ 79.858325346529227, 6.904221632910208 ] ] } },
{ "type": "Feature", "properties": { "forbidLineId": "80" }, "geometry": { "type": "LineString", "coordinates": [ [ 79.858343946369857, 6.904184209185709 ], [ 79.858323459426288, 6.904209697567761 ] ] } },
{ "type": "Feature", "properties": { "forbidLineId": "81" }, "geometry": { "type": "LineString", "coordinates": [ [ 79.858332143411715, 6.904185148398066 ], [ 79.858321527895015, 6.904197481229415 ] ] } },
{ "type": "Feature", "properties": { "forbidLineId": "82" }, "geometry": { "type": "LineString", "coordinates": [ [ 79.85832034045356, 6.904186087610131 ], [ 79.858319804350785, 6.904186753518064 ] ] } },
{ "type": "Feature", "properties": { "forbidLineId": "83" }, "geometry": { "type": "LineString", "coordinates": [ [ 79.858358196334763, 6.904207673611774 ], [ 79.858332607885117, 6.904242550385832 ] ] } },
{ "type": "Feature", "properties": { "forbidLineId": "84" }, "geometry": { "type": "LineString", "coordinates": [ [ 79.858359564256276, 6.904219696045476 ], [ 79.858339427090513, 6.904248055817687 ] ] } },
{ "type": "Feature", "properties": { "forbidLineId": "85" }, "geometry": { "type": "LineString", "coordinates": [ [ 79.858360932177803, 6.904231718479177 ], [ 79.858345091963429, 6.904252629308128 ] ] } },
{ "type": "Feature", "properties": { "forbidLineId": "86" }, "geometry": { "type": "LineString", "coordinates": [ [ 79.858362300099387, 6.904243740912875 ], [ 79.858351713853807, 6.904257975438893 ] ] } },
{ "type": "Feature", "properties": { "forbidLineId": "87" }, "geometry": { "type": "LineString", "coordinates": [ [ 79.858363668020985, 6.904255763346574 ], [ 79.858358069827432, 6.904263106883679 ] ] } },
{ "type": "Feature", "properties": { "forbidLineId": "88" }, "geometry": { "type": "LineString", "coordinates": [ [ 79.858365035942597, 6.90426778578027 ], [ 79.858364132611797, 6.904268907832107 ] ] } },
{ "type": "Feature", "properties": { "forbidLineId": "89" }, "geometry": { "type": "LineString", "coordinates": [ [ 79.858358959731461, 6.904214382977818 ], [ 79.858319802217849, 6.904186734772131 ] ] } },
{ "type": "Feature", "properties": { "forbidLineId": "90" }, "geometry": { "type": "LineString", "coordinates": [ [ 79.858332294652698, 6.904185136363172 ], [ 79.858357670687823, 6.904203053788568 ] ] } },
{ "type": "Feature", "properties": { "forbidLineId": "91" }, "geometry": { "type": "LineString", "coordinates": [ [ 79.858345556299668, 6.904184081076615 ], [ 79.858356381644228, 6.904191724599314 ] ] } },
{ "type": "Feature", "properties": { "forbidLineId": "92" }, "geometry": { "type": "LineString", "coordinates": [ [ 79.858360248775114, 6.904225712167071 ], [ 79.85832175096013, 6.904198892047218 ] ] } },
{ "type": "Feature", "properties": { "forbidLineId": "93" }, "geometry": { "type": "LineString", "coordinates": [ [ 79.85836153781878, 6.904237041356325 ], [ 79.858323616931699, 6.904210693740712 ] ] } },
{ "type": "Feature", "properties": { "forbidLineId": "94" }, "geometry": { "type": "LineString", "coordinates": [ [ 79.858362826862489, 6.904248370545575 ], [ 79.858325346529227, 6.90422163290958 ] ] } },
{ "type": "Feature", "properties": { "forbidLineId": "95" }, "geometry": { "type": "LineString", "coordinates": [ [ 79.858364115906227, 6.904259699734822 ], [ 79.858327088905028, 6.904232652897908 ] ] } },
{ "type": "Feature", "properties": { "forbidLineId": "96" }, "geometry": { "type": "LineString", "coordinates": [ [ 79.858319734073504, 6.904186135862385 ], [ 79.85835542262852, 6.904183295969946 ], [ 79.858365154359575, 6.904268826527207 ], [ 79.858328075208902, 6.904238890966249 ], [ 79.858319734073504, 6.904186135862385 ] ] } },
{ "type": "Feature", "properties": { "forbidLineId": "97" }, "geometry": { "type": "LineString", "coordinates": [ [ 79.858546489177073, 6.903268315608506 ], [ 79.8584934446056, 6.903295590641163 ] ] } },
{ "type": "Feature", "properties": { "forbidLineId": "98" }, "geometry": { "type": "LineString", "coordinates": [ [ 79.858535915863143, 6.903263221928485 ], [ 79.858497928679384, 6.903282754590524 ] ] } },
{ "type": "Feature", "properties": { "forbidLineId": "99" }, "geometry": { "type": "LineString", "coordinates": [ [ 79.858523117919631, 6.903259272132634 ], [ 79.858502412752898, 6.903269918539803 ] ] } },
{ "type": "Feature", "properties": { "forbidLineId": "100" }, "geometry": { "type": "LineString", "coordinates": [ [ 79.858510319976375, 6.903255322336469 ], [ 79.858506896826114, 6.903257082488998 ] ] } },
{ "type": "Feature", "properties": { "forbidLineId": "101" }, "geometry": { "type": "LineString", "coordinates": [ [ 79.858542005104724, 6.9032811516598 ], [ 79.858488960531517, 6.903308426691726 ] ] } },
{ "type": "Feature", "properties": { "forbidLineId": "102" }, "geometry": { "type": "LineString", "coordinates": [ [ 79.85853752103209, 6.903293987711018 ], [ 79.858484476457178, 6.903321262742205 ] ] } },
{ "type": "Feature", "properties": { "forbidLineId": "103" }, "geometry": { "type": "LineString", "coordinates": [ [ 79.858533036959173, 6.903306823762149 ], [ 79.858479992382541, 6.903334098792603 ] ] } },
{ "type": "Feature", "properties": { "forbidLineId": "104" }, "geometry": { "type": "LineString", "coordinates": [ [ 79.858528552885971, 6.903319659813203 ], [ 79.85847550830762, 6.903346934842921 ] ] } },
{ "type": "Feature", "properties": { "forbidLineId": "105" }, "geometry": { "type": "LineString", "coordinates": [ [ 79.8585240688125, 6.903332495864177 ], [ 79.858478227252661, 6.903356887265635 ] ] } },
{ "type": "Feature", "properties": { "forbidLineId": "106" }, "geometry": { "type": "LineString", "coordinates": [ [ 79.85851958473873, 6.903345331915064 ], [ 79.858482286667382, 6.903365998137153 ] ] } },
{ "type": "Feature", "properties": { "forbidLineId": "107" }, "geometry": { "type": "LineString", "coordinates": [ [ 79.85851510066469, 6.903358167965878 ], [ 79.858485767577747, 6.903375461472411 ] ] } },
{ "type": "Feature", "properties": { "forbidLineId": "108" }, "geometry": { "type": "LineString", "coordinates": [ [ 79.858510616590365, 6.903371004016605 ], [ 79.858488998478848, 6.903383106183321 ] ] } },
{ "type": "Feature", "properties": { "forbidLineId": "109" }, "geometry": { "type": "LineString", "coordinates": [ [ 79.858506132515771, 6.903383840067255 ], [ 79.858492319260179, 6.903391374996299 ] ] } },
{ "type": "Feature", "properties": { "forbidLineId": "110" }, "geometry": { "type": "LineString", "coordinates": [ [ 79.858501648440878, 6.903396676117824 ], [ 79.858495776269308, 6.903399940529846 ] ] } },
{ "type": "Feature", "properties": { "forbidLineId": "111" }, "geometry": { "type": "LineString", "coordinates": [ [ 79.858518780472451, 6.903257933477563 ], [ 79.858534918330037, 6.903301438173493 ] ] } },
{ "type": "Feature", "properties": { "forbidLineId": "112" }, "geometry": { "type": "LineString", "coordinates": [ [ 79.858530051053222, 6.903261411887581 ], [ 79.858539758749259, 6.903287582049435 ] ] } },
{ "type": "Feature", "properties": { "forbidLineId": "113" }, "geometry": { "type": "LineString", "coordinates": [ [ 79.858541321634206, 6.903264890297353 ], [ 79.858544599168169, 6.903273725925288 ] ] } },
{ "type": "Feature", "properties": { "forbidLineId": "114" }, "geometry": { "type": "LineString", "coordinates": [ [ 79.858530077910501, 6.903315294297452 ], [ 79.85850766685553, 6.903254878212508 ] ] } },
{ "type": "Feature", "properties": { "forbidLineId": "115" }, "geometry": { "type": "LineString", "coordinates": [ [ 79.85852523749061, 6.903329150421317 ], [ 79.858502826435881, 6.903268734336176 ] ] } },
{ "type": "Feature", "properties": { "forbidLineId": "116" }, "geometry": { "type": "LineString", "coordinates": [ [ 79.858520397070421, 6.903343006545091 ], [ 79.858497986015905, 6.903282590459752 ] ] } },
{ "type": "Feature", "properties": { "forbidLineId": "117" }, "geometry": { "type": "LineString", "coordinates": [ [ 79.858515556649891, 6.903356862668769 ], [ 79.858493145595574, 6.903296446583232 ] ] } },
{ "type": "Feature", "properties": { "forbidLineId": "118" }, "geometry": { "type": "LineString", "coordinates": [ [ 79.85851071622902, 6.903370718792353 ], [ 79.858488305174959, 6.903310302706617 ] ] } },
{ "type": "Feature", "properties": { "forbidLineId": "119" }, "geometry": { "type": "LineString", "coordinates": [ [ 79.858505875807822, 6.903384574915844 ], [ 79.858483464753988, 6.903324158829909 ] ] } },
{ "type": "Feature", "properties": { "forbidLineId": "120" }, "geometry": { "type": "LineString", "coordinates": [ [ 79.858501035386311, 6.90339843103924 ], [ 79.85847862433269, 6.903338014953109 ] ] } },
{ "type": "Feature", "properties": { "forbidLineId": "121" }, "geometry": { "type": "LineString", "coordinates": [ [ 79.858507785012762, 6.903254539977149 ], [ 79.858547066389875, 6.903266663286075 ], [ 79.858498324318617, 6.903406191703532 ], [ 79.858474691317141, 6.903348212499612 ], [ 79.858507785012762, 6.903254539977149 ] ] } },
{ "type": "Feature", "properties": { "forbidLineId": "122" }, "geometry": { "type": "LineString", "coordinates": [ [ 79.859635712499042, 6.899784262514761 ], [ 79.859656196524583, 6.899816794131971 ] ] } },
{ "type": "Feature", "properties": { "forbidLineId": "123" }, "geometry": { "type": "LineString", "coordinates": [ [ 79.859648509316045, 6.899787660624254 ], [ 79.85965975675785, 6.899805523200086 ] ] } },
{ "type": "Feature", "properties": { "forbidLineId": "124" }, "geometry": { "type": "LineString", "coordinates": [ [ 79.859661306133262, 6.899791058733423 ], [ 79.85966331699089, 6.899794252268141 ] ] } },
{ "type": "Feature", "properties": { "forbidLineId": "125" }, "geometry": { "type": "LineString", "coordinates": [ [ 79.859652636291145, 6.899828065063805 ], [ 79.859632102503028, 6.899795454416412 ] ] } },
{ "type": "Feature", "properties": { "forbidLineId": "126" }, "geometry": { "type": "LineString", "coordinates": [ [ 79.85964907605748, 6.899839335995583 ], [ 79.859628542269249, 6.899806725348018 ] ] } },
{ "type": "Feature", "properties": { "forbidLineId": "127" }, "geometry": { "type": "LineString", "coordinates": [ [ 79.859645515823615, 6.899850606927308 ], [ 79.859624982035271, 6.899817996279577 ] ] } },
{ "type": "Feature", "properties": { "forbidLineId": "128" }, "geometry": { "type": "LineString", "coordinates": [ [ 79.859641955589581, 6.899861877858979 ], [ 79.859621421801094, 6.899829267211075 ] ] } },
{ "type": "Feature", "properties": { "forbidLineId": "129" }, "geometry": { "type": "LineString", "coordinates": [ [ 79.859662825996494, 6.899795806650838 ], [ 79.85962647967726, 6.899813255068743 ] ] } },
{ "type": "Feature", "properties": { "forbidLineId": "130" }, "geometry": { "type": "LineString", "coordinates": [ [ 79.859653726565028, 6.899789046029846 ], [ 79.859630623399823, 6.899800136937968 ] ] } },
{ "type": "Feature", "properties": { "forbidLineId": "131" }, "geometry": { "type": "LineString", "coordinates": [ [ 79.859638800540793, 6.899785082523706 ], [ 79.859634767122131, 6.899787018807126 ] ] } },
{ "type": "Feature", "properties": { "forbidLineId": "132" }, "geometry": { "type": "LineString", "coordinates": [ [ 79.859658682274826, 6.899808924782012 ], [ 79.859622335954413, 6.899826373199444 ] ] } },
{ "type": "Feature", "properties": { "forbidLineId": "133" }, "geometry": { "type": "LineString", "coordinates": [ [ 79.859654538552888, 6.899822042913117 ], [ 79.859625095902985, 6.899838081898439 ] ] } },
{ "type": "Feature", "properties": { "forbidLineId": "134" }, "geometry": { "type": "LineString", "coordinates": [ [ 79.859650394830695, 6.899835161044142 ], [ 79.859629932743886, 6.899846097249494 ] ] } },
{ "type": "Feature", "properties": { "forbidLineId": "135" }, "geometry": { "type": "LineString", "coordinates": [ [ 79.859646251108202, 6.899848279175101 ], [ 79.859634582316147, 6.899853802268852 ] ] } },
{ "type": "Feature", "properties": { "forbidLineId": "136" }, "geometry": { "type": "LineString", "coordinates": [ [ 79.85963564355572, 6.899784244207321 ], [ 79.859664092074127, 6.899791798521327 ], [ 79.859641096567671, 6.899864597336552 ], [ 79.859620753279515, 6.899830885538435 ], [ 79.85963564355572, 6.899784244207321 ] ] } }
]
}
