{
"type": "FeatureCollection",
"name": "roadNameBoards",
"crs": { "type": "name", "properties": { "name": "urn:ogc:def:crs:OGC:1.3:CRS84" } },
"features": [
{ "type": "Feature", "properties": { "roadNameBoardId": "101", "type": "Road Name Board", "condition": "Moderate", "material": "Metal", "elevation": "7.231" }, "geometry": { "type": "Point", "coordinates": [ 79.864236465927945, 6.911899442626972 ] } },
{ "type": "Feature", "properties": { "roadNameBoardId": "163", "type": "Road Name Board", "condition": "Good", "material": "Metal", "elevation": "4.634" }, "geometry": { "type": "Point", "coordinates": [ 79.858340687072086, 6.911941526995244 ] } },
{ "type": "Feature", "properties": { "roadNameBoardId": "179", "type": "Road Name Board", "condition": "Good", "material": "Metal", "elevation": "4.845" }, "geometry": { "type": "Point", "coordinates": [ 79.858319334790181, 6.911650131943127 ] } },
{ "type": "Feature", "properties": { "roadNameBoardId": "245", "type": "Road Name Board", "condition": "Good", "material": "Metal", "elevation": "7.363" }, "geometry": { "type": "Point", "coordinates": [ 79.864203907049799, 6.911580411355566 ] } },
{ "type": "Feature", "properties": { "roadNameBoardId": "1010", "type": "Road Name Board", "condition": "Good", "material": "Metal", "elevation": "7.194" }, "geometry": { "type": "Point", "coordinates": [ 79.864020453527601, 6.907603229230022 ] } },
{ "type": "Feature", "properties": { "roadNameBoardId": "1015", "type": "Road Name Board", "condition": "Good", "material": "Metal", "elevation": "7.293" }, "geometry": { "type": "Point", "coordinates": [ 79.864076817109108, 6.907568669731661 ] } },
{ "type": "Feature", "properties": { "roadNameBoardId": "1016", "type": "Road Name Board", "condition": "Good", "material": "Metal", "elevation": "7.056" }, "geometry": { "type": "Point", "coordinates": [ 79.86402066030827, 6.907528397244409 ] } },
{ "type": "Feature", "properties": { "roadNameBoardId": "1125", "type": "Road Name Board", "condition": "Good", "material": "Metal", "elevation": "7.51" }, "geometry": { "type": "Point", "coordinates": [ 79.864610458434157, 6.90778966706794 ] } },
{ "type": "Feature", "properties": { "roadNameBoardId": "1138", "type": "Road Name Board", "condition": "Good", "material": "Metal", "elevation": "7.475" }, "geometry": { "type": "Point", "coordinates": [ 79.864919530547979, 6.908112220234427 ] } },
{ "type": "Feature", "properties": { "roadNameBoardId": "1140", "type": "Road Name Board", "condition": "Good", "material": "Metal", "elevation": "7.485" }, "geometry": { "type": "Point", "coordinates": [ 79.864799274204046, 6.908285833575837 ] } },
{ "type": "Feature", "properties": { "roadNameBoardId": "1144", "type": "Road Name Board", "condition": "Good", "material": "Metal", "elevation": "7.447" }, "geometry": { "type": "Point", "coordinates": [ 79.864660844575397, 6.908324856664767 ] } },
{ "type": "Feature", "properties": { "roadNameBoardId": "1186", "type": "Road Name Board", "condition": "Good", "material": "Metal", "elevation": "6.533" }, "geometry": { "type": "Point", "coordinates": [ 79.863637694766211, 6.909946017227717 ] } },
{ "type": "Feature", "properties": { "roadNameBoardId": "1270", "type": "Road Name Board", "condition": "Good", "material": "Metal", "elevation": "7.327" }, "geometry": { "type": "Point", "coordinates": [ 79.864317964360751, 6.911412672857069 ] } },
{ "type": "Feature", "properties": { "roadNameBoardId": "2033", "type": "Road Name Board", "condition": "Good", "material": "Metal", "elevation": "6.76" }, "geometry": { "type": "Point", "coordinates": [ 79.863358043725199, 6.907474702262705 ] } },
{ "type": "Feature", "properties": { "roadNameBoardId": "2131", "type": "Road Name Board", "condition": "Good", "material": "Metal", "elevation": "5.638" }, "geometry": { "type": "Point", "coordinates": [ 79.860189496899238, 6.907197946908959 ] } },
{ "type": "Feature", "properties": { "roadNameBoardId": "2136", "type": "Road Name Board", "condition": "Good", "material": "Metal", "elevation": "7.31" }, "geometry": { "type": "Point", "coordinates": [ 79.864077675411139, 6.907569331447609 ] } },
{ "type": "Feature", "properties": { "roadNameBoardId": "2142", "type": "Road Name Board", "condition": "Good", "material": "Metal", "elevation": "7.38" }, "geometry": { "type": "Point", "coordinates": [ 79.864020471259764, 6.90760341914797 ] } },
{ "type": "Feature", "properties": { "roadNameBoardId": "3004", "type": "Road Name Board", "condition": "Good", "material": "Metal", "elevation": "7.26" }, "geometry": { "type": "Point", "coordinates": [ 79.86039909272759, 6.898717106110493 ] } },
{ "type": "Feature", "properties": { "roadNameBoardId": "3010", "type": "Road Name Board", "condition": "Good", "material": "Conreate", "elevation": "7.057" }, "geometry": { "type": "Point", "coordinates": [ 79.860385695255076, 6.898729920160932 ] } },
{ "type": "Feature", "properties": { "roadNameBoardId": "3052", "type": "Road Name Board", "condition": "Good", "material": "Metal", "elevation": "7.589" }, "geometry": { "type": "Point", "coordinates": [ 79.859575138581235, 6.899810430179271 ] } },
{ "type": "Feature", "properties": { "roadNameBoardId": "3183", "type": "Road Name Board", "condition": "Good", "material": "Metal", "elevation": "5.164" }, "geometry": { "type": "Point", "coordinates": [ 79.858278098580058, 6.904236450122197 ] } },
{ "type": "Feature", "properties": { "roadNameBoardId": "3243", "type": "Road Name Board", "condition": "Good", "material": "Iron", "elevation": "5.827" }, "geometry": { "type": "Point", "coordinates": [ 79.858777349687912, 6.905946030369029 ] } },
{ "type": "Feature", "properties": { "roadNameBoardId": "3258", "type": "Road Name Board", "condition": "Poor", "material": "Conreate", "elevation": "6.111" }, "geometry": { "type": "Point", "coordinates": [ 79.859004533206999, 6.906197150345458 ] } },
{ "type": "Feature", "properties": { "roadNameBoardId": "3263", "type": "Road Name Board", "condition": "Good", "material": "Metal", "elevation": "6.092" }, "geometry": { "type": "Point", "coordinates": [ 79.859053542563174, 6.90618985727827 ] } },
{ "type": "Feature", "properties": { "roadNameBoardId": "3286", "type": "Road Name Board", "condition": "Good", "material": "Metal", "elevation": "6.42" }, "geometry": { "type": "Point", "coordinates": [ 79.859490488788992, 6.906745854801754 ] } },
{ "type": "Feature", "properties": { "roadNameBoardId": "3305", "type": "Road Name Board", "condition": "Good", "material": "Metal", "elevation": "5.98" }, "geometry": { "type": "Point", "coordinates": [ 79.859973915993919, 6.907301887165196 ] } },
{ "type": "Feature", "properties": { "roadNameBoardId": "3330", "type": "Road Name Board", "condition": "Good", "material": "Metal", "elevation": "5.906" }, "geometry": { "type": "Point", "coordinates": [ 79.859315486921915, 6.90613678693674 ] } },
{ "type": "Feature", "properties": { "roadNameBoardId": "3337", "type": "Road Name Board", "condition": "Good", "material": "Metal", "elevation": "5.244" }, "geometry": { "type": "Point", "coordinates": [ 79.859207020868453, 6.905924297246155 ] } },
{ "type": "Feature", "properties": { "roadNameBoardId": "4051", "type": "Road Name Board", "condition": "Good", "material": "Metal", "elevation": "6.902" }, "geometry": { "type": "Point", "coordinates": [ 79.860639870961847, 6.909165529627053 ] } },
{ "type": "Feature", "properties": { "roadNameBoardId": "4101", "type": "Road Name Board", "condition": "Good", "material": "Metal", "elevation": "6.929" }, "geometry": { "type": "Point", "coordinates": [ 79.860659077450322, 6.909387911446329 ] } },
{ "type": "Feature", "properties": { "roadNameBoardId": "4111", "type": "Road Name Board", "condition": "Good", "material": "Metal", "elevation": "6.91" }, "geometry": { "type": "Point", "coordinates": [ 79.860820891959563, 6.909351511534141 ] } },
{ "type": "Feature", "properties": { "roadNameBoardId": "4123", "type": "Road Name Board", "condition": "Good", "material": "Metal", "elevation": "7.081" }, "geometry": { "type": "Point", "coordinates": [ 79.861511392964289, 6.909313052662704 ] } },
{ "type": "Feature", "properties": { "roadNameBoardId": "4190", "type": "Road Name Board", "condition": "Good", "material": "Metal", "elevation": "6.877" }, "geometry": { "type": "Point", "coordinates": [ 79.860811789518863, 6.909163418635905 ] } },
{ "type": "Feature", "properties": { "roadNameBoardId": "4205", "type": "Road Name Board", "condition": "Good", "material": "Metal", "elevation": "6.254" }, "geometry": { "type": "Point", "coordinates": [ 79.861603391046685, 6.909187725103458 ] } },
{ "type": "Feature", "properties": { "roadNameBoardId": "4214", "type": "Road Name Board", "condition": "Good", "material": "Metal", "elevation": "6.394" }, "geometry": { "type": "Point", "coordinates": [ 79.861948157279201, 6.90918974318947 ] } },
{ "type": "Feature", "properties": { "roadNameBoardId": "4234", "type": "Road Name Board", "condition": "Good", "material": "Metal", "elevation": "6.331" }, "geometry": { "type": "Point", "coordinates": [ 79.862523655343921, 6.909316713200369 ] } },
{ "type": "Feature", "properties": { "roadNameBoardId": "4235", "type": "Road Name Board", "condition": "Good", "material": "Metal", "elevation": "6.298" }, "geometry": { "type": "Point", "coordinates": [ 79.862523050390706, 6.9093301847558 ] } },
{ "type": "Feature", "properties": { "roadNameBoardId": "4235", "type": "Road Name Board", "condition": "Good", "material": "Metal", "elevation": "6.298" }, "geometry": { "type": "Point", "coordinates": [ 79.862523050442803, 6.909330157629624 ] } },
{ "type": "Feature", "properties": { "roadNameBoardId": "4292", "type": "Road Name Board", "condition": "Good", "material": "Metal", "elevation": "6.696" }, "geometry": { "type": "Point", "coordinates": [ 79.863113932242925, 6.90988062478703 ] } },
{ "type": "Feature", "properties": { "roadNameBoardId": "4357", "type": "Road Name Board", "condition": "Good", "material": "Metal", "elevation": "7.197" }, "geometry": { "type": "Point", "coordinates": [ 79.86431722012405, 6.911413864988547 ] } },
{ "type": "Feature", "properties": { "roadNameBoardId": "4358", "type": "Road Name Board", "condition": "Good", "material": "Metal", "elevation": "7" }, "geometry": { "type": "Point", "coordinates": [ 79.864334134847326, 6.911336442792093 ] } },
{ "type": "Feature", "properties": { "roadNameBoardId": "4398", "type": "Road Name Board", "condition": "Good", "material": "Metal", "elevation": "6.687" }, "geometry": { "type": "Point", "coordinates": [ 79.863638482767911, 6.909945593758956 ] } },
{ "type": "Feature", "properties": { "roadNameBoardId": "5098", "type": "Road Name Board", "condition": "Good", "material": "metal", "elevation": "7.306" }, "geometry": { "type": "Point", "coordinates": [ 79.862407136746327, 6.905272016416092 ] } },
{ "type": "Feature", "properties": { "roadNameBoardId": "5257", "type": "Road Name Board", "condition": "Good", "material": "metal", "elevation": "5.407" }, "geometry": { "type": "Point", "coordinates": [ 79.858650054699524, 6.903315904438095 ] } },
{ "type": "Feature", "properties": { "roadNameBoardId": "5375", "type": "Road Name Board", "condition": "Good", "material": "metal", "elevation": "7.35" }, "geometry": { "type": "Point", "coordinates": [ 79.860460238057826, 6.898976342646521 ] } },
{ "type": "Feature", "properties": { "roadNameBoardId": "5382", "type": "Road Name Board", "condition": "Good", "material": "metal", "elevation": "7.205" }, "geometry": { "type": "Point", "coordinates": [ 79.860543115912577, 6.898981700922595 ] } },
{ "type": "Feature", "properties": { "roadNameBoardId": "5385", "type": "Road Name Board", "condition": "Good", "material": "Conreate", "elevation": "7.594" }, "geometry": { "type": "Point", "coordinates": [ 79.860608182522071, 6.898801273342562 ] } },
{ "type": "Feature", "properties": { "roadNameBoardId": "5392", "type": "Road Name Board", "condition": "Moderate", "material": "Conreate", "elevation": "7.62" }, "geometry": { "type": "Point", "coordinates": [ 79.860554294279169, 6.898758247120063 ] } }
]
}
