{
"type": "FeatureCollection",
"name": "roadFeatures",
"crs": { "type": "name", "properties": { "name": "urn:ogc:def:crs:OGC:1.3:CRS84" } },
"features": [
{ "type": "Feature", "properties": { "roadFeatureId": "20" }, "geometry": { "type": "Polygon", "coordinates": [ [ [ 79.86164198703149, 6.911703086231895 ], [ 79.861706973392174, 6.911710037653892 ], [ 79.861756066508477, 6.911714777713977 ], [ 79.861769436660538, 6.911716068633877 ], [ 79.861804935179251, 6.911719965924124 ], [ 79.861818308161006, 6.911721618947739 ], [ 79.861841989214653, 6.911724417622037 ], [ 79.861862074659641, 6.911726865578629 ], [ 79.861869072331999, 6.911727590845642 ], [ 79.86187755800465, 6.911728652406216 ], [ 79.861882767434878, 6.911729332187346 ], [ 79.861889502860663, 6.9117300298745 ], [ 79.861897834447944, 6.911731084753434 ], [ 79.861901927604166, 6.911731509709207 ], [ 79.861908622279344, 6.911732435722784 ], [ 79.861914882230394, 6.9117334359853 ], [ 79.86192689042656, 6.911734558901139 ], [ 79.86193551937491, 6.911735555954209 ], [ 79.861943551748809, 6.911736673497855 ], [ 79.861958532833754, 6.911738279236394 ], [ 79.861973736333894, 6.911739770120928 ], [ 79.86198425594371, 6.911741060678362 ], [ 79.861992173578443, 6.911742176996587 ], [ 79.862003083534773, 6.911743130416596 ], [ 79.862013497155772, 6.911744495825303 ], [ 79.862024536693056, 6.9117455255314 ], [ 79.862038019501384, 6.911746710853072 ], [ 79.86204496704643, 6.911747198347759 ], [ 79.862050095498503, 6.911747649497904 ], [ 79.862062458985918, 6.911748644702645 ], [ 79.862093922426283, 6.911751404635862 ], [ 79.862110617918887, 6.911752827335095 ], [ 79.862114942492326, 6.91175319808615 ], [ 79.86213073426724, 6.91175442261614 ], [ 79.86215575076325, 6.911756375495342 ], [ 79.862192947239137, 6.911759095738545 ], [ 79.862197322743015, 6.911759528328774 ], [ 79.862210232554787, 6.911760287635281 ], [ 79.862223515199148, 6.911761134314454 ], [ 79.862227161684004, 6.911761352952897 ], [ 79.862249116249743, 6.911762662263099 ], [ 79.862303392150864, 6.91176538605882 ], [ 79.862347249476827, 6.911767230212388 ], [ 79.862352774087427, 6.911767348937031 ], [ 79.86236068542766, 6.91176781335829 ], [ 79.862379263564208, 6.911768456444736 ], [ 79.862401176504292, 6.91176889542402 ], [ 79.862408951970238, 6.911768960513148 ], [ 79.862417478309979, 6.911769243425919 ], [ 79.862434656510032, 6.911769492180561 ], [ 79.862463010007673, 6.911770100878465 ], [ 79.862476954253268, 6.911770492161961 ], [ 79.862497406932235, 6.911770821915651 ], [ 79.862510392673968, 6.911770876149077 ], [ 79.862527325303816, 6.911770955000903 ], [ 79.862537633782409, 6.911771193179154 ], [ 79.86254686514296, 6.911771294389641 ], [ 79.862562275978036, 6.911771390832344 ], [ 79.862579481756072, 6.911771207500207 ], [ 79.862608720232501, 6.911771242456465 ], [ 79.862634309199919, 6.911771279343555 ], [ 79.862640127306534, 6.911771221960816 ], [ 79.862645410768579, 6.911771100555584 ], [ 79.862658216560803, 6.911770921209433 ], [ 79.862674540261196, 6.911770635027798 ], [ 79.862681602145727, 6.911770531353885 ], [ 79.862686574059481, 6.911770450111212 ], [ 79.862700553381586, 6.911770339331031 ], [ 79.862722038414773, 6.911770142040822 ], [ 79.862733420421094, 6.911770103718041 ], [ 79.862749060884823, 6.91176978534111 ], [ 79.862766149534906, 6.911769440492767 ], [ 79.862779581566926, 6.911769170355065 ], [ 79.862786039340506, 6.911769306420662 ], [ 79.862796522639727, 6.911769052903075 ], [ 79.862806695020893, 6.911768984263488 ], [ 79.862816577321709, 6.911768718216768 ], [ 79.862826876583384, 6.911768670536758 ], [ 79.862833726811999, 6.911768413272878 ], [ 79.862842925990378, 6.91176833903403 ], [ 79.86284684764621, 6.911768196947142 ], [ 79.862853119763827, 6.911768137298822 ], [ 79.862863810097835, 6.911767961626818 ], [ 79.862876497377698, 6.91176791587559 ], [ 79.862881891640598, 6.91176777320877 ], [ 79.862894042551346, 6.911767636963003 ], [ 79.86290766975786, 6.911767548345574 ], [ 79.862917594422981, 6.911767341190833 ], [ 79.862922573572874, 6.911767439393373 ], [ 79.862932339529522, 6.911767396411878 ], [ 79.86293748208017, 6.911767133444799 ], [ 79.862943067491116, 6.911767197927185 ], [ 79.862952824554583, 6.911767508408065 ], [ 79.862957965820797, 6.911767281024308 ], [ 79.862971012495706, 6.911766992572834 ], [ 79.862998775151596, 6.91176678831684 ], [ 79.863023286659399, 6.911766508496799 ], [ 79.86303703960003, 6.911766547963864 ], [ 79.863045220520334, 6.91176633940717 ], [ 79.8630542258623, 6.911766239468023 ], [ 79.863060297072579, 6.911766012633739 ], [ 79.86307062943014, 6.911765876927081 ], [ 79.863083357302884, 6.911765907800047 ], [ 79.863095499641048, 6.911765666875187 ], [ 79.863131310221107, 6.911765238827186 ], [ 79.863143507142709, 6.911764975417541 ], [ 79.86314649615116, 6.911765043417215 ], [ 79.863155447551406, 6.91176502989507 ], [ 79.863161802214975, 6.911764791695734 ], [ 79.863169520616054, 6.911764755054317 ], [ 79.863174177550832, 6.911764652027526 ], [ 79.863177006816684, 6.911764700095093 ], [ 79.863179607559744, 6.91176463255929 ], [ 79.863182549537939, 6.91176467685197 ], [ 79.863187199584885, 6.911764560609468 ], [ 79.863190921409569, 6.911764534154081 ], [ 79.863200162611562, 6.911764343434071 ], [ 79.863215626395018, 6.91176427574969 ], [ 79.863227381401856, 6.911764027151939 ], [ 79.863233390700856, 6.911764087737005 ], [ 79.863242919423769, 6.911764014374056 ], [ 79.863265482802817, 6.911764574573384 ], [ 79.863280145710618, 6.911764673902858 ], [ 79.863291828578809, 6.911763845451549 ], [ 79.863307334897641, 6.911763306585843 ], [ 79.863315692753559, 6.911763078289237 ], [ 79.863326436093146, 6.911762893457645 ], [ 79.86334000288133, 6.91176270371385 ], [ 79.8633676561995, 6.911762630625399 ], [ 79.863368079484204, 6.91176227472632 ], [ 79.863455832297447, 6.911761463222647 ], [ 79.863471202222883, 6.911761274061195 ], [ 79.863488731830742, 6.911761185549497 ], [ 79.863510204125276, 6.911760887370955 ], [ 79.863521427143922, 6.911760621657774 ], [ 79.863544353599124, 6.911760362427556 ], [ 79.863553435854442, 6.911760321629407 ], [ 79.863578178102514, 6.911760054838758 ], [ 79.863593622674472, 6.911760052380302 ], [ 79.863605037412171, 6.911759926069771 ], [ 79.863609055263666, 6.91175962436937 ], [ 79.863617985267865, 6.911759452858552 ], [ 79.863627368637083, 6.911759418056897 ], [ 79.863636625476346, 6.911759645395157 ], [ 79.86365159732398, 6.911759383935006 ], [ 79.863676523874759, 6.911758878791533 ], [ 79.86368991129261, 6.911758741532214 ], [ 79.863696589452985, 6.911758624445414 ], [ 79.86370234702153, 6.911758278092193 ], [ 79.863713669511753, 6.911757937713398 ], [ 79.8637166510904, 6.911755003797992 ], [ 79.863720135533185, 6.911758359759428 ], [ 79.863724257461271, 6.911756601135058 ], [ 79.863778453768134, 6.911757635736753 ], [ 79.863799953758644, 6.91175738576919 ], [ 79.863846895347265, 6.911756840003976 ], [ 79.863864319311858, 6.911756656607744 ], [ 79.863895065283614, 6.911756238134595 ], [ 79.863909058212982, 6.911756149009234 ], [ 79.86393065126245, 6.91175591948614 ], [ 79.863951296699526, 6.911755849713812 ], [ 79.863966496979359, 6.911755597701435 ], [ 79.863972209054381, 6.911755408409681 ], [ 79.864001600948114, 6.911755107722907 ], [ 79.864037242657574, 6.911754883734575 ], [ 79.864077504137938, 6.911754443784477 ], [ 79.86410252514014, 6.911753569695741 ], [ 79.864103939191111, 6.911737070793646 ], [ 79.864104479015651, 6.911723533585834 ], [ 79.864103524167788, 6.911722720662747 ], [ 79.864094664496378, 6.911723164609592 ], [ 79.864088691794294, 6.911723551969523 ], [ 79.864081233866585, 6.911723210129235 ], [ 79.864053062718938, 6.911723168930211 ], [ 79.864041779509535, 6.911723274055448 ], [ 79.864024333543298, 6.911723464676558 ], [ 79.864024203357843, 6.911723605561832 ], [ 79.864019073347961, 6.911723584600245 ], [ 79.864010442549073, 6.911723641079418 ], [ 79.863985671535332, 6.911723876991168 ], [ 79.863966522696302, 6.91172403341538 ], [ 79.863956602103741, 6.911724114455022 ], [ 79.863933677896, 6.911724444984338 ], [ 79.863906387211088, 6.911724687307116 ], [ 79.863894957065213, 6.911724699388979 ], [ 79.863882590698395, 6.911724928432409 ], [ 79.86387497724175, 6.911725179079748 ], [ 79.863861926485058, 6.911725202882136 ], [ 79.863859606437487, 6.911725220540494 ], [ 79.863846891869329, 6.911725317313453 ], [ 79.863836042881829, 6.911725233574706 ], [ 79.863824138528642, 6.911725486774819 ], [ 79.863821470047739, 6.911725714982889 ], [ 79.863816947554184, 6.91172576848936 ], [ 79.863814109334825, 6.911725675407622 ], [ 79.863810355166407, 6.911725838316162 ], [ 79.863800808457938, 6.911726013332068 ], [ 79.86378881637124, 6.911726144774913 ], [ 79.863784241071684, 6.911726331235837 ], [ 79.863772596703384, 6.911726336995238 ], [ 79.86373113194135, 6.911726676161342 ], [ 79.863716935594269, 6.911726914489554 ], [ 79.863704394438884, 6.911727028618971 ], [ 79.863686313097617, 6.911727285530106 ], [ 79.863675118063242, 6.91172736140297 ], [ 79.863667606079701, 6.911727514525095 ], [ 79.863637891450765, 6.911727989475584 ], [ 79.863616929804024, 6.911728159838892 ], [ 79.863592029403293, 6.91172850952786 ], [ 79.863552032516722, 6.911728930971742 ], [ 79.863520799518128, 6.911729319480663 ], [ 79.86350368329245, 6.911729532389428 ], [ 79.863478356752296, 6.911729693580482 ], [ 79.863386365836945, 6.911730887492114 ], [ 79.863318318676903, 6.911731734851656 ], [ 79.86330584888438, 6.911731900091324 ], [ 79.863293504625972, 6.911731988597052 ], [ 79.863270224250698, 6.911732083222182 ], [ 79.863269932689818, 6.911732453614651 ], [ 79.863247370166093, 6.911732676541053 ], [ 79.863220682836157, 6.911732860504824 ], [ 79.863186751395006, 6.911733293283508 ], [ 79.863164517768837, 6.911733609103798 ], [ 79.863138566299057, 6.911733877006573 ], [ 79.863120087455357, 6.911734166563806 ], [ 79.863103510161778, 6.91173432910246 ], [ 79.863089955311381, 6.91173464248782 ], [ 79.863086442430529, 6.911734642440951 ], [ 79.863083819281997, 6.911734686067847 ], [ 79.863080479254776, 6.911734597850563 ], [ 79.86307194822443, 6.911734944471667 ], [ 79.863052916621058, 6.911735339057084 ], [ 79.863004309781232, 6.911736119968324 ], [ 79.862987406152385, 6.911736298818911 ], [ 79.862981246452378, 6.91173642735569 ], [ 79.862966109327346, 6.911736529670245 ], [ 79.862953888854818, 6.911736808726038 ], [ 79.862947793354081, 6.911736878989823 ], [ 79.86293956486891, 6.911736954391285 ], [ 79.862932097486848, 6.911736981760142 ], [ 79.862912544660873, 6.911737166126348 ], [ 79.862912364261561, 6.911737318286972 ], [ 79.862896371178437, 6.911737303556213 ], [ 79.862881668323624, 6.911737482354058 ], [ 79.862849806182126, 6.911737723052861 ], [ 79.862849689124289, 6.91173796414915 ], [ 79.862843124409693, 6.911738053926821 ], [ 79.862840510714065, 6.911738085921014 ], [ 79.862831400823652, 6.911738279140785 ], [ 79.862814140313148, 6.911738449893316 ], [ 79.862802180170846, 6.911738558256841 ], [ 79.862790596673378, 6.911738684990612 ], [ 79.862767676355716, 6.911738796962958 ], [ 79.862753378634707, 6.911739007745132 ], [ 79.862750275088388, 6.911738986624918 ], [ 79.862741621855804, 6.911739117301293 ], [ 79.862718577639654, 6.911739286777519 ], [ 79.862711624405549, 6.911739475228258 ], [ 79.862705981601763, 6.911739678853521 ], [ 79.862696563829076, 6.911739432727554 ], [ 79.862682402855015, 6.911739554076635 ], [ 79.862673323290039, 6.911739846668315 ], [ 79.862669510588461, 6.911739786105477 ], [ 79.862663607629358, 6.911739826814991 ], [ 79.862648418362653, 6.911740044862572 ], [ 79.862638733834686, 6.911740276979458 ], [ 79.862634108216142, 6.911740258373567 ], [ 79.862620142245746, 6.911740264826243 ], [ 79.862611333296414, 6.911740458795413 ], [ 79.862606916052684, 6.911740412270843 ], [ 79.862572956493068, 6.91174042644284 ], [ 79.862543541603728, 6.911740339314671 ], [ 79.862505949501482, 6.911740232387797 ], [ 79.862466524951259, 6.911739931280493 ], [ 79.862442893639724, 6.911739430800934 ], [ 79.862417235146907, 6.911738861817498 ], [ 79.862417011650479, 6.911738996234067 ], [ 79.862404313971311, 6.911738443279377 ], [ 79.862390164753393, 6.91173784764859 ], [ 79.862368004001468, 6.911737258303964 ], [ 79.86236517603237, 6.911737216321103 ], [ 79.862360571014008, 6.911736971872476 ], [ 79.862350668138319, 6.911736587543227 ], [ 79.862337950115517, 6.911735900423767 ], [ 79.862315162858621, 6.911734863097807 ], [ 79.862295769234507, 6.911733920871733 ], [ 79.862288380517839, 6.911733800758052 ], [ 79.862258651489185, 6.911731905982153 ], [ 79.862254532930194, 6.911731808046575 ], [ 79.862246139593807, 6.911731197773579 ], [ 79.862228913093489, 6.911729986931034 ], [ 79.862203664611641, 6.911728404878888 ], [ 79.862199355477728, 6.911728089270335 ], [ 79.862194507912946, 6.911727791104605 ], [ 79.862184443988994, 6.911726946986586 ], [ 79.862156872240604, 6.911725167761177 ], [ 79.862141092457989, 6.911723929071091 ], [ 79.862125991855663, 6.911722304614783 ], [ 79.86211704973006, 6.911721469288328 ], [ 79.862104723893609, 6.911720275225292 ], [ 79.862098743323088, 6.911719799062909 ], [ 79.862074961010677, 6.911717034637677 ], [ 79.862052767048922, 6.911714529947014 ], [ 79.862036149376593, 6.91171255864365 ], [ 79.862020005350288, 6.911710651100612 ], [ 79.862011819308037, 6.911710083881327 ], [ 79.861976098852068, 6.911705728049572 ], [ 79.861927741103543, 6.911700324174686 ], [ 79.861893682747365, 6.911696375286996 ], [ 79.861889247547325, 6.911696000233012 ], [ 79.861885429672284, 6.911695574844037 ], [ 79.861878182757906, 6.911694595002812 ], [ 79.861865487542744, 6.911693241944975 ], [ 79.861842140457014, 6.911690575610814 ], [ 79.8618419776396, 6.911690802664432 ], [ 79.861834265256121, 6.911690006491076 ], [ 79.861822836726247, 6.911688645666819 ], [ 79.861808065559742, 6.911686926055089 ], [ 79.861803564216487, 6.911686312308954 ], [ 79.861792167796764, 6.911685118495603 ], [ 79.861762655119577, 6.911681745901198 ], [ 79.861750745317437, 6.911680118302324 ], [ 79.861735343136885, 6.911678365704494 ], [ 79.861717008569457, 6.911676474875925 ], [ 79.861688240382335, 6.911673773913104 ], [ 79.86167145044034, 6.911672302873117 ], [ 79.861664741096419, 6.911671607335149 ], [ 79.861644063004348, 6.911670185453801 ], [ 79.86162322825858, 6.911668616487066 ], [ 79.861597142890673, 6.911666837012591 ], [ 79.861578260659158, 6.911666535040824 ], [ 79.861576909853227, 6.911667900207858 ], [ 79.86157577094437, 6.911667765102393 ], [ 79.861573903097053, 6.91166557796059 ], [ 79.861569248781024, 6.911665266193755 ], [ 79.861561512437845, 6.911664703168494 ], [ 79.861551030964733, 6.911664173807062 ], [ 79.86153965000787, 6.91166378308553 ], [ 79.861498847598241, 6.911663001652711 ], [ 79.861506624929333, 6.911697052764438 ], [ 79.86164198703149, 6.911703086231895 ] ] ] } },
{ "type": "Feature", "properties": { "roadFeatureId": "21" }, "geometry": { "type": "Polygon", "coordinates": [ [ [ 79.864141049017817, 6.911753302672285 ], [ 79.86417026616023, 6.911753860828354 ], [ 79.864172833569782, 6.911753872944595 ], [ 79.864175933219002, 6.911754086255688 ], [ 79.864185491948362, 6.911754725248342 ], [ 79.864212812368208, 6.911757559425958 ], [ 79.864249397307589, 6.91176249566892 ], [ 79.864259796790364, 6.911764208299092 ], [ 79.864275161923103, 6.911767043747727 ], [ 79.864283919844212, 6.911768467524785 ], [ 79.864288100521605, 6.91176921418318 ], [ 79.864294415612179, 6.911769874476995 ], [ 79.864291596305094, 6.91175362406171 ], [ 79.864288694979578, 6.911740528939554 ], [ 79.864287049767455, 6.911730772597852 ], [ 79.864286456332934, 6.911726407843286 ], [ 79.864286075881679, 6.911722294988222 ], [ 79.864285792803258, 6.911717903739705 ], [ 79.864285017821103, 6.911710166333533 ], [ 79.864284680918118, 6.911705993958623 ], [ 79.864284349605583, 6.911703012977524 ], [ 79.864283791035007, 6.911699916708381 ], [ 79.86426394985898, 6.911704833078918 ], [ 79.864249583921165, 6.91170868780198 ], [ 79.864233726772056, 6.911712297560725 ], [ 79.864218285207357, 6.911715113323354 ], [ 79.864202558340708, 6.911717612645633 ], [ 79.86418820435064, 6.911719589894256 ], [ 79.864179503732743, 6.911720437432525 ], [ 79.864166146762685, 6.911721242192809 ], [ 79.86415361393064, 6.91172186371127 ], [ 79.864137081557004, 6.91172308081613 ], [ 79.864141049017817, 6.911753302672285 ] ] ] } },
{ "type": "Feature", "properties": { "roadFeatureId": "22" }, "geometry": { "type": "Polygon", "coordinates": [ [ [ 79.864457408104172, 6.911475741422311 ], [ 79.864462262804452, 6.911474658389808 ], [ 79.864470106084326, 6.911473250009813 ], [ 79.86448208364429, 6.91147129132513 ], [ 79.864491132539783, 6.911469644964647 ], [ 79.864498518692528, 6.911468763264208 ], [ 79.86449899218087, 6.911468391348824 ], [ 79.864515992884606, 6.911467058762095 ], [ 79.864533495135902, 6.911465814384438 ], [ 79.864533727785812, 6.911458804245584 ], [ 79.864531980073451, 6.911450985805006 ], [ 79.864528842651907, 6.911439507590268 ], [ 79.86452698436004, 6.91143268594905 ], [ 79.86452629678017, 6.911430119114237 ], [ 79.864525026488039, 6.911425160492033 ], [ 79.86452313899035, 6.911418333190015 ], [ 79.864522390853168, 6.911415445921557 ], [ 79.864518761707259, 6.911403172294433 ], [ 79.86450956375532, 6.911370934237975 ], [ 79.864501268027212, 6.911341461597501 ], [ 79.864495036981054, 6.911319598156495 ], [ 79.864490246422591, 6.911302737748945 ], [ 79.864485490321997, 6.911287807954715 ], [ 79.864478707456897, 6.911270640778797 ], [ 79.86446514684846, 6.91124028207505 ], [ 79.864452763541138, 6.911215627838001 ], [ 79.864444508304544, 6.911199958650292 ], [ 79.864436509030696, 6.911185909732585 ], [ 79.864424282459666, 6.911165489506253 ], [ 79.864403305504894, 6.911131198121532 ], [ 79.864392316184791, 6.911113395753901 ], [ 79.864381351095034, 6.911094978796537 ], [ 79.864369061264242, 6.911074714659492 ], [ 79.864358079349103, 6.911055732173415 ], [ 79.864347340566567, 6.911038845022301 ], [ 79.864339141431046, 6.911025006627509 ], [ 79.864323688441672, 6.911000214310334 ], [ 79.864293590231782, 6.910950516192851 ], [ 79.864266300723656, 6.910909816764563 ], [ 79.864234483305466, 6.910863606437339 ], [ 79.864214214761418, 6.910836854040478 ], [ 79.864208573818189, 6.910825688360208 ], [ 79.864201936813558, 6.910815420765617 ], [ 79.864185554068726, 6.910794199447503 ], [ 79.86417083371164, 6.910771251213344 ], [ 79.864145267343801, 6.910736677308686 ], [ 79.864126758220024, 6.910712285009321 ], [ 79.8640873311885, 6.910661475817657 ], [ 79.864060131929094, 6.910626894496378 ], [ 79.864039268703777, 6.910601178538357 ], [ 79.863998785675378, 6.910552709603536 ], [ 79.863944407396062, 6.910490539730693 ], [ 79.863926088468901, 6.910469600191795 ], [ 79.863923525727728, 6.910466578160201 ], [ 79.863898222623391, 6.91043827471618 ], [ 79.863878277635123, 6.910416426754871 ], [ 79.863852463115762, 6.910388726975867 ], [ 79.863793376814485, 6.910324869846919 ], [ 79.863737033748734, 6.910263196695825 ], [ 79.863689953103034, 6.910211487121761 ], [ 79.863656019191538, 6.910175305722852 ], [ 79.863634304666888, 6.910151942195932 ], [ 79.86359941070792, 6.910112370952001 ], [ 79.863566082001256, 6.9100740800118 ], [ 79.863543823425488, 6.910047859197155 ], [ 79.86352127022559, 6.910022571263336 ], [ 79.863512299243396, 6.910021084417889 ], [ 79.863508429389256, 6.910021106000185 ], [ 79.863503868315931, 6.910022390833258 ], [ 79.863495996458497, 6.910029412015916 ], [ 79.863493035268604, 6.910035874130424 ], [ 79.863493726949812, 6.910037240334528 ], [ 79.863493847396597, 6.910038261333753 ], [ 79.863493968087198, 6.910039758088269 ], [ 79.863496874052771, 6.910051615640267 ], [ 79.863498076723786, 6.910051527521992 ], [ 79.863502111917128, 6.910058145086881 ], [ 79.863510384396037, 6.910069005976479 ], [ 79.86352136073161, 6.910082021745635 ], [ 79.863532483383239, 6.910094633313319 ], [ 79.863543275528414, 6.910106307889947 ], [ 79.863563668563728, 6.910127248600712 ], [ 79.863595209248544, 6.910159682700205 ], [ 79.863606892277502, 6.910172101023732 ], [ 79.863615787382287, 6.910180614344892 ], [ 79.863627949945226, 6.910192930630173 ], [ 79.863639187800331, 6.910204447023285 ], [ 79.863655620561374, 6.910221102131249 ], [ 79.86368855791244, 6.910254993081359 ], [ 79.863730169539394, 6.910297780842246 ], [ 79.863775873151468, 6.910345445872959 ], [ 79.863784630554946, 6.910354861473215 ], [ 79.863788042176552, 6.91035840704689 ], [ 79.863793646386938, 6.910364611866513 ], [ 79.863799568368563, 6.910371378483831 ], [ 79.863803795817688, 6.910375590283135 ], [ 79.863808412933565, 6.910380652601448 ], [ 79.863820202356891, 6.910393519724927 ], [ 79.863826195637841, 6.910399649608095 ], [ 79.86382879601743, 6.910403058308707 ], [ 79.863831614316325, 6.910406458425689 ], [ 79.863837106080908, 6.910411882625816 ], [ 79.863843674052816, 6.910418763444941 ], [ 79.863846960289436, 6.910422696244988 ], [ 79.863848707285555, 6.910424605057898 ], [ 79.863850634159178, 6.910426517672581 ], [ 79.863852374383413, 6.910428489612622 ], [ 79.863862725098883, 6.910439352343564 ], [ 79.863862747904008, 6.910439668794572 ], [ 79.86388616137485, 6.910465202237076 ], [ 79.863902787510142, 6.910483605270703 ], [ 79.863920674626016, 6.910503747485574 ], [ 79.863924386689632, 6.910507887757514 ], [ 79.863927991465857, 6.910511975021219 ], [ 79.863932598097477, 6.910517473647812 ], [ 79.863937294517314, 6.91052272304315 ], [ 79.863940796095306, 6.910526566278814 ], [ 79.863944002379824, 6.910530119878699 ], [ 79.863945801505906, 6.91053211211334 ], [ 79.863948234288259, 6.910534998611237 ], [ 79.863953820819006, 6.910541477336618 ], [ 79.863960526516976, 6.910549214372183 ], [ 79.863963438305163, 6.910552545925133 ], [ 79.863965127072973, 6.910554739990523 ], [ 79.86398386902583, 6.910576754504449 ], [ 79.86401880009808, 6.910618870013781 ], [ 79.864033948539486, 6.910637701435281 ], [ 79.864046160240392, 6.91065212902118 ], [ 79.864053421706544, 6.910660891599936 ], [ 79.864065222557912, 6.910675665399037 ], [ 79.864069888414562, 6.910681856069047 ], [ 79.864072074781944, 6.910684944913416 ], [ 79.864080113174751, 6.910694840550447 ], [ 79.86409592615199, 6.910715326187133 ], [ 79.864102158099442, 6.910723217970783 ], [ 79.864113999516135, 6.91073874103992 ], [ 79.864119917979806, 6.910746513766086 ], [ 79.864127396615089, 6.910756801407612 ], [ 79.86413650268662, 6.910768672009268 ], [ 79.864146809118608, 6.910782460334506 ], [ 79.864150411328751, 6.910787454222794 ], [ 79.864153239442828, 6.910791305670171 ], [ 79.864154745653138, 6.910793622644396 ], [ 79.864157268648313, 6.910796924410527 ], [ 79.86416228270167, 6.910804092955736 ], [ 79.864167726092177, 6.910811272729474 ], [ 79.864170750024087, 6.910815459981825 ], [ 79.864173373832983, 6.910819214408689 ], [ 79.864179014608524, 6.910826966983141 ], [ 79.864182011339551, 6.910831647917193 ], [ 79.864185493108636, 6.910836739668881 ], [ 79.864189702659175, 6.910842515093973 ], [ 79.864201733584977, 6.910860170610147 ], [ 79.864209293275337, 6.910871255104953 ], [ 79.86422145922414, 6.910889842544604 ], [ 79.864226964559904, 6.910898393060512 ], [ 79.864230395102666, 6.910903565146016 ], [ 79.864234811323527, 6.910910520653911 ], [ 79.864237948143355, 6.910914840015325 ], [ 79.864240670131139, 6.910919352083768 ], [ 79.864242358112051, 6.910921870050233 ], [ 79.86424390502134, 6.91092388901841 ], [ 79.864245997436782, 6.910927625860353 ], [ 79.864253283608718, 6.910938855555219 ], [ 79.864257817775723, 6.910946096272385 ], [ 79.864259843972164, 6.91094916392102 ], [ 79.86426248494368, 6.910953773561519 ], [ 79.864267969302603, 6.910961944752402 ], [ 79.864278301461951, 6.910978014108275 ], [ 79.864282108868792, 6.91098378101511 ], [ 79.864289133707786, 6.91099506531697 ], [ 79.864301306199692, 6.911014378729857 ], [ 79.864305521627543, 6.911021559687754 ], [ 79.864308016226275, 6.911025286839658 ], [ 79.864310769045019, 6.911029588175348 ], [ 79.864314813189239, 6.91103680022584 ], [ 79.864319793793953, 6.911044597367781 ], [ 79.864323015065125, 6.911049766936229 ], [ 79.86432450258819, 6.911052604428749 ], [ 79.864326156023097, 6.911055090116894 ], [ 79.864329876455614, 6.911061346981789 ], [ 79.864333187719737, 6.911066468158174 ], [ 79.864340385833998, 6.91107762333999 ], [ 79.864347372952707, 6.91108929554308 ], [ 79.864351131123385, 6.911095541593673 ], [ 79.864353766158558, 6.911100105533851 ], [ 79.864355526247294, 6.911103034213146 ], [ 79.864357564850209, 6.911106105076182 ], [ 79.864368650328402, 6.911125770257105 ], [ 79.864379457840869, 6.911145632055307 ], [ 79.864384945781239, 6.911156592682824 ], [ 79.864388063754021, 6.911162593487062 ], [ 79.864399380005096, 6.91118621353431 ], [ 79.864405424634114, 6.911199468684408 ], [ 79.864408543919794, 6.911206281404896 ], [ 79.864412346328621, 6.911214917167547 ], [ 79.864414846846387, 6.911220587409329 ], [ 79.864416868021905, 6.911225333585753 ], [ 79.864417949802643, 6.91122877505735 ], [ 79.864419202687259, 6.911231457957591 ], [ 79.864427476422847, 6.911256067690021 ], [ 79.864435225117276, 6.911282056513217 ], [ 79.864439160849855, 6.911298093794394 ], [ 79.864444683323939, 6.911323554456266 ], [ 79.8644482633824, 6.911343387616475 ], [ 79.864450093115067, 6.911354497922461 ], [ 79.864451377021226, 6.911363950667802 ], [ 79.864457408104172, 6.911475741422311 ] ] ] } },
{ "type": "Feature", "properties": { "roadFeatureId": "23" }, "geometry": { "type": "Polygon", "coordinates": [ [ [ 79.863397810724564, 6.909967006122344 ], [ 79.863407760861818, 6.909975513165572 ], [ 79.86341408934517, 6.909981478711309 ], [ 79.863429678112638, 6.909996441933315 ], [ 79.863441553963213, 6.910008006456965 ], [ 79.86345017192474, 6.910015817111967 ], [ 79.863451264512989, 6.910015452096038 ], [ 79.863451932756419, 6.910015315933302 ], [ 79.863453580711749, 6.910012761624222 ], [ 79.863456537809597, 6.910008558209252 ], [ 79.863463262372875, 6.909998826335849 ], [ 79.863469994224545, 6.909990429835543 ], [ 79.86347746034933, 6.90998258208753 ], [ 79.863485785927097, 6.909974545804735 ], [ 79.863484069424814, 6.909969548272184 ], [ 79.863482685043834, 6.909967801978965 ], [ 79.863481242055926, 6.90996625781298 ], [ 79.863480033918762, 6.909964489084724 ], [ 79.86347863349512, 6.909962805171832 ], [ 79.863476737912109, 6.909960003190152 ], [ 79.86347645433078, 6.909960049723586 ], [ 79.863456564796678, 6.909932429820103 ], [ 79.863447988876146, 6.909919876697821 ], [ 79.863437764378801, 6.909904244431141 ], [ 79.863435218470684, 6.909908918572512 ], [ 79.863433502827604, 6.90991194801286 ], [ 79.863428421445121, 6.909921696077695 ], [ 79.863428196972308, 6.909922126703687 ], [ 79.863427413352227, 6.909923456515579 ], [ 79.863425031101869, 6.909927491125969 ], [ 79.863421852137776, 6.909932875061098 ], [ 79.863419849323037, 6.909935997333745 ], [ 79.86341659327573, 6.909941073323627 ], [ 79.863413688143623, 6.909945602256818 ], [ 79.863407175656704, 6.90995449086528 ], [ 79.863402189491524, 6.909961174720754 ], [ 79.863397810724564, 6.909967006122344 ] ] ] } },
{ "type": "Feature", "properties": { "roadFeatureId": "24" }, "geometry": { "type": "Polygon", "coordinates": [ [ [ 79.8626626519046, 6.909538621361127 ], [ 79.86265841868925, 6.909540570334468 ], [ 79.862667655708833, 6.909549420526095 ], [ 79.862677516702547, 6.909559865742118 ], [ 79.862685053825373, 6.909568191287692 ], [ 79.862689725463639, 6.909572668131196 ], [ 79.862696328359192, 6.909577446328376 ], [ 79.862703656972528, 6.90958105036748 ], [ 79.862711331813969, 6.909584538092279 ], [ 79.862733018821714, 6.909593406983562 ], [ 79.862772292872222, 6.909609031424067 ], [ 79.862794484682794, 6.909618177686771 ], [ 79.862832816754334, 6.909633616540271 ], [ 79.862848316244765, 6.90964005847685 ], [ 79.862853938816073, 6.909642240617182 ], [ 79.862861675696919, 6.909645439829815 ], [ 79.862868112765312, 6.909648243475829 ], [ 79.862881647469806, 6.909653966449271 ], [ 79.862894287579536, 6.909659469584089 ], [ 79.862898878336296, 6.909661301920766 ], [ 79.862909848990498, 6.909665979826037 ], [ 79.862916083234268, 6.909668884076004 ], [ 79.86292012852094, 6.909670548098658 ], [ 79.862938469097784, 6.909678638360817 ], [ 79.862946746391344, 6.909682411196304 ], [ 79.862952672909515, 6.90968504858593 ], [ 79.862960284316515, 6.909688744627443 ], [ 79.862965582045049, 6.909691188528141 ], [ 79.862969935341411, 6.909693221600768 ], [ 79.862972937099329, 6.909694960796521 ], [ 79.862975310395626, 6.909696002206426 ], [ 79.86297772098942, 6.909696864637197 ], [ 79.862981207656489, 6.909699019842316 ], [ 79.862981449646213, 6.909698942544271 ], [ 79.863001658803796, 6.909709395996877 ], [ 79.863016577633672, 6.90971737075791 ], [ 79.863028235546352, 6.909724173635348 ], [ 79.863045755147965, 6.909734638481997 ], [ 79.863054726317415, 6.909739815635418 ], [ 79.863068281527035, 6.90974817967537 ], [ 79.863081591749605, 6.909757844523942 ], [ 79.863117165171445, 6.909778875186331 ], [ 79.863145658184735, 6.909792903147078 ], [ 79.863160809654218, 6.909801272022422 ], [ 79.863174098427635, 6.909808656969976 ], [ 79.863179596807512, 6.909811504342843 ], [ 79.863183931786537, 6.909813907188179 ], [ 79.863192059318919, 6.90981806842789 ], [ 79.863198918526663, 6.909821384018193 ], [ 79.863201613093935, 6.909822545346989 ], [ 79.863206577804945, 6.909824866848308 ], [ 79.863216933074455, 6.909829133821089 ], [ 79.863223652110491, 6.909831810641213 ], [ 79.863236312234235, 6.909836222552541 ], [ 79.863244474820959, 6.909838848694608 ], [ 79.863249615415128, 6.909840261664892 ], [ 79.863256361546405, 6.909842313720002 ], [ 79.863261512698429, 6.909843660552812 ], [ 79.863265034568002, 6.909844660350315 ], [ 79.863272785860204, 6.909846622606335 ], [ 79.863282727996364, 6.909849274528649 ], [ 79.863295968234127, 6.909852495723343 ], [ 79.863314340297137, 6.909856395790726 ], [ 79.863328869214982, 6.909859169838519 ], [ 79.863335534840417, 6.909860476098321 ], [ 79.863344505893167, 6.909861607075666 ], [ 79.8633549410429, 6.909862918344523 ], [ 79.863361075951744, 6.909863598571101 ], [ 79.863365451047727, 6.909864129352162 ], [ 79.863377387838042, 6.909865006051811 ], [ 79.863386099963037, 6.909865367610275 ], [ 79.863393469610685, 6.909865155270166 ], [ 79.86339965671732, 6.909864688509609 ], [ 79.863403616609176, 6.909863462789493 ], [ 79.863406674095899, 6.909860998749712 ], [ 79.863408921774905, 6.909855565701951 ], [ 79.86340651103994, 6.909847392042817 ], [ 79.863398645429996, 6.909843604784466 ], [ 79.863384088186962, 6.909842774223923 ], [ 79.863367014879557, 6.909841469463222 ], [ 79.863340519262664, 6.909837669496718 ], [ 79.863299976648335, 6.909828128446158 ], [ 79.863272699716518, 6.909818315416601 ], [ 79.863268654192794, 6.909816390466871 ], [ 79.863263883135218, 6.909814531484044 ], [ 79.863252725039501, 6.909809703879733 ], [ 79.863242058198267, 6.909804924899925 ], [ 79.86323255334959, 6.909800705583669 ], [ 79.863227078014518, 6.909798979287586 ], [ 79.863225978221351, 6.909798355705998 ], [ 79.863216519348185, 6.909793040440004 ], [ 79.863210004885985, 6.90978959049915 ], [ 79.863206090130106, 6.909787517315485 ], [ 79.863202928186709, 6.909785940784116 ], [ 79.863199337637809, 6.909784150551855 ], [ 79.863199145176438, 6.909784212315366 ], [ 79.86319737759537, 6.909783282474251 ], [ 79.863194151921036, 6.909781585598977 ], [ 79.863185216837948, 6.909776885272576 ], [ 79.863184039858893, 6.909776266119318 ], [ 79.863172169942487, 6.909770021914909 ], [ 79.863170452575318, 6.90976902710642 ], [ 79.863168332461569, 6.909768053459089 ], [ 79.863165947470875, 6.909766744136355 ], [ 79.863165030927888, 6.909766240968527 ], [ 79.863164554691238, 6.909765998207546 ], [ 79.863162476899618, 6.909764943499961 ], [ 79.863159866516085, 6.909763618443426 ], [ 79.863157326923584, 6.909762312925906 ], [ 79.863154874916475, 6.909760990877831 ], [ 79.863143143445384, 6.909754926432115 ], [ 79.863138590807182, 6.909752547115985 ], [ 79.863124039883672, 6.909744775938409 ], [ 79.863115408901706, 6.909740222603936 ], [ 79.863113556881586, 6.909739245557825 ], [ 79.863111967514612, 6.909738407076205 ], [ 79.863110418263162, 6.909737602159146 ], [ 79.86310926848185, 6.909737013829963 ], [ 79.863104097780209, 6.909734368044453 ], [ 79.863101552177525, 6.909733065490314 ], [ 79.863096264112514, 6.909730359651261 ], [ 79.863093576478434, 6.9097289844213 ], [ 79.863092567532277, 6.909728468155713 ], [ 79.863091137988334, 6.909727664237657 ], [ 79.863089168735755, 6.909726544583251 ], [ 79.863083718188335, 6.909723445575191 ], [ 79.863073427939554, 6.909717594866455 ], [ 79.863072571893056, 6.909717108145589 ], [ 79.863071864645889, 6.909716706027287 ], [ 79.863071181367744, 6.909716294689728 ], [ 79.863062653913005, 6.909711930152439 ], [ 79.863050940054677, 6.909705810522713 ], [ 79.863044973117397, 6.909702569479177 ], [ 79.863043044199856, 6.909701538483442 ], [ 79.863040491627288, 6.909700194463472 ], [ 79.86303629154115, 6.909697982969141 ], [ 79.863030014164238, 6.909694677707446 ], [ 79.863017363312011, 6.909687941241644 ], [ 79.863011653115464, 6.909684896161196 ], [ 79.86300525310989, 6.909681585279302 ], [ 79.862976594704477, 6.909667305115339 ], [ 79.862959091438427, 6.909658929317273 ], [ 79.862949587646057, 6.909654381488761 ], [ 79.862938295751334, 6.909649513806765 ], [ 79.862926334404804, 6.909644357538752 ], [ 79.862917966608705, 6.909640627082612 ], [ 79.862906868038365, 6.909635529109932 ], [ 79.862893179160281, 6.90962981204905 ], [ 79.862875948060065, 6.909622715653037 ], [ 79.862862496718236, 6.909617202079355 ], [ 79.862850880037811, 6.909612440515082 ], [ 79.862832994351436, 6.909604897326565 ], [ 79.862825166194071, 6.90960155364243 ], [ 79.862814632104616, 6.909597238094011 ], [ 79.862787137253079, 6.909586090461517 ], [ 79.862750111106251, 6.909571651579613 ], [ 79.8626626519046, 6.909538621361127 ] ] ] } },
{ "type": "Feature", "properties": { "roadFeatureId": "25" }, "geometry": { "type": "Polygon", "coordinates": [ [ [ 79.862550249417993, 6.909492219524372 ], [ 79.862374323272377, 6.909429119255813 ], [ 79.862361885762823, 6.909424986116382 ], [ 79.862341855848229, 6.909418301895595 ], [ 79.862329806030274, 6.90941422982826 ], [ 79.862325158848179, 6.909412541813857 ], [ 79.86232103668857, 6.909411205720096 ], [ 79.862318496822112, 6.909410407139895 ], [ 79.86231506014893, 6.909409384559605 ], [ 79.862308743949001, 6.90940721566413 ], [ 79.862299836127022, 6.909404476707833 ], [ 79.862292840465415, 6.909402338194292 ], [ 79.862289276048386, 6.909401208910178 ], [ 79.862285091216762, 6.909399995545393 ], [ 79.862272178143925, 6.909396056364072 ], [ 79.862247925168859, 6.90938903000148 ], [ 79.862243002542016, 6.909387845058331 ], [ 79.862240409320492, 6.909387167655244 ], [ 79.862234994754061, 6.909385865729185 ], [ 79.862223829630565, 6.909382965124932 ], [ 79.862216508295674, 6.909381201848896 ], [ 79.862211797623331, 6.909379980640454 ], [ 79.862208479191992, 6.909379210152467 ], [ 79.862200229409183, 6.909376885975258 ], [ 79.862183877048409, 6.909372631257718 ], [ 79.862178396575572, 6.909371414409086 ], [ 79.862174031997341, 6.909370250849476 ], [ 79.862170747933703, 6.909369635312753 ], [ 79.86216640963606, 6.909368524975547 ], [ 79.862163970975189, 6.909368027214935 ], [ 79.862157560000611, 6.90936629897266 ], [ 79.862130006291125, 6.909359497535133 ], [ 79.862112024896774, 6.909355065107079 ], [ 79.862098923165505, 6.909352354691909 ], [ 79.862088972922507, 6.909350530449171 ], [ 79.862082642337739, 6.909349087498196 ], [ 79.862074901311544, 6.909347683191507 ], [ 79.862069945032232, 6.909346599676231 ], [ 79.862064991537693, 6.909345632527819 ], [ 79.862061981608989, 6.909344929257744 ], [ 79.862057307970559, 6.909343999378575 ], [ 79.862053675430658, 6.909343382810327 ], [ 79.862045760856688, 6.909341802874074 ], [ 79.86203681094274, 6.909340196946306 ], [ 79.862032847299702, 6.909339195265287 ], [ 79.862030112658374, 6.909338789696219 ], [ 79.862024789742819, 6.909337649487578 ], [ 79.862010285325127, 6.909335071828736 ], [ 79.862004254814792, 6.909333867388436 ], [ 79.862001530175263, 6.909333409477061 ], [ 79.861996506135128, 6.909332416631994 ], [ 79.861985455774175, 6.909330457346974 ], [ 79.861978113525041, 6.909329286985058 ], [ 79.861974831454617, 6.90932895289111 ], [ 79.861972314420612, 6.909328513674904 ], [ 79.861969445762597, 6.909328087307289 ], [ 79.861960740485202, 6.909326725596508 ], [ 79.861954132113368, 6.909325885457338 ], [ 79.861947183356307, 6.909324918739925 ], [ 79.861940885056441, 6.90932380683169 ], [ 79.861937271503763, 6.909323380901847 ], [ 79.861930537358859, 6.909322576911646 ], [ 79.86192447510318, 6.909321564366199 ], [ 79.86192202612537, 6.909321246949246 ], [ 79.861894447630505, 6.909317852640656 ], [ 79.86185724464589, 6.909313320229155 ], [ 79.861840935434572, 6.909311303146275 ], [ 79.861837366344034, 6.909310929256505 ], [ 79.861831225538168, 6.909310380389684 ], [ 79.861825297993263, 6.909309700945117 ], [ 79.861819913938717, 6.909309792997775 ], [ 79.861814520701799, 6.909311303644231 ], [ 79.861809335807081, 6.909315524987295 ], [ 79.861808215793772, 6.909319549877947 ], [ 79.861807278581395, 6.909323514998467 ], [ 79.861811315610936, 6.909331652942549 ], [ 79.861815670350182, 6.909334193769651 ], [ 79.861823745843338, 6.909335711737834 ], [ 79.861841280626876, 6.909338365300019 ], [ 79.861855727951991, 6.909340493478209 ], [ 79.861861505643304, 6.909341404911157 ], [ 79.861874503986996, 6.909342723059551 ], [ 79.861895683033296, 6.909345173258173 ], [ 79.861906538698733, 6.909346368544776 ], [ 79.861912162201563, 6.909347242756592 ], [ 79.861917032576429, 6.909347833086482 ], [ 79.861919895378321, 6.909348050279201 ], [ 79.861922638745241, 6.909348587443565 ], [ 79.861928575095718, 6.909349333563108 ], [ 79.861943495678403, 6.909351622293766 ], [ 79.861951191157999, 6.909352671238972 ], [ 79.861954759075445, 6.909353318544561 ], [ 79.861966828615479, 6.909355127198022 ], [ 79.861982146374231, 6.909357581678869 ], [ 79.861989418512991, 6.90935888551232 ], [ 79.862000280215753, 6.909360808324957 ], [ 79.862016759906624, 6.909363825636015 ], [ 79.862029657602093, 6.909365773665917 ], [ 79.862029767604596, 6.909365985458757 ], [ 79.862051404169577, 6.909370372095765 ], [ 79.862053880880879, 6.909370785661178 ], [ 79.862056456910238, 6.909371534071109 ], [ 79.86205887716244, 6.909372191595904 ], [ 79.862064719730711, 6.909373185691428 ], [ 79.862073741531404, 6.909375054130225 ], [ 79.862078547660346, 6.909375937372328 ], [ 79.862090442125236, 6.909378422242553 ], [ 79.862095525049966, 6.909379692440477 ], [ 79.862108278234572, 6.909382668476373 ], [ 79.862117630252584, 6.909384763881496 ], [ 79.862120879922657, 6.909385722810816 ], [ 79.862126611493238, 6.909386587560647 ], [ 79.862152279430788, 6.909392037478892 ], [ 79.862172290909641, 6.909396658234086 ], [ 79.862200685545957, 6.909403596975073 ], [ 79.86222121286113, 6.909408878639664 ], [ 79.862243617710689, 6.909415101057907 ], [ 79.862257614295473, 6.909419364628621 ], [ 79.862267447425623, 6.909422307430392 ], [ 79.862279038662408, 6.909425874324673 ], [ 79.862290275899397, 6.909429355330469 ], [ 79.862302127475758, 6.909433123040225 ], [ 79.862312576345374, 6.909436302884012 ], [ 79.862312802557256, 6.90943655950707 ], [ 79.862349768529072, 6.909448816589682 ], [ 79.862355412815873, 6.909450701897065 ], [ 79.862363690917604, 6.90945376094208 ], [ 79.862377866936143, 6.909458715095613 ], [ 79.862385982098544, 6.909461516090158 ], [ 79.862396360537858, 6.909465312318563 ], [ 79.862401016975127, 6.909467046201869 ], [ 79.862405937020554, 6.909468679274689 ], [ 79.862413326266093, 6.909471361608207 ], [ 79.862427727708337, 6.909476665749676 ], [ 79.862433853178274, 6.909478717319185 ], [ 79.862436685685665, 6.909479961021944 ], [ 79.862443998629786, 6.909482570803239 ], [ 79.862473225775219, 6.909493138792524 ], [ 79.862489286309113, 6.909499030875647 ], [ 79.862510331029611, 6.909506751492356 ], [ 79.862523540495488, 6.909511447158686 ], [ 79.862532498358391, 6.909514700738953 ], [ 79.862538567675614, 6.909516848144499 ], [ 79.862546554546583, 6.909519961921818 ], [ 79.862553109090896, 6.909522353401852 ], [ 79.862563924848942, 6.909526299620921 ], [ 79.862573943868327, 6.909530034097258 ], [ 79.862576194500306, 6.909530616029859 ], [ 79.862582205392371, 6.909532503481046 ], [ 79.862584527079363, 6.90953089241224 ], [ 79.862580282213898, 6.909525150086984 ], [ 79.862575169976935, 6.909519728901423 ], [ 79.862570002950022, 6.909513623702384 ], [ 79.86256410833289, 6.909505720362224 ], [ 79.862559119311214, 6.909499644142839 ], [ 79.862550249417993, 6.909492219524372 ] ] ] } }
]
}
