{"type":"FeatureCollection","features":[{"type":"Feature","properties":{"Name":"Dr CWW Kannangara Mawatha","ID":10524},"geometry":{"type":"Polygon","coordinates":[[[79.86340209149758,6.910121363465046],[79.86341201548157,6.910130449373336],[79.86341617655371,6.91013433838973],[79.86341812747062,6.910136071653833],[79.86342089259497,6.910138600672966],[79.86342118752339,6.910138653561895],[79.86346223936981,6.910176553161657],[79.86346992315386,6.910183798519695],[79.86347582792423,6.910189261459813],[79.86347969806933,6.910192922986963],[79.86348368855533,6.910196460711983],[79.8634925832969,6.910204643526261],[79.86350371759903,6.9102152420408025],[79.86350650110487,6.9102178950719475],[79.8635096401644,6.910221029717331],[79.86351267751972,6.910224530371096],[79.8635181176372,6.91022943167173],[79.86352226497033,6.910232559027748],[79.8635269686611,6.910236860999239],[79.86353240673785,6.9102421037664055],[79.86354479212152,6.910253730417725],[79.86356187903598,6.910270182623923],[79.86358738483197,6.910294513213926],[79.86359427104932,6.910301008590124],[79.86360482191405,6.910311581011295],[79.86361165252644,6.9103180825270805],[79.86362688605767,6.91033304618994],[79.86363978158376,6.910345556523012],[79.86364539352718,6.910351164842236],[79.86365684337919,6.910362310832758],[79.86366357219968,6.910369231601609],[79.86366809902873,6.910373657330189],[79.8636767368881,6.910381976399124],[79.8636881612877,6.910391283581697],[79.863695189706,6.910400221826382],[79.86371437237314,6.910420764423596],[79.86372145831962,6.910428285522045],[79.86372381624014,6.910430692479666],[79.86373048800469,6.910437934584339],[79.86374405334155,6.910452504734132],[79.86378033698276,6.910492276951434],[79.86380149187202,6.910515244051356],[79.86381478275102,6.910530465434567],[79.86388620598014,6.910612641114909],[79.8639286747483,6.910661237795805],[79.86394918494794,6.910685867634742],[79.86399230679412,6.910739945800143],[79.8640191932651,6.910774151484327],[79.86402668642694,6.9107840807691305],[79.86405053571434,6.91081555084176],[79.86411352009824,6.910903980211294],[79.8641136357784,6.910903944824077],[79.86414589139522,6.910950731918209],[79.8641599598708,6.910971900998682],[79.86417917425638,6.911000683655801],[79.86419369776029,6.91102331626006],[79.86419877764133,6.911032623131604],[79.86421100912764,6.911052516659263],[79.86422860151845,6.911079905564219],[79.86423507609065,6.911090878850891],[79.86424869656261,6.911113536254831],[79.86426626950836,6.911142651319851],[79.86427294294703,6.911154874853184],[79.86428519114979,6.911178067764584],[79.86429894643005,6.911204000653431],[79.86430485549322,6.911216873406524],[79.86431561416957,6.911241179328396],[79.8643253280815,6.911266960147827],[79.86433629438157,6.911301019720583],[79.86434153598137,6.911322162021624],[79.86434527252831,6.91134194470807],[79.86434785557073,6.911361066017369],[79.8643490895607,6.9113832381039915],[79.86434806048337,6.91139961772599],[79.86434618269249,6.9114147828997705],[79.86434343969518,6.911428958431449],[79.86433794058874,6.911450855226224],[79.86433000709589,6.911476896017257],[79.86445329330138,6.9114760792936805],[79.86445740810417,6.911475741422311],[79.86446226280445,6.911474658389808],[79.86447010608433,6.911473250009813],[79.86448208364429,6.91147129132513],[79.86449113253978,6.911469644964647],[79.86449851869253,6.911468763264208],[79.86449899218087,6.911468391348824],[79.8645159928846,6.911467058762095],[79.8645334951359,6.911465814384439],[79.86466092909453,6.911296553764661],[79.86465453228918,6.9112972822743695],[79.86465070168384,6.91129723313178],[79.86464620723909,6.911296294993808],[79.86463981260415,6.911293951385586],[79.86463307904789,6.9112905900455734],[79.86462802951092,6.911287291248224],[79.86462312101499,6.911282961400203],[79.86461409980744,6.911272826604641],[79.86460598184995,6.911261646596504],[79.86459730467847,6.911248633467468],[79.8645917245456,6.911238569126996],[79.8645843329273,6.911225661701461],[79.8645762752679,6.911210430560068],[79.86453901154701,6.911139330799211],[79.86451834705056,6.911098210197038],[79.86451443713187,6.911087758852233],[79.86446157059949,6.910981270918227],[79.86445817923155,6.910979570848505],[79.86445289683236,6.910975536524544],[79.86444461648824,6.910967198094791],[79.8644382559665,6.9109583923380615],[79.86441531833322,6.910920921715549],[79.8644037371763,6.910902006456476],[79.86439906020118,6.910894789073585],[79.86438144632821,6.9108718041742545],[79.86436763489455,6.910852009336911],[79.8637317714338,6.910074713399526],[79.8636964655093,6.910036045874073],[79.86369078184805,6.910029500113831],[79.86367521026911,6.910011955195076],[79.863662735814,6.909998123236278],[79.86366101406124,6.909996245008724],[79.86365789613858,6.909992681294596],[79.86365001398508,6.909983904016184],[79.86363864825296,6.909970379760978],[79.8636284866166,6.909957536231098],[79.86361866601398,6.909944672610464],[79.86361029386451,6.90993282324038],[79.86360346972091,6.909921274258878],[79.8635978541695,6.909908814977938],[79.86350842938926,6.910021106000185],[79.86350386831593,6.910022390833258],[79.8634959964585,6.910029412015916],[79.8634930352686,6.910035874130424],[79.86340209149758,6.910121363465046]]]}},{"type":"Feature","properties":{"Name":"Albet Crescent Road","ID":10525},"geometry":{"type":"Polygon","coordinates":[[[79.8608128914006,6.909340868078547],[79.8608303170246,6.909338044660209],[79.8608475024676,6.909335097908878],[79.86085610114381,6.909333706693094],[79.86086481059552,6.909332378875679],[79.86087533139083,6.909330968358743],[79.86088014157187,6.909330196782021],[79.86088469021266,6.909329621562006],[79.86088750606822,6.909329292731488],[79.86089108693817,6.909328769578287],[79.86089730356142,6.909327987072739],[79.86090703664763,6.9093266799494115],[79.86091683844033,6.909325581861418],[79.86091992048442,6.909325127140191],[79.86092858313475,6.909324078314986],[79.8609506219525,6.909321218925832],[79.86095715707566,6.9093205561681],[79.8609691158215,6.909319183756471],[79.86097890360925,6.909318155957229],[79.86098736007116,6.909317155615538],[79.86100855492079,6.909315052843298],[79.86103483538884,6.909312794168845],[79.8610410181592,6.909312109769561],[79.8610444639584,6.9093119363800755],[79.86105282037472,6.909311137104865],[79.86105802726456,6.909310828269973],[79.86106284160736,6.909310351910008],[79.86106591404172,6.909310096640729],[79.86106839032666,6.909309653898707],[79.8610739644865,6.909309352805082],[79.86111284637937,6.909307151528517],[79.86115202041704,6.909303758374495],[79.86117527079517,6.909302295077349],[79.8611836597036,6.909302052192135],[79.86118810857646,6.909301808838203],[79.8611927187276,6.909301688673907],[79.86120319456907,6.90930120005325],[79.86121100390965,6.909300978247232],[79.86121786334283,6.909300561428641],[79.8612223407619,6.909300384120838],[79.8612290216435,6.909300178302186],[79.86124197782237,6.909299278267379],[79.86125885184718,6.9092984476093955],[79.86127125195085,6.909298968525229],[79.86128412138827,6.90929867902182],[79.86129476174668,6.909297932855663],[79.86130013934358,6.909298930147147],[79.86130277995028,6.909297939224351],[79.86130482909732,6.909297905125815],[79.86130756694264,6.9092989159951665],[79.86132182924186,6.909297365799957],[79.86134312238507,6.9092967693089955],[79.86136512492365,6.90929640440231],[79.86138394653982,6.9092960148428855],[79.8613841227569,6.9092961301448055],[79.86139357681306,6.909295901038539],[79.86141366359652,6.909295398891162],[79.86143861049746,6.909294650998017],[79.86146534374136,6.909294575320647],[79.86149299674994,6.909296227957068],[79.8615190477675,6.909299852810963],[79.8615346400692,6.909303867609711],[79.86154948796627,6.909309349215508],[79.86157038956007,6.909318803866306],[79.86159247518553,6.909330073008571],[79.86160450168923,6.909336346150957],[79.86162307124837,6.909345318972879],[79.86167030104878,6.909369434670271],[79.86172106620712,6.909394575705925],[79.86174187867582,6.909404294662596],[79.86176152109412,6.909410364393723],[79.8618029821093,6.909417691194738],[79.86182367700641,6.909420713741702],[79.86183375527325,6.909421965718882],[79.86185600189623,6.909425310784889],[79.86186552553596,6.909426484431975],[79.86189970007814,6.9094309672658705],[79.8619137846493,6.909433054335335],[79.86192082002363,6.909434073457568],[79.86192599128073,6.909434677273536],[79.86195201245235,6.909438097181706],[79.86197265488342,6.909441343928213],[79.86198300149397,6.909443159463639],[79.86198763885096,6.909443645662081],[79.86200821742814,6.90944745189695],[79.86202870445211,6.909451579790569],[79.86203722341432,6.909453138913401],[79.86204523959772,6.9094546891117705],[79.86206381168942,6.909458498020572],[79.8620644528972,6.909458181873812],[79.86208582643957,6.909462887160814],[79.8620977234264,6.909465698454351],[79.86210279001446,6.9094671236653475],[79.86210707364621,6.9094682080893035],[79.86211384116125,6.90946969730693],[79.86211390649292,6.909469452794006],[79.86213027978864,6.909473413442531],[79.86214100166032,6.909476222378748],[79.86217629700168,6.909484849120089],[79.86217702458421,6.909484475269625],[79.86219722508731,6.909489941260327],[79.86220720505726,6.909492831359727],[79.86222090674279,6.909496551828271],[79.86224553485236,6.909503729181346],[79.86227878840903,6.909513846799515],[79.86229971108719,6.909520649366061],[79.86231833342268,6.909526769638911],[79.86234314057846,6.909534532994562],[79.86234753470497,6.909535981898235],[79.86235167866164,6.909537244865593],[79.86236338722475,6.909541063979896],[79.86236885278409,6.909543137297291],[79.86238131245479,6.909547548367709],[79.86240096142343,6.909554302808359],[79.86243901782426,6.909567609088657],[79.86245903048825,6.90957426955231],[79.86246850805254,6.909577529138315],[79.86248680602927,6.90958351200508],[79.8624978189954,6.909587459331997],[79.86253079965687,6.909601616486064],[79.86254722512605,6.909608368745592],[79.86255004711786,6.909609310928842],[79.8625567070197,6.909611836077951],[79.86256881036105,6.909616242611242],[79.86257941984512,6.909620381188849],[79.86261474138996,6.909633969702354],[79.86264290986574,6.909644449154713],[79.86267368338623,6.90965588888352],[79.86270048892985,6.909666425389137],[79.86276199102745,6.90969439363996],[79.8627892012772,6.909705351640119],[79.86280403055743,6.90971147465998],[79.86280844024797,6.909713387147936],[79.86281683928189,6.909716785847235],[79.8628232998234,6.909719758574474],[79.86282311282022,6.90972461561647],[79.86282326689496,6.909731375875403],[79.86282343836831,6.909736555829788],[79.8628257779582,6.909747683513362],[79.86283929471313,6.909755117857749],[79.86284714438838,6.909758918042448],[79.86285556559965,6.909762889392367],[79.86286696796493,6.909768585399165],[79.86287280588097,6.909771383611798],[79.86288422817516,6.909776935606133],[79.8628947706704,6.9097811796593485],[79.86289870703874,6.909779920950801],[79.8629052401613,6.909772517154093],[79.86290746744768,6.909769606297189],[79.86290930083592,6.909766795435382],[79.86291178195765,6.909763418845046],[79.8629179995949,6.909762525150245],[79.86294940414791,6.909778571156451],[79.86295749608371,6.909782528570776],[79.86296299119131,6.909785362236191],[79.86297768876231,6.909793955455246],[79.86299665930775,6.909804583954568],[79.86300446159878,6.9098088845156225],[79.8630104315809,6.909812609810697],[79.86301521911625,6.909815834627631],[79.86302636512346,6.909821896927738],[79.86305402027388,6.909837310094217],[79.86306489892917,6.909845076619815],[79.8630728125123,6.909850330512315],[79.8630840770712,6.909857502683001],[79.8630971262901,6.90986624686859],[79.86310740609184,6.909873610595491],[79.8631163111586,6.909879425901319],[79.86312959893465,6.909888650038139],[79.8631430419152,6.909899080348016],[79.86315308360606,6.909906378291529],[79.86316752368134,6.9099156576264],[79.86318111324994,6.909925707446322],[79.86319592830341,6.909937523464723],[79.86320150726516,6.90994187172036],[79.86320378796972,6.9099438042227055],[79.86321265756114,6.909950976621204],[79.86322064361364,6.909957875763392],[79.8632239852227,6.909963580777272],[79.86334162322912,6.9100711450695975],[79.86340361660918,6.9098634627894935],[79.8634066740959,6.9098609987497115],[79.8634089217749,6.909855565701951],[79.86340651103994,6.909847392042817],[79.86340268472675,6.909845277490914],[79.86340439281581,6.909745270495474],[79.86338932279742,6.9097454276430135],[79.86337308795541,6.909744336876968],[79.86335727804178,6.909742746192568],[79.86333739143889,6.909739790194743],[79.86331421421517,6.909733401164098],[79.8632926578491,6.9097246447219005],[79.8632551852997,6.909708675716592],[79.86324405051349,6.90970507638004],[79.86319765643118,6.909676357020411],[79.86318671597449,6.909670643645058],[79.86317711383647,6.909665382977834],[79.86316363784529,6.909658354868358],[79.86315547964007,6.909653887760877],[79.86314929016854,6.9096506824827895],[79.86314614685124,6.9096491871250425],[79.8631440087433,6.90964789820547],[79.86314167633994,6.909646700891634],[79.86313628858397,6.909643899551905],[79.86313018473834,6.9096389671773455],[79.86312371518089,6.909637061711782],[79.86311636353597,6.909633257834445],[79.86310655262734,6.909628137624991],[79.86305389523139,6.909600879130544],[79.8630423763855,6.9095955378139875],[79.86303155618566,6.909590361375299],[79.863025461713,6.9095876244490055],[79.86301672957632,6.909583682484591],[79.86299489474992,6.909573837850318],[79.86296879659024,6.909561592850711],[79.86296022929791,6.909557480650422],[79.86295320463127,6.909554339727013],[79.86294671918093,6.909551517462668],[79.86293421630147,6.909545754473577],[79.86290411123039,6.909532147167576],[79.86289330975887,6.90952687134772],[79.86287784498327,6.909520097715483],[79.8628410710299,6.909503640888019],[79.86282253247037,6.909495449861599],[79.86281302465663,6.909491573810471],[79.86279291918956,6.909482418955721],[79.86276562666042,6.909470688678072],[79.86273635716883,6.909458757702517],[79.86271207824562,6.909449115890247],[79.86270228962046,6.909445190681219],[79.8626759936469,6.909435037132222],[79.86261236884945,6.909411358223411],[79.86261073381397,6.909406668171171],[79.86257763616966,6.909394743385444],[79.86256549986642,6.909390379874859],[79.8625459532034,6.909383485469705],[79.8625410215956,6.9093816918306885],[79.86253005631232,6.909378111732513],[79.86252126737125,6.909374624347176],[79.86251886257216,6.909373058306113],[79.86241803356367,6.909343985717606],[79.86239998399277,6.909338574590792],[79.86239350851325,6.909336793612552],[79.86237817635472,6.90933214881372],[79.86235314193509,6.909324859413619],[79.86233753127578,6.9093204678204065],[79.86231349569111,6.909313596439574],[79.86229636280488,6.909308959117983],[79.86228653919578,6.909306224993033],[79.86227882414042,6.909304139219875],[79.86227868290918,6.909304217319891],[79.8622600090221,6.909299318163381],[79.86225514862676,6.909298048815387],[79.86224331311847,6.909295237019447],[79.86221726148558,6.909288721085591],[79.86221175337752,6.909287517794111],[79.86220312719483,6.909285563400131],[79.86219638168015,6.9092837631956225],[79.86216908638846,6.9092771540765145],[79.86214522526859,6.909270008210114],[79.86209756658054,6.90926172463415],[79.8620829637646,6.909259069297883],[79.86207272709818,6.90925716700698],[79.86204864794418,6.909252741587544],[79.86202649223479,6.909249014240004],[79.8620009043543,6.9092439805388395],[79.861993176564,6.909242602475896],[79.86198099553052,6.909240405881879],[79.86196766385123,6.909237916188029],[79.86195728345089,6.9092358288389795],[79.8615313993924,6.909194427435273],[79.86148989794697,6.909195516592226],[79.8614637267592,6.909195834985931],[79.86142645211129,6.90919632286724],[79.86138194893854,6.909196953236103],[79.86131063875895,6.909198264410644],[79.86126038280622,6.909199418556991],[79.86123844682828,6.909200340475649],[79.86119958312393,6.909201351520614],[79.86116564139682,6.909202299557593],[79.86114294143529,6.9092047533433485],[79.86112569343918,6.909206077779289],[79.86110629549914,6.909207115402492],[79.8610938899841,6.9092076349672835],[79.86106772701083,6.909208958289447],[79.8610596045665,6.909209304211358],[79.86104883676926,6.909209843624317],[79.8610396719619,6.909210201984826],[79.8610325168769,6.909210622980828],[79.86102020577296,6.909211059053212],[79.86101382387625,6.909211596760848],[79.86100416792002,6.909212053172242],[79.86098817586723,6.909212548616991],[79.86098128012364,6.909212984319038],[79.86097234622862,6.909213482754081],[79.86095471585526,6.909214046404851],[79.86093611125087,6.909214748480607],[79.86092653209109,6.909215292893102],[79.86090589432523,6.909216035047931],[79.86089434969975,6.909215602558133],[79.86088100227799,6.909213488826756],[79.86086757569562,6.909209819986532],[79.8608543249498,6.909204309547724],[79.8608128914006,6.909340868078547]]]}},{"type":"Feature","properties":{"Name":"Independent Avanue","ID":10526},"geometry":{"type":"Polygon","coordinates":[[[79.86340439281581,6.909745270495474],[79.8635978541695,6.909908814977938],[79.86359291283888,6.909893548128369],[79.86358947503278,6.909878828973227],[79.86358706113676,6.909865368903233],[79.86358631358505,6.909859234041827],[79.86358547994848,6.909854120351001],[79.86358595602363,6.909844627276096],[79.8635864125678,6.909831956666784],[79.86358671432988,6.909827028068046],[79.86358678000235,6.909823967574007],[79.86358758949268,6.909818997280478],[79.8635886704905,6.909812321975869],[79.86359155916777,6.909797853355204],[79.86359528022517,6.9097841875946235],[79.86359977829024,6.909769965372776],[79.86360628019855,6.909752822435422],[79.86361437166984,6.909736192995795],[79.86362185549183,6.909722226708357],[79.86362931146171,6.90970916122459],[79.86363138641745,6.909705279337526],[79.86363350152767,6.909702036085706],[79.86363768258497,6.909695428264],[79.86364060654388,6.909690480913814],[79.8636446644627,6.909684023424449],[79.86365141113642,6.90967301536202],[79.86365573913106,6.909666468854144],[79.86365977164957,6.909660346094798],[79.8636626415242,6.9096564632156445],[79.86366413466034,6.909654188440409],[79.86366827942383,6.909648290459347],[79.86367211718942,6.909642657043158],[79.86367608954079,6.90963692003813],[79.86367910024362,6.909632416775575],[79.8636806142666,6.909630186636042],[79.8636823435579,6.9096268332013535],[79.86368581718934,6.909623170599094],[79.86369049833054,6.909616358649872],[79.86369649395262,6.909607689062084],[79.86369792697815,6.909605461896109],[79.86370172752754,6.909600554818909],[79.8637118291914,6.909586289208068],[79.86371546287602,6.909580943312152],[79.86371908241269,6.909575632068259],[79.86372239865933,6.909571126720122],[79.8637573995132,6.909522722071583],[79.86377439808084,6.909499090124724],[79.86380319439735,6.9094590133811105],[79.86382970713018,6.909422411936268],[79.8638563902282,6.909385979303128],[79.86387062570516,6.9093658103936635],[79.86390056143308,6.909324206280266],[79.86394581285822,6.909261809404097],[79.86397089978007,6.909226609677843],[79.86401136369008,6.9091697383617925],[79.86407012544855,6.909088479499782],[79.86409235858169,6.909057128260947],[79.86409885962237,6.909048269835002],[79.8641103429392,6.909032198446833],[79.86411893565257,6.90902028992062],[79.86414332359631,6.908985830378299],[79.86415374519214,6.9089723553752265],[79.86416104733921,6.908963151276286],[79.86417168876469,6.9089476447025255],[79.86418592581704,6.908927989663474],[79.86419852617227,6.9089105506139905],[79.86422082584289,6.908879666131794],[79.86423909165524,6.908854145155755],[79.86425505610435,6.908832044440932],[79.8642682070543,6.90881343282295],[79.8642892445183,6.908784612628891],[79.86431144821165,6.908753859943452],[79.86432545244094,6.908734851455638],[79.86435655253209,6.908696180419734],[79.8643560749117,6.908691211393472],[79.86436011357388,6.908685987069547],[79.86436442664254,6.90867986156238],[79.86437235953662,6.908669042498417],[79.86437761189939,6.90866175697482],[79.8643803818435,6.908657621420887],[79.86438418620229,6.908652458657242],[79.86438788360881,6.908647238905636],[79.86439215611117,6.90864131212687],[79.86439759423814,6.908634375360286],[79.86440424194828,6.908625111139916],[79.86440669531254,6.908621485977618],[79.86441219092897,6.908613853917698],[79.86442369211478,6.908598170980022],[79.8644300865098,6.908588925168531],[79.86443122789699,6.908587036710926],[79.86443466963885,6.908582406902083],[79.86444119862813,6.9085738430870345],[79.86445661488344,6.908551998743181],[79.86448234949226,6.908515642643111],[79.86449477506773,6.908499198714947],[79.86449799856436,6.908495004773303],[79.86450086001744,6.908490621783978],[79.86450755153132,6.908481502522518],[79.86451229388277,6.9084755584835795],[79.86451397964717,6.9084728109806015],[79.86451581289134,6.908470138755655],[79.86451882187451,6.908465957655598],[79.86452278481909,6.908460333866263],[79.86452931389869,6.908451524966941],[79.86453293545082,6.908446813111572],[79.86453741737489,6.9084405854442545],[79.8645415854658,6.908434957648348],[79.864554401841,6.908417067741636],[79.86457987427508,6.908382810268007],[79.86459424378347,6.90836438688894],[79.86460274003556,6.908354190130104],[79.86460616357425,6.908349937354435],[79.86460917126914,6.908346570259095],[79.86461374341712,6.9083412818086325],[79.86462861037688,6.9083255488983095],[79.86464057309308,6.908313832917797],[79.86465793195292,6.908298125311113],[79.86466654288976,6.908291092997226],[79.86467358190265,6.908286208170852],[79.86452637469363,6.90823691588745],[79.86452252908576,6.908248535125403],[79.86451826311085,6.908259538685589],[79.86451572569928,6.908265925520186],[79.86451475687458,6.908268585615413],[79.86451365902084,6.90827092017774],[79.864512152431,6.908274259772221],[79.86450873754414,6.908280891861375],[79.8645063853585,6.908285616794439],[79.8645030961184,6.9082916360623186],[79.86450092741532,6.908295750387767],[79.86449458522414,6.9083066355358325],[79.86448813167581,6.9083169501130035],[79.86448599200085,6.908320908853953],[79.86448464356768,6.908323121891532],[79.86448285513522,6.908325487254025],[79.86447740131281,6.908333630552364],[79.86447314070001,6.908339930741528],[79.86447127014739,6.908342872767999],[79.86446785952252,6.908347639174705],[79.86446292399194,6.908354545044053],[79.86445608551341,6.908363726397059],[79.86440445128169,6.90843497774882],[79.86440071978657,6.908440090317445],[79.86439740715043,6.908443386053034],[79.86438867252592,6.908456998115686],[79.8643859739275,6.908460714770893],[79.86438292914745,6.908464997692096],[79.86438041259532,6.908468471706941],[79.86437896606442,6.90847054826031],[79.86437611947788,6.908474507960835],[79.86437171815034,6.908480745891614],[79.86436850610228,6.908484798962191],[79.86436099742446,6.908495267298692],[79.86434305908404,6.908520474507086],[79.86432516698798,6.908545092348533],[79.86431442252687,6.908560067409585],[79.86429038058705,6.908593273089622],[79.86427716075565,6.9086115991322865],[79.8642680532493,6.908623845457191],[79.86426197077444,6.908632341675794],[79.86425780206737,6.908638029288761],[79.8642493286468,6.90864977885728],[79.86424171448259,6.908660007281765],[79.86423785396443,6.908665351819169],[79.86423590706683,6.908667986229325],[79.86423452070065,6.908670068083157],[79.86421676013076,6.90869465767686],[79.86420649750401,6.908708511501489],[79.86420324528041,6.908713025756414],[79.86415804932508,6.908775772689433],[79.86411629221915,6.908833475501764],[79.86409907449347,6.908857372983024],[79.8640811721719,6.908882156916861],[79.86404655440236,6.908929758899505],[79.86401735360162,6.908970405572078],[79.86399817893921,6.908997525586789],[79.86398927911617,6.9090098215721705],[79.86398106271734,6.909020993125594],[79.86397907194792,6.909023650673246],[79.86397771791387,6.909025798125443],[79.86397612856058,6.909027854663497],[79.86397416595173,6.909030730085929],[79.8639678514511,6.909039535410414],[79.86395990828044,6.909050139862193],[79.86394818703668,6.909066475483481],[79.8639386968432,6.909079516114146],[79.86392561086495,6.909097467661191],[79.86384062187305,6.909215452562502],[79.86379089660525,6.909287086688694],[79.86375306348768,6.9093389390571485],[79.86373972854062,6.9093569370234],[79.86372768658345,6.909373743939955],[79.86372434954554,6.9093782296682935],[79.86372207600535,6.909381429154161],[79.86371932823599,6.909385157939653],[79.86370877088342,6.909399806282063],[79.86370003741568,6.909409891464335],[79.86369599198883,6.909417499685632],[79.86368776590074,6.909429176131505],[79.86366674360269,6.909457219116785],[79.86364101816606,6.909492147824817],[79.86362672621121,6.909513252034732],[79.86360950284448,6.909537073000119],[79.86360489047932,6.909543382368261],[79.86359019516367,6.909563582699828],[79.86355823377367,6.909607020025194],[79.8635538917083,6.90961266175834],[79.86355125482311,6.909616184942295],[79.86354672608712,6.9096219776257986],[79.86353456057411,6.90963818610299],[79.86351740639441,6.909660541406378],[79.86350235070746,6.909679435370249],[79.86348634542328,6.909698579612918],[79.86347856997295,6.909707232682168],[79.86347035973529,6.909715090782216],[79.8634637430547,6.9097208385380195],[79.86345634481985,6.909726324415337],[79.8634466047567,6.909732438853103],[79.86343807615786,6.909736719668872],[79.863423722685,6.9097419107960345],[79.86341316591601,6.909744461719929],[79.86340439281581,6.909745270495474]]]}},{"type":"Feature","properties":{"Name":"Premasiri Khema dasa Mawatha","ID":10527},"geometry":{"type":"Polygon","coordinates":[[[79.86412586952662,6.907750547652359],[79.86404969619514,6.90759889647705],[79.86404557928374,6.907600886451709],[79.86404299067095,6.907601966029848],[79.8640404357966,6.907602879131699],[79.8640358430506,6.907604219293523],[79.86402852482867,6.907605508108984],[79.86402294192418,6.907605945351837],[79.86401675682583,6.9076055085709145],[79.86401057925602,6.9076045380405695],[79.86401021223148,6.907601472518373],[79.86400810309203,6.907603841506971],[79.86400691985513,6.907601318839102],[79.86400501403102,6.907602723166945],[79.86400159383443,6.907601243494914],[79.86399728450836,6.907599760446875],[79.86398942959224,6.90759656070666],[79.8639793583616,6.907591990737698],[79.86396672118468,6.907585999144789],[79.86348448347675,6.907371090900468],[79.86345647018337,6.907359721990869],[79.86341188895479,6.907341627350944],[79.86338100529282,6.907329387675643],[79.86336796492579,6.90732439692073],[79.86334749473822,6.907316384843731],[79.8633205865776,6.907306397799124],[79.86329990015739,6.90729896307662],[79.8632854821687,6.907293400943466],[79.86327307928744,6.9072889475658945],[79.86324859022348,6.907279947931603],[79.86323946767162,6.907276822749248],[79.86321689347837,6.907268865222999],[79.86320789992519,6.907265613684532],[79.86317526073513,6.907254569584148],[79.86312883935479,6.907239195893335],[79.86308860737606,6.907226311761421],[79.86308043963376,6.907223902858962],[79.86306256625964,6.907218331737191],[79.86301476949481,6.9072038587028715],[79.86297233638737,6.907190690422486],[79.86295822662713,6.907186525382639],[79.86291687793319,6.907174096568891],[79.86289852027724,6.907168667679752],[79.86288333592103,6.907163999921851],[79.86284078903269,6.907151822605954],[79.86282785959537,6.907148019539813],[79.86282148815863,6.907146410811957],[79.86280242971095,6.907141261320968],[79.8627940127644,6.907139144833529],[79.86278296785174,6.9071363395492655],[79.86276743295059,6.90713211874985],[79.86275106787038,6.907127904677578],[79.86273570343225,6.907123904568661],[79.86272769162184,6.907121663461307],[79.86271918455857,6.907119463805442],[79.8627147151548,6.9071184461422295],[79.86269810008015,6.907114113473743],[79.8626837667712,6.9071104386769475],[79.86267887457066,6.907109089209715],[79.86267632596093,6.907108523997932],[79.8626721914649,6.907107572834249],[79.86266946930266,6.907107093672423],[79.86265228870295,6.90710275136569],[79.86263360212615,6.907098042477251],[79.86262728503023,6.907096475971247],[79.86261433084873,6.907093447992081],[79.86258094395951,6.9070856053630205],[79.86258077575825,6.907085698395421],[79.8625493732683,6.9070787189203475],[79.86253511623475,6.907075756428731],[79.86252908071128,6.907074676946544],[79.86251778491564,6.907072350819651],[79.86250810747687,6.907070161002865],[79.86249499995341,6.90706750026954],[79.86246698805797,6.907062483412801],[79.86242163989921,6.907054658132521],[79.86240736724919,6.9070522812116115],[79.86240205276084,6.907051218676503],[79.86238724397599,6.907049028620124],[79.86237234870595,6.907047454502245],[79.86236416374236,6.907046200240265],[79.86235674109638,6.907045145799964],[79.8623341735313,6.907041396909528],[79.86232024936236,6.90703932413836],[79.86231625785352,6.907038980892798],[79.86230389964595,6.907037422573687],[79.86225110297308,6.907030372264256],[79.8622249025815,6.9070269926047265],[79.86220136923279,6.907024379619997],[79.86216469604783,6.907019933343824],[79.86214833675089,6.907018094765625],[79.86212920831156,6.907015819844803],[79.86211224363373,6.907013908415388],[79.86209871190094,6.907012240207142],[79.86206605985282,6.907008263197155],[79.86203018095904,6.907004302753538],[79.86202961205362,6.90700461709056],[79.86201333425713,6.907002891043188],[79.86200768580991,6.907002271920038],[79.86199475289035,6.907001083669534],[79.86198524513834,6.907000281966573],[79.86198253771728,6.907000100301587],[79.86195380906504,6.906997385284802],[79.86191366009272,6.9069936844029005],[79.86190707906117,6.9069929649733774],[79.86190098653269,6.906992487536781],[79.86189187992495,6.9069917336629505],[79.86186801191036,6.906989689626292],[79.86184794044755,6.906987900085952],[79.86184109263387,6.906987047802174],[79.8618365349233,6.906986955024727],[79.86182951450375,6.906986374074318],[79.86181557946819,6.906985191298163],[79.86179507991201,6.906983663132365],[79.86177180015116,6.906981752126128],[79.86176843540409,6.9069816290586115],[79.86176168929131,6.9069813177893895],[79.86174246633595,6.906979657965331],[79.86173787942087,6.906979131869146],[79.86173341922381,6.9069788765722375],[79.86172164925289,6.906977962711324],[79.86170630582865,6.906976672283996],[79.86169996761802,6.906976316548544],[79.86168574522239,6.906975328463776],[79.86167486943317,6.906974301052599],[79.86165981321444,6.906973165659327],[79.86165157135241,6.906972646224538],[79.86163882249163,6.906971675662197],[79.86163448313259,6.906971279607585],[79.86163095823365,6.906971214217357],[79.86161550479697,6.906969983835791],[79.8615150826217,6.906962391833155],[79.8614900399224,6.906960413442249],[79.8614826524082,6.906959895022389],[79.86147929946347,6.906959752865817],[79.86146457883177,6.906958672275712],[79.86143505197535,6.9069566949150065],[79.86139495071087,6.906953720510881],[79.86136565266122,6.906951791958756],[79.86135199873344,6.906951148227385],[79.86134326068323,6.906951446752483],[79.86133825581648,6.906951289883719],[79.86132892301296,6.90695078146913],[79.86132302925405,6.9069502142657395],[79.86130309061438,6.90694923055023],[79.86128542160469,6.906947856467023],[79.8611666918331,6.90694025568019],[79.86110755471235,6.906937398178044],[79.8610778393429,6.906935743592618],[79.8610611734772,6.906934402985326],[79.86105748808993,6.906934005306189],[79.86105314688506,6.906933754642991],[79.86104815884859,6.90693392280025],[79.8609984320829,6.906932586958247],[79.86083687426402,6.90693053739291],[79.86070001101552,6.906931099037409],[79.86061894761879,6.906932212673533],[79.86057326532789,6.906932438829399],[79.86054057989789,6.906933692722765],[79.86044233759739,6.906938572280316],[79.86043447614877,6.906973913626214],[79.86044231106857,6.906986063123071],[79.86043793120389,6.9069876467261615],[79.86042175199451,6.906992793542316],[79.86039724502379,6.907001001963286],[79.86038246382863,6.907006308302277],[79.86036867895773,6.907011647395228],[79.86034359136785,6.907022555461028],[79.86030842469857,6.907038680021491],[79.86028950003322,6.907047922833969],[79.86027484291408,6.907055538000926],[79.86026254066182,6.907062563154552],[79.86025021688693,6.907069991987548],[79.86023592482385,6.907079287267554],[79.8602213112925,6.907089575052773],[79.86020772404194,6.907099660751328],[79.86019466548251,6.907110081851566],[79.86018184423628,6.907121099853378],[79.86016983159134,6.907132827996768],[79.86015824217691,6.907145290198382],[79.86014770789872,6.90715820543642],[79.86013921314138,6.907170180022907],[79.86013533429151,6.907176138924593],[79.86013228036208,6.907180924818487],[79.86011680759667,6.907208615719272],[79.86010732619737,6.907226223113213],[79.86010469963797,6.907231215241623],[79.86010285270164,6.9072355288235805],[79.86010065119454,6.907240056586524],[79.86009560013086,6.907252981492815],[79.86008966461114,6.90726857350925],[79.86015399954765,6.9073547907446375],[79.86015192578091,6.907334974738227],[79.8601521282638,6.90731913700256],[79.86015239765283,6.907303627671887],[79.86015404828353,6.907285602867334],[79.86015738106086,6.9072634757582785],[79.8601620047904,6.907248496397992],[79.86016736336784,6.907235192025792],[79.8601715673566,6.907226104990134],[79.86017645064605,6.907216153283946],[79.86018033520766,6.90720895566983],[79.86018460704297,6.907201601898801],[79.86018846130716,6.907195537784607],[79.86019087572052,6.907192237087857],[79.86019612653706,6.90718568206476],[79.86020429390167,6.907176480435504],[79.86021201507697,6.907168387250378],[79.8602212716996,6.9071594590292165],[79.86022901792198,6.907152585795153],[79.86023635180713,6.907146638663053],[79.8602387093865,6.907144446276201],[79.86024585251943,6.907138910707224],[79.86025831342353,6.907129889265117],[79.86027657342225,6.907117760833038],[79.86028660689017,6.907111965984723],[79.86030134257435,6.907103993546486],[79.8603158474224,6.9070964831407995],[79.86034496176299,6.907082991679645],[79.86037799414693,6.907069581579965],[79.86040953397949,6.907058060317319],[79.8604358311689,6.907049768238771],[79.86045037934471,6.907045664336004],[79.86048076354834,6.9070390471230105],[79.86053718829174,6.907030647546136],[79.86058144794544,6.907026541765288],[79.86067314497943,6.907020281628007],[79.86072720990025,6.9070186458254055],[79.8607605770854,6.907018477517659],[79.86081426647169,6.907018862423055],[79.86085067980801,6.907020002790335],[79.86089453265764,6.907021054726614],[79.86092859200362,6.9070221308246165],[79.86094590346683,6.907022790391918],[79.86097538208884,6.907023754734533],[79.86101068978145,6.9070253824771095],[79.86106918174735,6.907027908310909],[79.86109197895969,6.907028969867434],[79.86112146917294,6.90703050716325],[79.86124775568541,6.907038589644195],[79.86137634062554,6.907046199783108],[79.86137650096141,6.907045961011387],[79.86140001028217,6.9070476089726105],[79.86141624796863,6.907048779409089],[79.86142772113463,6.907049680471191],[79.86144711576785,6.907051172583436],[79.86148085747814,6.90705348270924],[79.86149919370546,6.907054732615327],[79.86151493055215,6.907055740416215],[79.86154294581918,6.907057797458793],[79.86156548843493,6.907059520801189],[79.86161098647625,6.907063342931897],[79.8616403924136,6.907065806947357],[79.86168279709891,6.907068841595839],[79.86173738444363,6.907073039566456],[79.8617602227629,6.907075023534743],[79.86178925668696,6.907077268929869],[79.86181563930285,6.907079139796639],[79.86188271046066,6.9070845681960025],[79.86190039026843,6.907086534116968],[79.86192958712392,6.9070891655280215],[79.86196545459961,6.907092283462432],[79.86204042108565,6.907099531321579],[79.86206925227334,6.907102056424395],[79.86207599133941,6.907103123047312],[79.86209392660062,6.907105392338506],[79.86210826980367,6.907106954158163],[79.86214164173933,6.907110726501594],[79.86215648934866,6.907112523903278],[79.86216409845983,6.907113145433109],[79.86217578022422,6.907114311295407],[79.86218355981573,6.907115322179911],[79.86218715272138,6.9071160477060705],[79.86219288462394,6.90711689336737],[79.86219656896867,6.907117225568374],[79.86219995515066,6.907117895916698],[79.86224051090393,6.907123213549085],[79.86228822386546,6.907129483665554],[79.86228833342362,6.90712930460775],[79.86230555584184,6.9071318440985285],[79.86231256971102,6.9071327876018955],[79.86236283933826,6.9071406084740765],[79.8624354170002,6.9071522232249665],[79.86245392493906,6.907155653204378],[79.86247021245084,6.907158614891114],[79.86248036367108,6.907160546103957],[79.8624850500458,6.907161391341805],[79.86249535292899,6.907163299332581],[79.8625042054544,6.907164418133981],[79.86253344804433,6.9071703021227755],[79.8625623157316,6.90717715561472],[79.86256882574935,6.907178607943577],[79.86258519149312,6.907182294367866],[79.8626366885209,6.9071941000463415],[79.86266792348354,6.907201498515298],[79.86269431669098,6.907208322305314],[79.86271118808835,6.907212865837735],[79.86271589943598,6.90721400317189],[79.86272543225948,6.907216392030483],[79.86273430214288,6.90721893854608],[79.86274080142125,6.907220861391984],[79.86274704094092,6.907222446931507],[79.86274708168328,6.907222325830852],[79.86277670347778,6.907230529182505],[79.86279133101944,6.907234766896022],[79.86280903499193,6.907239803242459],[79.86280920900444,6.907239559786499],[79.86282437927566,6.907244067672419],[79.86283407056534,6.907246698182826],[79.86283694702644,6.9072475089384096],[79.86289216513649,6.907263638170245],[79.86296822702978,6.907285872465163],[79.86299196602884,6.907293069593407],[79.86302430952342,6.907302816324864],[79.86303956266191,6.907307518110737],[79.86304372043313,6.907308682802417],[79.8630499303132,6.907310403147221],[79.86306164530585,6.907314285819705],[79.86307260341911,6.907317630402328],[79.86307968363081,6.90731998096912],[79.86308752059362,6.907322427516949],[79.86309991477601,6.907326371199478],[79.86310467880674,6.907327769888634],[79.86312878748927,6.907335705644406],[79.86317647889366,6.907351804876249],[79.8631943938239,6.907358276486026],[79.8632141028532,6.90736572658976],[79.86325289475175,6.907380158976659],[79.8632610341255,6.907383319448003],[79.86327603213378,6.907389015970603],[79.86333602670031,6.907412179908217],[79.86336143611634,6.907422236414084],[79.86412586952662,6.907750547652359]]]}},{"type":"Feature","properties":{"Name":"Philip Gunewardena Mawatha","ID":10528},"geometry":{"type":"Polygon","coordinates":[[[79.8640066461155,6.9072265304514655],[79.86425390969414,6.90734470149922],[79.86425277409504,6.907341951500882],[79.86425206706768,6.907339274438542],[79.86425115597955,6.90733669550728],[79.86424976062764,6.907332822047912],[79.86424752122397,6.907325376297826],[79.86424628551335,6.907320706158903],[79.86424482388273,6.907316077761962],[79.86424364659263,6.907312929376523],[79.86424225449791,6.907308535199083],[79.8642410738808,6.907304518468467],[79.86423879714748,6.907297137856151],[79.86423746553656,6.907292415999249],[79.86423579331631,6.907287328169203],[79.86423454850274,6.907282628935646],[79.86423347962462,6.907279958051868],[79.8642314872519,6.907273598051412],[79.86422465905453,6.90725217556553],[79.86421846512195,6.907231542696685],[79.86420821175177,6.907197272309167],[79.8641842732607,6.907123512786766],[79.86415055650292,6.90702261915332],[79.86413958504978,6.906988783202569],[79.86413063349414,6.906964339103125],[79.86412789009827,6.906957263801807],[79.86412447394599,6.906947481643242],[79.86411866915505,6.906931458952392],[79.86411647751517,6.906924943435556],[79.86411482061831,6.90692085786313],[79.8641128248417,6.906915408615737],[79.86410858799782,6.906904428329033],[79.86410645670358,6.906898636554014],[79.86410482791584,6.90689407281482],[79.86409925035994,6.9068806850231015],[79.86409572033368,6.906871222979655],[79.8640939215872,6.906867261043145],[79.86409088768751,6.906860468115428],[79.8640877268817,6.9068527356835725],[79.86408591013884,6.906847741580372],[79.86408396081096,6.906843056784258],[79.86408221353872,6.906838398442511],[79.86408096860127,6.906835570150614],[79.86407951803562,6.906832025047998],[79.86407514755686,6.906821983257256],[79.86407269169766,6.906816059131885],[79.86407132056651,6.906813272310288],[79.86407035344138,6.906810627074561],[79.86406811943462,6.90680577757397],[79.86406441188534,6.906797169751054],[79.86405652112555,6.906780865859248],[79.86404150187434,6.906749885480611],[79.86403116018077,6.906730672643867],[79.86402217313811,6.906712501050231],[79.86401378625611,6.906695457787364],[79.86400132449909,6.90667105547976],[79.86399256258566,6.906654335047805],[79.86398692365673,6.906643196720882],[79.86397808757094,6.906627150123802],[79.86396926441574,6.906612613390776],[79.86395941551517,6.906595165618826],[79.86394747447238,6.9065742317750125],[79.86393174504074,6.90654679054946],[79.86390570995832,6.906505194675699],[79.8638934848038,6.906484614518633],[79.86387906026216,6.9064615922357255],[79.86386908397142,6.906446171244832],[79.86384806330616,6.906412742114252],[79.86383818020724,6.9063976452003715],[79.86382697050057,6.90637954477795],[79.8638188160444,6.906367043910377],[79.86380350336964,6.90634303899862],[79.86378974170877,6.906322320265237],[79.86375948501075,6.90627641372681],[79.8637419969057,6.906250273827065],[79.8637330233215,6.906237595111933],[79.86371845599938,6.906217505194555],[79.86369921737786,6.906191611604153],[79.86365706389684,6.906135990973858],[79.86363183664082,6.906104275966326],[79.86361240858645,6.906079207389015],[79.86359670385075,6.906059099115463],[79.86358485681424,6.90604415231596],[79.86357365233862,6.90603005202205],[79.86355575460772,6.906007405365907],[79.8635215804155,6.905963704619157],[79.86349357133658,6.9059285608606364],[79.8634810342503,6.905912328703708],[79.86346128582663,6.905887471692322],[79.8634034755358,6.905815342472167],[79.86335319145849,6.905752997337961],[79.86333511214983,6.905731022550023],[79.86331830799307,6.9057104646723415],[79.86330335914722,6.905692283064872],[79.86329116418891,6.905678310527266],[79.86327725903817,6.90566194763485],[79.86325495616215,6.905635905970195],[79.86318076894715,6.905551574894278],[79.8631305571771,6.90549522600198],[79.86310546455522,6.905467748470915],[79.86298804074904,6.905534557420022],[79.86298886985251,6.90559920709144],[79.86304046901111,6.905613587211997],[79.86307214622013,6.905625103170546],[79.8630839549166,6.905634104707415],[79.86308829148636,6.905639454996123],[79.86309517207332,6.905647873386518],[79.86309915029378,6.905651745641829],[79.86310365654226,6.9056583127877795],[79.86310862352335,6.9056647895794425],[79.86311218566024,6.905668225992478],[79.86311443743848,6.9056721345840515],[79.86312071443895,6.905680630647433],[79.86315671953321,6.905725288238798],[79.86317911677403,6.905753121418086],[79.8631898525743,6.905766233401628],[79.86319901288081,6.905777634482987],[79.8632048012234,6.905783800101984],[79.86321126530619,6.905791205283605],[79.86321065502759,6.9057975484869925],[79.8632002578235,6.905808240633266],[79.86318313595608,6.905823818081937],[79.86321204115194,6.905855392757439],[79.8632281266968,6.905842664479724],[79.8632339836034,6.905838834255017],[79.86323951597534,6.905836812564209],[79.86324453965923,6.905836324558151],[79.86325171588753,6.905838999259403],[79.86325708243872,6.905847262549949],[79.86326150125686,6.90585298493645],[79.86327500536464,6.905870239780227],[79.86329268035576,6.905891899934412],[79.86331596131093,6.905920109406149],[79.86337207875216,6.905989329980937],[79.86342349020217,6.906053100914343],[79.86348059068432,6.906124203613616],[79.86351197434551,6.906162944080603],[79.8635409376109,6.906198855158513],[79.86356305643723,6.906226177988272],[79.86356976987459,6.906234566049928],[79.86358317255323,6.906251270074529],[79.86360314786948,6.906275828247335],[79.86365540888829,6.906340542639353],[79.8636546599793,6.906343506349143],[79.86366502600056,6.906362830516999],[79.8636770711281,6.90638571931822],[79.86368448212268,6.90639998938748],[79.8636970340679,6.906423027975583],[79.86370623786225,6.906440221318389],[79.86370596029674,6.906441134330211],[79.86374929411689,6.906521243278038],[79.86377955400607,6.906577789123983],[79.8638017371781,6.90661947787485],[79.8638113873527,6.906637986767724],[79.86382931018622,6.906672573420873],[79.86385685974273,6.906725307979569],[79.86386307592284,6.906737946825771],[79.86387065634862,6.906754964970202],[79.86387851820136,6.906772552843987],[79.86389863273257,6.906820524829357],[79.86391913237887,6.906868689399304],[79.86392985533672,6.906893318250129],[79.8639362784018,6.906908215232477],[79.86394711681419,6.906935616833143],[79.8640066461155,6.9072265304514655]]]}},{"type":"Feature","properties":{"Name":null,"ID":10529},"geometry":{"type":"Polygon","coordinates":[[[79.86334162322912,6.9100711450695975],[79.86335381184732,6.910078249715402],[79.86336717783217,6.910089306429891],[79.86337384190465,6.910095352066778],[79.86338815455541,6.91010838525037],[79.86340209149758,6.910121363465046],[79.8634930352686,6.910035874130424],[79.8634959964585,6.910029412015916],[79.86350386831593,6.910022390833258],[79.86350842938926,6.910021106000185],[79.8635978541695,6.909908814977938],[79.86340439281581,6.909745270495474],[79.86340268472675,6.909845277490914],[79.86340651103994,6.909847392042817],[79.8634089217749,6.909855565701951],[79.8634066740959,6.9098609987497115],[79.86340361660918,6.9098634627894935],[79.86334162322912,6.9100711450695975]]]}},{"type":"Feature","properties":{"Name":null,"ID":10530},"geometry":{"type":"Polygon","coordinates":[[[79.8640066461155,6.9072265304514655],[79.86414980742006,6.907564211520984],[79.86406684147482,6.9075857276193515],[79.86404969619514,6.90759889647705],[79.86412586952662,6.907750547652359],[79.86414317646586,6.907754447608799],[79.8641682173902,6.9077610909105065],[79.86418102007451,6.907763832002233],[79.86419873633875,6.9077689845226775],[79.86421863726514,6.907776376724991],[79.86422777037278,6.907781293043512],[79.86424268353404,6.907789829327954],[79.86425351855267,6.907796253451075],[79.86425932592621,6.907800690415544],[79.86427410799115,6.907813121616739],[79.86428426300508,6.907822634396458],[79.86434599757693,6.907886065588613],[79.86437228042182,6.907912841600782],[79.86440003918652,6.907941593980068],[79.8644434760853,6.907988706071467],[79.8644673989527,6.9080169813028585],[79.8644919255615,6.908049151975864],[79.86449913764142,6.908059671021785],[79.86450858739545,6.908076326789263],[79.86451432216288,6.90808855792972],[79.86452371822033,6.908113943815539],[79.86452860954995,6.908131513402993],[79.86453135829854,6.908147559151557],[79.86453484681593,6.908173330452685],[79.86453448612006,6.908183766217611],[79.86453092809948,6.908214987041961],[79.86452637469363,6.90823691588745],[79.86467358190265,6.908286208170852],[79.8646828174998,6.908280419619862],[79.86469502927204,6.908273035515137],[79.86471399375723,6.90826460258043],[79.86472001002056,6.908262433065294],[79.86472470173429,6.908261167158609],[79.86473464307716,6.9082588604465665],[79.86474193614889,6.908257333517287],[79.86474563319238,6.908256940281963],[79.864750240822,6.9082561155981566],[79.86475929765365,6.90825557882838],[79.8647668303614,6.908255362939161],[79.86477307162559,6.9082557052813085],[79.86478425499928,6.908256565984522],[79.8647921206033,6.908257482853481],[79.8648032021354,6.908260105836551],[79.8648109030067,6.908262357052851],[79.86481490376082,6.908263653144639],[79.86482320098293,6.908266784513651],[79.86484343302922,6.908274979535708],[79.86485189609328,6.908279190686698],[79.86486802329081,6.908287787295595],[79.86487758473343,6.908292974758167],[79.86496012824533,6.908207268277173],[79.8649353785495,6.908169323139933],[79.86491843359862,6.908136445969534],[79.86490362535392,6.908067971920192],[79.86490323144429,6.908033633461491],[79.86490674144349,6.908001025096703],[79.8649123032487,6.907977148634669],[79.86491739394519,6.907959243046329],[79.86492293903433,6.907944094530719],[79.8647650469678,6.907821141465461],[79.86469522362245,6.907835693186983],[79.8646734011175,6.9078343251509935],[79.86465706226112,6.907832754490504],[79.8646384244846,6.907829438864577],[79.86461784245986,6.907823877576841],[79.86460951387235,6.907820915689406],[79.86460337455152,6.907819073816502],[79.8645903435087,6.907813404029282],[79.86458158643732,6.907808764126385],[79.86455060345735,6.907789769805421],[79.86452671869988,6.907774905052789],[79.86451466698466,6.907766171991134],[79.8644963785678,6.907751668018042],[79.86447746015858,6.907733799373773],[79.86446640212668,6.9077227461305855],[79.86444824075659,6.907700892266658],[79.86441394202377,6.907657435741992],[79.86437982946427,6.90761181373475],[79.86435289711814,6.907570772417718],[79.86432696898808,6.907525595564456],[79.8643024404637,6.907472631233169],[79.86427443892006,6.907404817423029],[79.86425390969414,6.90734470149922],[79.8640066461155,6.9072265304514655]]]}},{"type":"Feature","properties":{"Name":null,"ID":10531},"geometry":{"type":"Polygon","coordinates":[[[79.864283791035,6.911699916708381],[79.86428434960558,6.911703012977524],[79.86428459065814,6.911705181845417],[79.86429441561218,6.911769874476995],[79.8643086378141,6.91188000880397],[79.86441564132684,6.911845553779908],[79.86451162670743,6.911835901424906],[79.86456329156228,6.91184091839466],[79.86466410403783,6.911880455874877],[79.86468869198958,6.911890339064433],[79.86472066198421,6.911900236382393],[79.86471828613767,6.911855969271148],[79.86470856124173,6.911794474874323],[79.86470374356773,6.91174036696402],[79.86471382664399,6.911614975664932],[79.86471391147492,6.911570713263051],[79.86472378953607,6.911552289433985],[79.86470352133708,6.911535344801057],[79.8646783518125,6.911507939903063],[79.86466362308913,6.911489468976875],[79.86464828155384,6.911469767361743],[79.86463910467631,6.91144331520987],[79.86463482676832,6.911428552833718],[79.86463362942116,6.911411337322712],[79.86463490099983,6.911389823232624],[79.86464545078485,6.911341892314784],[79.86466092909453,6.911296553764661],[79.8645334951359,6.911465814384439],[79.8645159928846,6.911467058762095],[79.86449899218087,6.911468391348824],[79.86449851869253,6.911468763264208],[79.86449113253978,6.911469644964647],[79.86448208364429,6.91147129132513],[79.86447010608433,6.911473250009813],[79.86446226280445,6.911474658389808],[79.86445740810417,6.911475741422311],[79.86445329330138,6.9114760792936805],[79.86433000709589,6.911476896017257],[79.86431573572354,6.911512804876999],[79.86429088384621,6.911549343781845],[79.86426449382725,6.911575766984532],[79.864283791035,6.911699916708381]]]}},{"type":"Feature","properties":{"Name":"Ananda Coomaraswamy Mawatha","ID":10523},"geometry":{"type":"Polygon","coordinates":[[[79.86186165511054,6.911816115936546],[79.86186351180248,6.911814994251534],[79.86187846115041,6.9118142929026245],[79.86189274895702,6.911815505706596],[79.8619046669672,6.911816635884553],[79.86190906743764,6.911816964608696],[79.86191694115138,6.911817759734447],[79.86192808199803,6.9118187900005665],[79.86195187271383,6.911821572925568],[79.86198961377539,6.911825628404498],[79.86199442909283,6.911830922575891],[79.86200226493492,6.911839693021442],[79.86201429755894,6.911850291306641],[79.86202560965584,6.911851101110879],[79.86204856272938,6.911853147948423],[79.86207546801732,6.91185548942939],[79.86209762909945,6.91185738720743],[79.86211862438606,6.9118592709200986],[79.86213458428412,6.911860491188739],[79.8621611275583,6.911862435679861],[79.86219135177318,6.91186479487183],[79.86221322391616,6.911866305912028],[79.86227646537307,6.911869818589336],[79.86232884971379,6.911871689167098],[79.86235651657199,6.911872667872954],[79.86240744752422,6.911874065628972],[79.86243865953243,6.91187469275309],[79.86246585512117,6.911875326258755],[79.8625219829606,6.911876282300932],[79.86256019895342,6.911876489830234],[79.86260542712441,6.911876450175586],[79.86263692071178,6.911876460166776],[79.86266775972929,6.9118761161966775],[79.86268703074096,6.91187604782091],[79.86270396340568,6.9118758221035534],[79.86272574465262,6.911875643560487],[79.86277953831365,6.911875011808265],[79.86280522667435,6.911874598430895],[79.86282095379806,6.911874433156564],[79.86284056066556,6.91187402658013],[79.86290561484365,6.911873054093056],[79.86294998685325,6.911872609107921],[79.8629835634226,6.911872242451748],[79.86301414591559,6.9118720017464295],[79.8630454626422,6.911871623141756],[79.86306519598362,6.911871433820793],[79.86308607292231,6.911871199954366],[79.8631010847883,6.911870903428061],[79.86310973979872,6.911870827857274],[79.86312583465198,6.911870743638214],[79.86318837801801,6.911869962776227],[79.86323858400516,6.911869352925813],[79.86325238619715,6.911869477969325],[79.86326485464451,6.911857909008945],[79.86327400312287,6.91184926331602],[79.86327914168216,6.911849213494289],[79.86328164574957,6.911847571727071],[79.86329675637691,6.9118474129489735],[79.86330309175408,6.911847332977758],[79.86333273199315,6.911847003369775],[79.86337798007227,6.911846490036297],[79.86339046067725,6.91184686741642],[79.8633959445561,6.9118479520865135],[79.86340439431336,6.911851285015272],[79.86341033843911,6.911855327259861],[79.86351180714219,6.911849525648275],[79.86352377999536,6.911845164025049],[79.86353187622541,6.911844675532525],[79.863553425917,6.911843995617973],[79.86357318411268,6.911843867087626],[79.86358076998673,6.911843907617005],[79.86359668874859,6.9118437763932965],[79.86363269636585,6.911843500892184],[79.86369096167496,6.911843190761239],[79.86370512347888,6.911843065119391],[79.8637115257814,6.911843085052589],[79.86373019291361,6.911842891017973],[79.86375548346919,6.91184270649981],[79.8637623398291,6.911842583754615],[79.8637711170096,6.9118425937168455],[79.8637800471946,6.911842578347188],[79.86378681264512,6.911843048807888],[79.86379052462372,6.911842549728806],[79.86379804398082,6.911842428795031],[79.8638081751607,6.911842227147952],[79.86384338399834,6.911841948522843],[79.86389002800281,6.911841409840334],[79.86391081587158,6.911840798931413],[79.86396738191223,6.911840520543832],[79.86399625544267,6.911840176607856],[79.86403291268002,6.911840074419761],[79.86407923914754,6.911840673784385],[79.86411677176422,6.911841130833786],[79.864145953511,6.911842288525702],[79.8641732246009,6.911845143953223],[79.8641887255749,6.911847496278377],[79.86420257627421,6.9118497085614745],[79.86421782909002,6.911852453092547],[79.86423274911407,6.9118557376156655],[79.86425327639873,6.911861124253423],[79.86426834674877,6.911865355924389],[79.86428216562331,6.9118699855559],[79.86429452411588,6.911874385063483],[79.8643086378141,6.91188000880397],[79.86429441561218,6.911769874476995],[79.86428459065814,6.911705181845417],[79.86428434960558,6.911703012977524],[79.864283791035,6.911699916708381],[79.86426449382725,6.911575766984532],[79.86425580627814,6.91158242517442],[79.86424048864808,6.911592417959354],[79.86423039810508,6.911597848552954],[79.86421898625225,6.911603042726672],[79.86420897855133,6.911606840215094],[79.86419368069348,6.911612004898172],[79.86418167557893,6.911615532888053],[79.8641732012992,6.9116176539627965],[79.86416441518,6.911619607011287],[79.86415501478828,6.911621426852737],[79.86414114618816,6.9116233248000665],[79.86410713535942,6.911625910820561],[79.86408984167194,6.9116270703907325],[79.86406272445832,6.911627106408762],[79.86404377181714,6.911627289404933],[79.86403077780143,6.911627343722667],[79.8639992879556,6.91162782510618],[79.86398939511423,6.91162788548698],[79.86398664336596,6.9116280312082115],[79.86398060880543,6.911628086081556],[79.86395951408663,6.911628461784071],[79.86395092773851,6.911628309394483],[79.86394323141046,6.911628650074406],[79.86393189507298,6.911629057614936],[79.86392677032617,6.9116289904334955],[79.86392372319791,6.911628956500507],[79.86391461040128,6.911629280248812],[79.86390810374527,6.911629239558192],[79.86390152172123,6.91162949408524],[79.86389735829714,6.911629647885325],[79.86389431520445,6.911629549501163],[79.86388182156804,6.911629589135256],[79.86386927103393,6.911629847188641],[79.86386353924264,6.911630158553586],[79.86384433518097,6.911630270866604],[79.8638314229896,6.911629003347064],[79.86382700797212,6.911627263198014],[79.86381893061481,6.911623659395518],[79.86380803289234,6.91161823278329],[79.86380126072817,6.91161460239795],[79.86379500992481,6.911611344206454],[79.86378549605246,6.911606704958154],[79.8637733722765,6.911604471186906],[79.86376076446214,6.911604570246278],[79.8637529818974,6.911604652144231],[79.86374842518012,6.911604732587142],[79.86373246726879,6.9116049381189795],[79.86369173000966,6.91160554052661],[79.86366069437764,6.911604208799829],[79.86364352607521,6.911605937178545],[79.86362471427798,6.911606305979416],[79.86360795732185,6.911606603847841],[79.86357966909908,6.911606859379451],[79.86356995989388,6.911607097592567],[79.8635611721386,6.911607156688309],[79.86355582065869,6.911607364897809],[79.86354901276529,6.911607495795435],[79.86354533038097,6.911607353543065],[79.86354089671555,6.911607375221225],[79.86353876336318,6.9116074964477106],[79.86353204934241,6.911607481034151],[79.86352082326076,6.911607635711265],[79.86351136118982,6.911607934980689],[79.86349594639529,6.911608047714111],[79.86346454955053,6.911608374850256],[79.86346085967625,6.911610763268659],[79.86342801745806,6.911609156543716],[79.86336184323189,6.911609703528528],[79.86332492526913,6.91160996859508],[79.86322158854186,6.911611097218631],[79.86320977575589,6.911612143769727],[79.86319425474076,6.911614319536271],[79.86318795736413,6.911621053152527],[79.86318365900281,6.911625635003598],[79.86317534534957,6.911634132199646],[79.86317199885723,6.911637248662945],[79.86317029827214,6.911639137305208],[79.86316830371183,6.9116410006799915],[79.86316480323906,6.91164383405863],[79.86316212337411,6.911645526274532],[79.86315736925337,6.911647244470223],[79.86315003969196,6.911647994658706],[79.86314430659658,6.911647976401899],[79.86313802421095,6.911646646332355],[79.86313713483999,6.911647061164087],[79.86312724423607,6.911639906884192],[79.86312448010244,6.911636626417882],[79.86312255678168,6.9116325445188505],[79.86312130413235,6.91162830897184],[79.86312067687618,6.911625568377373],[79.86312030346951,6.911623149529208],[79.86311975746747,6.911617038123075],[79.8629938015643,6.911620713461739],[79.86298505837716,6.911634340005013],[79.86298208673192,6.911638397882736],[79.86297280850107,6.911649320900762],[79.86296665406489,6.9116507824555145],[79.86294699357376,6.911651310050639],[79.86290094316357,6.911651963112475],[79.86286371959056,6.911652229738193],[79.86285343818238,6.911652203768785],[79.86283850688471,6.911652293337399],[79.8628316089534,6.911652055071115],[79.8628267127554,6.911652337891966],[79.86280815062116,6.911652717108757],[79.86279267979432,6.911653275547084],[79.86278877051647,6.911651397772218],[79.86277875775359,6.911652867410849],[79.86276246882042,6.911653073886992],[79.86275417098832,6.911652282277351],[79.86275071398977,6.911653321502606],[79.8627425387597,6.911653460772737],[79.86273276015288,6.911653576831617],[79.86272663464084,6.911653658544018],[79.86269730842572,6.911653834297582],[79.86264951947197,6.911654423104834],[79.86263278758251,6.911654835210639],[79.8626195181589,6.911654488355745],[79.86259615771108,6.911654763628802],[79.86257981384335,6.911654664076002],[79.86251545421855,6.911654341290634],[79.86249571114215,6.911654124657931],[79.86249030042687,6.911653797209631],[79.86248271244273,6.911653484260873],[79.86247570938767,6.911653442727884],[79.86246728157577,6.911653179829005],[79.86244956487627,6.911652857780661],[79.86244015505433,6.911652670120211],[79.86243759303022,6.911652401846357],[79.86243505616632,6.911652468401683],[79.86243122818838,6.911652629192704],[79.86243106227212,6.911652897340713],[79.86240559561904,6.911652072407125],[79.86239215628893,6.911651597609245],[79.8623851545049,6.911651196588227],[79.86237830992785,6.911650950279316],[79.86237057501474,6.911650608864623],[79.86236489205898,6.911650517563497],[79.86235584250551,6.9116501638197425],[79.86235040129391,6.911649874282562],[79.86234336602986,6.911649678676259],[79.86233449182117,6.91164923670637],[79.8623184520706,6.911648554982759],[79.8623146764569,6.911648098828801],[79.86231223056498,6.911648305082509],[79.8623069298204,6.9116481677017285],[79.86229044889475,6.911647390173647],[79.86228546772682,6.911647082276598],[79.86227942501584,6.911646803168403],[79.86225251740773,6.911644842466736],[79.86222270641329,6.911642827596757],[79.86221303526548,6.911642074209102],[79.8621885011321,6.911640074749304],[79.86216722560438,6.911638179354101],[79.86215022529814,6.911636705077293],[79.86211094308165,6.9116328938550495],[79.86207301021714,6.9116289651895],[79.862059495363,6.9116273995194275],[79.86203964664801,6.911625140906197],[79.86202577144498,6.9116237821349875],[79.86202423959223,6.911624095994268],[79.86201550296711,6.91162393343163],[79.86201502149618,6.91162303819798],[79.8620097699948,6.911622248297949],[79.86200121262208,6.911621156663377],[79.86199968352379,6.911621721611045],[79.86199668970852,6.911621607054819],[79.86199094312279,6.911620492080605],[79.86198288726446,6.911618818571057],[79.8619753054627,6.911617828888088],[79.86197062491527,6.911617294716131],[79.8619684065138,6.911616381637312],[79.8619654384331,6.911616149272521],[79.86195650551699,6.911615260949325],[79.86193312141944,6.911612250462161],[79.8619168516998,6.911610258865738],[79.86191286998451,6.911609695479044],[79.86190948564048,6.9116092427106075],[79.86190536586079,6.911608457422441],[79.86189714853703,6.9116076588188715],[79.86189048045792,6.9116070711806525],[79.86185784057028,6.911602491365447],[79.86182830717867,6.9115980029438555],[79.86182762032719,6.9115983362087725],[79.86180505798953,6.911595719223059],[79.86179705449243,6.9115948765267206],[79.8617862147433,6.911593644999001],[79.86176584858273,6.911591408288055],[79.86174962711164,6.911589546660787],[79.8617393821289,6.911588610122754],[79.86173205146626,6.911587880981768],[79.86172625586057,6.911587449027993],[79.8617186505717,6.9115865492477955],[79.86171248060694,6.911585934904412],[79.86170656570214,6.911585191818088],[79.86169562524462,6.9115845271858465],[79.86165500424781,6.911581648196117],[79.86161234806345,6.911578808901586],[79.86159591367604,6.911577923084606],[79.86158982319792,6.9115775514757],[79.86157225941402,6.911576875390625],[79.86156190788914,6.9115763826327274],[79.86155685262847,6.911576235815963],[79.86155188529861,6.911576287154377],[79.86153415438176,6.911575662330211],[79.86152208171801,6.911575321705496],[79.86151632808371,6.911575016849962],[79.86150770826049,6.911574915232352],[79.86150209144712,6.911574756135144],[79.86149226797507,6.911574653932733],[79.8614836938367,6.91157453807952],[79.86147129429985,6.911574799149477],[79.86144855729378,6.911574664860822],[79.86143186084387,6.911574398451868],[79.86145023149916,6.911662710943432],[79.86146657354787,6.911662713834461],[79.86147506410761,6.911662792518481],[79.86148082987843,6.911662743037556],[79.86149884759824,6.911663001652711],[79.86153965000787,6.91166378308553],[79.86155103096473,6.911664173807062],[79.86156151243785,6.911664703168494],[79.86156924878102,6.911665266193755],[79.86157390309705,6.91166557796059],[79.86157577094437,6.911667765102393],[79.86157690985323,6.911667900207859],[79.86157826065916,6.9116665350408235],[79.86159714289067,6.911666837012591],[79.86162322825858,6.911668616487066],[79.86164406300435,6.911670185453801],[79.86166474109642,6.9116716073351485],[79.86167145044034,6.911672302873119],[79.86168824038234,6.911673773913104],[79.86171700856946,6.911676474875925],[79.86173534313689,6.9116783657044945],[79.86175074531744,6.911680118302324],[79.86176265511958,6.911681745901198],[79.86179216779676,6.911685118495603],[79.86180356421649,6.911686312308954],[79.86180806555974,6.911686926055089],[79.86182283672625,6.9116886456668185],[79.86183426525612,6.9116900064910745],[79.8618419776396,6.911690802664432],[79.86184214045701,6.911690575610814],[79.86186548754274,6.911693241944975],[79.86186165511054,6.911816115936546]]]}}]}