{"type":"FeatureCollection","features":[{"type":"Feature","properties":{"ID":"104","Elevation":"7.11","Type":"Directions","Condition":"Good","Material":"Metal"},"geometry":{"type":"Point","coordinates":[79.86408808971215,6.911849616822991]}},{"type":"Feature","properties":{"ID":"123","Elevation":"6.357","Type":"Directions","Condition":"Good","Material":"Metal"},"geometry":{"type":"Point","coordinates":[79.86191281148326,6.911827831451008]}},{"type":"Feature","properties":{"ID":"126","Elevation":"6.524","Type":"Directions","Condition":"Good","Material":"Metal"},"geometry":{"type":"Point","coordinates":[79.86158974410147,6.911828847699049]}},{"type":"Feature","properties":{"ID":"127","Elevation":"6.469","Type":"Directions","Condition":"Good","Material":"Metal"},"geometry":{"type":"Point","coordinates":[79.8613926277923,6.91182498787529]}},{"type":"Feature","properties":{"ID":"132","Elevation":"6.298","Type":"Informative","Condition":"Good","Material":"Metal"},"geometry":{"type":"Point","coordinates":[79.86053594900399,6.911860956498681]}},{"type":"Feature","properties":{"ID":"137","Elevation":"5.725","Type":"Directions","Condition":"Poor","Material":"Metal"},"geometry":{"type":"Point","coordinates":[79.85996940989752,6.911887201034501]}},{"type":"Feature","properties":{"ID":"138","Elevation":"5.296","Type":"Directions","Condition":"Moderate","Material":"Metal"},"geometry":{"type":"Point","coordinates":[79.85969745698178,6.911864135804394]}},{"type":"Feature","properties":{"ID":"153","Elevation":"4.56","Type":"Directions","Condition":"Good","Material":"Metal"},"geometry":{"type":"Point","coordinates":[79.85867127411234,6.911897875956292]}},{"type":"Feature","properties":{"ID":"162","Elevation":"4.632","Type":"Directions","Condition":"Good","Material":"Metal"},"geometry":{"type":"Point","coordinates":[79.85836964516682,6.911920740815172]}},{"type":"Feature","properties":{"ID":"178","Elevation":"4.808","Type":"Informative","Condition":"Good","Material":"Metal"},"geometry":{"type":"Point","coordinates":[79.8582477163483,6.91167468781962]}},{"type":"Feature","properties":{"ID":"185","Elevation":"4.535","Type":"Directions","Condition":"Good","Material":"Metal"},"geometry":{"type":"Point","coordinates":[79.85868278575666,6.91168091532475]}},{"type":"Feature","properties":{"ID":"188","Elevation":"4.645","Type":"Directions","Condition":"Good","Material":"Metal"},"geometry":{"type":"Point","coordinates":[79.85886560642675,6.911675028485294]}},{"type":"Feature","properties":{"ID":"196","Elevation":"4.834","Type":"Directions","Condition":"Good","Material":"Metal"},"geometry":{"type":"Point","coordinates":[79.85922306583768,6.911664495689145]}},{"type":"Feature","properties":{"ID":"200","Elevation":"5.342","Type":"Directions","Condition":"Good","Material":"Metal"},"geometry":{"type":"Point","coordinates":[79.85974304862077,6.911644564215702]}},{"type":"Feature","properties":{"ID":"204","Elevation":"5.876","Type":"Directions","Condition":"Good","Material":"Metal"},"geometry":{"type":"Point","coordinates":[79.86015847833654,6.911630064287128]}},{"type":"Feature","properties":{"ID":"206","Elevation":"6.054","Type":"Directions","Condition":"Good","Material":"Metal"},"geometry":{"type":"Point","coordinates":[79.86039265570344,6.911619890229101]}},{"type":"Feature","properties":{"ID":"212","Elevation":"6.275","Type":"Informative","Condition":"Good","Material":"Metal"},"geometry":{"type":"Point","coordinates":[79.86106373987585,6.9115875437192305]}},{"type":"Feature","properties":{"ID":"217","Elevation":"6.34","Type":"Informative","Condition":"Good","Material":"Metal"},"geometry":{"type":"Point","coordinates":[79.86163771972589,6.911578356452696]}},{"type":"Feature","properties":{"ID":"222","Elevation":"6.304","Type":"Informative","Condition":"Good","Material":"Metal"},"geometry":{"type":"Point","coordinates":[79.8620317338222,6.911614946761138]}},{"type":"Feature","properties":{"ID":"225","Elevation":"6.442","Type":"Directions","Condition":"Good","Material":"Metal"},"geometry":{"type":"Point","coordinates":[79.86241810834639,6.9116483935294655]}},{"type":"Feature","properties":{"ID":"228","Elevation":"6.546","Type":"Directions","Condition":"Good","Material":"Metal"},"geometry":{"type":"Point","coordinates":[79.86268264069355,6.911648566483525]}},{"type":"Feature","properties":{"ID":"229","Elevation":"6.572","Type":"Directions","Condition":"Good","Material":"Metal"},"geometry":{"type":"Point","coordinates":[79.86272459637499,6.91164895439405]}},{"type":"Feature","properties":{"ID":"233","Elevation":"6.638","Type":"Directions","Condition":"Good","Material":"Metal"},"geometry":{"type":"Point","coordinates":[79.86290342373964,6.911644731123498]}},{"type":"Feature","properties":{"ID":"268","Elevation":"4.794","Type":"Directions","Condition":"Good","Material":"Metal"},"geometry":{"type":"Point","coordinates":[79.85825100384588,6.911771570998287]}},{"type":"Feature","properties":{"ID":"1005","Elevation":"6.9","Type":"Directions","Condition":"Good","Material":"Metal"},"geometry":{"type":"Point","coordinates":[79.86380189484011,6.907495526328189]}},{"type":"Feature","properties":{"ID":"1011","Elevation":"7.183","Type":"Informative","Condition":"Good","Material":"Metal"},"geometry":{"type":"Point","coordinates":[79.86403306918079,6.907601878982033]}},{"type":"Feature","properties":{"ID":"1014","Elevation":"7.286","Type":"Directions","Condition":"Good","Material":"Metal"},"geometry":{"type":"Point","coordinates":[79.86405973985666,6.907584641550829]}},{"type":"Feature","properties":{"ID":"1027","Elevation":"7.358","Type":"Directions","Condition":"Good","Material":"Metal"},"geometry":{"type":"Point","coordinates":[79.86398154603997,6.9069521600455825]}},{"type":"Feature","properties":{"ID":"1095","Elevation":"7.356","Type":"Directions","Condition":"Good","Material":"Metal"},"geometry":{"type":"Point","coordinates":[79.86387825879743,6.906439347846565]}},{"type":"Feature","properties":{"ID":"1099","Elevation":"7.346","Type":"Directions","Condition":"Good","Material":"Metal"},"geometry":{"type":"Point","coordinates":[79.86396036685773,6.906577984715737]}},{"type":"Feature","properties":{"ID":"1107","Elevation":"7.316","Type":"Directions","Condition":"Good","Material":"Metal"},"geometry":{"type":"Point","coordinates":[79.86414592633018,6.906983380565741]}},{"type":"Feature","properties":{"ID":"1115","Elevation":"7.493","Type":"Directions","Condition":"Good","Material":"Metal"},"geometry":{"type":"Point","coordinates":[79.86433178139022,6.907494370542531]}},{"type":"Feature","properties":{"ID":"1116","Elevation":"7.454","Type":"Directions","Condition":"Good","Material":"Metal"},"geometry":{"type":"Point","coordinates":[79.86436027357972,6.907546471371992]}},{"type":"Feature","properties":{"ID":"1117","Elevation":"7.348","Type":"Directions","Condition":"Good","Material":"Metal"},"geometry":{"type":"Point","coordinates":[79.86439062192606,6.907593177620839]}},{"type":"Feature","properties":{"ID":"1122","Elevation":"7.412","Type":"Directions","Condition":"Good","Material":"Metal"},"geometry":{"type":"Point","coordinates":[79.86450926999599,6.907725310751154]}},{"type":"Feature","properties":{"ID":"1123","Elevation":"7.457","Type":"Directions","Condition":"Good","Material":"Metal"},"geometry":{"type":"Point","coordinates":[79.86455003291097,6.907767208439997]}},{"type":"Feature","properties":{"ID":"1131","Elevation":"7.414","Type":"Directions","Condition":"Good","Material":"Metal"},"geometry":{"type":"Point","coordinates":[79.86477366926792,6.907817521515536]}},{"type":"Feature","properties":{"ID":"1134","Elevation":"7.486","Type":"Informative","Condition":"Good","Material":"Metal"},"geometry":{"type":"Point","coordinates":[79.86493274050396,6.907932841243953]}},{"type":"Feature","properties":{"ID":"1143","Elevation":"7.391","Type":"Informative","Condition":"Good","Material":"Metal"},"geometry":{"type":"Point","coordinates":[79.86466045000428,6.90830411334009]}},{"type":"Feature","properties":{"ID":"1148","Elevation":"7.138","Type":"Directions","Condition":"Good","Material":"Metal"},"geometry":{"type":"Point","coordinates":[79.86458747359126,6.908381392146972]}},{"type":"Feature","properties":{"ID":"1149","Elevation":"7.221","Type":"Directions","Condition":"Good","Material":"Metal"},"geometry":{"type":"Point","coordinates":[79.86454375975103,6.908444006400656]}},{"type":"Feature","properties":{"ID":"1160","Elevation":"6.99","Type":"Directions","Condition":"Good","Material":"Metal"},"geometry":{"type":"Point","coordinates":[79.86416607695915,6.908961088196627]}},{"type":"Feature","properties":{"ID":"1162","Elevation":"7.111","Type":"Directions","Condition":"Good","Material":"Metal"},"geometry":{"type":"Point","coordinates":[79.8640939223987,6.909072104532421]}},{"type":"Feature","properties":{"ID":"1167","Elevation":"6.907","Type":"Directions","Condition":"Good","Material":"Metal"},"geometry":{"type":"Point","coordinates":[79.86397168019897,6.909238235973664]}},{"type":"Feature","properties":{"ID":"1170","Elevation":"6.88","Type":"Directions","Condition":"Good","Material":"Metal"},"geometry":{"type":"Point","coordinates":[79.8638821237023,6.90935987052848]}},{"type":"Feature","properties":{"ID":"1180","Elevation":"6.636","Type":"Directions","Condition":"Good","Material":"Metal"},"geometry":{"type":"Point","coordinates":[79.86362632254372,6.9097283703324734]}},{"type":"Feature","properties":{"ID":"1198","Elevation":"6.964","Type":"Directions","Condition":"Good","Material":"Metal"},"geometry":{"type":"Point","coordinates":[79.86442149901531,6.9109237389574965]}},{"type":"Feature","properties":{"ID":"1223","Elevation":"6.817","Type":"Directions","Condition":"Good","Material":"Metal"},"geometry":{"type":"Point","coordinates":[79.86343871947892,6.909921059584351]}},{"type":"Feature","properties":{"ID":"1224","Elevation":"6.784","Type":"Informative","Condition":"Good","Material":"Metal"},"geometry":{"type":"Point","coordinates":[79.86340424426231,6.909851242816431]}},{"type":"Feature","properties":{"ID":"1232","Elevation":"6.765","Type":"Directions","Condition":"Good","Material":"Metal"},"geometry":{"type":"Point","coordinates":[79.86377726640953,6.90930240612169]}},{"type":"Feature","properties":{"ID":"1236","Elevation":"6.949","Type":"Directions","Condition":"Good","Material":"Metal"},"geometry":{"type":"Point","coordinates":[79.86397927134243,6.9090118545423485]}},{"type":"Feature","properties":{"ID":"1241","Elevation":"6.964","Type":"Directions","Condition":"Good","Material":"Metal"},"geometry":{"type":"Point","coordinates":[79.86407959130679,6.90887799756671]}},{"type":"Feature","properties":{"ID":"1247","Elevation":"7.208","Type":"Directions","Condition":"Good","Material":"Metal"},"geometry":{"type":"Point","coordinates":[79.864456070165,6.908351753893852]}},{"type":"Feature","properties":{"ID":"1255","Elevation":"6.924","Type":"Directions","Condition":"Good","Material":"Metal"},"geometry":{"type":"Point","coordinates":[79.86353098180817,6.9102473394610975]}},{"type":"Feature","properties":{"ID":"1258","Elevation":"6.977","Type":"Directions","Condition":"Good","Material":"Metal"},"geometry":{"type":"Point","coordinates":[79.86371376667672,6.91042972508607]}},{"type":"Feature","properties":{"ID":"2096","Elevation":"6.527","Type":"Informative","Condition":"Good","Material":"Metal"},"geometry":{"type":"Point","coordinates":[79.86125020568186,6.90704696542976]}},{"type":"Feature","properties":{"ID":"2138","Elevation":"7.347","Type":"Informative","Condition":"Good","Material":"Metal"},"geometry":{"type":"Point","coordinates":[79.86405948250602,6.907582009808409]}},{"type":"Feature","properties":{"ID":"2141","Elevation":"7.267","Type":"Directions","Condition":"Good","Material":"Metal"},"geometry":{"type":"Point","coordinates":[79.86403386849669,6.907600271019191]}},{"type":"Feature","properties":{"ID":"2145","Elevation":"7.047","Type":"Directions","Condition":"Good","Material":"Metal"},"geometry":{"type":"Point","coordinates":[79.86380347182278,6.907494163991421]}},{"type":"Feature","properties":{"ID":"2155","Elevation":"6.919","Type":"Directions","Condition":"Good","Material":"Metal"},"geometry":{"type":"Point","coordinates":[79.86358279771873,6.907399712661286]}},{"type":"Feature","properties":{"ID":"2159","Elevation":"6.922","Type":"Directions","Condition":"Good","Material":"Metal"},"geometry":{"type":"Point","coordinates":[79.86335408928215,6.907309830190476]}},{"type":"Feature","properties":{"ID":"2212","Elevation":"6.803","Type":"Directions","Condition":"Good","Material":"Metal"},"geometry":{"type":"Point","coordinates":[79.86131101988445,6.906942392883377]}},{"type":"Feature","properties":{"ID":"3017","Elevation":"7.425","Type":"Directions","Condition":"Good","Material":"Metal"},"geometry":{"type":"Point","coordinates":[79.86025245746225,6.898921826868146]}},{"type":"Feature","properties":{"ID":"3021","Elevation":"7.538","Type":"Informative","Condition":"Good","Material":"Metal"},"geometry":{"type":"Point","coordinates":[79.8601072438118,6.899022385428047]}},{"type":"Feature","properties":{"ID":"3034","Elevation":"7.68","Type":"Directions","Condition":"Good","Material":"Metal"},"geometry":{"type":"Point","coordinates":[79.85970812614407,6.899551340542876]}},{"type":"Feature","properties":{"ID":"3036","Elevation":"7.676","Type":"Directions","Condition":"Good","Material":"Metal"},"geometry":{"type":"Point","coordinates":[79.85969295206891,6.89958931528491]}},{"type":"Feature","properties":{"ID":"3050","Elevation":"7.539","Type":"Directions","Condition":"Good","Material":"Metal"},"geometry":{"type":"Point","coordinates":[79.85953004233173,6.899792277432087]}},{"type":"Feature","properties":{"ID":"3053","Elevation":"7.495","Type":"Directions","Condition":"Good","Material":"Metal"},"geometry":{"type":"Point","coordinates":[79.8596070424993,6.899824099824788]}},{"type":"Feature","properties":{"ID":"3062","Elevation":"7.554","Type":"Directions","Condition":"Good","Material":"Metal"},"geometry":{"type":"Point","coordinates":[79.85958327271663,6.899956195215301]}},{"type":"Feature","properties":{"ID":"3067","Elevation":"7.669","Type":"Directions","Condition":"Good","Material":"Metal"},"geometry":{"type":"Point","coordinates":[79.85952539092753,6.90010301790388]}},{"type":"Feature","properties":{"ID":"3073","Elevation":"7.637","Type":"Directions","Condition":"Good","Material":"Metal"},"geometry":{"type":"Point","coordinates":[79.85944611971627,6.900376786538943]}},{"type":"Feature","properties":{"ID":"3076","Elevation":"7.636","Type":"Directions","Condition":"Good","Material":"Metal"},"geometry":{"type":"Point","coordinates":[79.85940464901333,6.90050104456572]}},{"type":"Feature","properties":{"ID":"3083","Elevation":"7.437","Type":"Directions","Condition":"Good","Material":"Metal"},"geometry":{"type":"Point","coordinates":[79.85931367336559,6.900782241337839]}},{"type":"Feature","properties":{"ID":"3086","Elevation":"7.647","Type":"Directions","Condition":"Good","Material":"Metal"},"geometry":{"type":"Point","coordinates":[79.85928656099281,6.900883370162562]}},{"type":"Feature","properties":{"ID":"3107","Elevation":"6.913","Type":"Directions","Condition":"Good","Material":"Metal"},"geometry":{"type":"Point","coordinates":[79.85911214167292,6.901438716196401]}},{"type":"Feature","properties":{"ID":"3124","Elevation":"5.941","Type":"Directions","Condition":"Moderate","Material":"Metal"},"geometry":{"type":"Point","coordinates":[79.85890178333403,6.90210206397015]}},{"type":"Feature","properties":{"ID":"3133","Elevation":"5.522","Type":"Directions","Condition":"Good","Material":"Metal"},"geometry":{"type":"Point","coordinates":[79.85872777440294,6.90263639670552]}},{"type":"Feature","properties":{"ID":"3144","Elevation":"5.24","Type":"Directions","Condition":"Good","Material":"Metal"},"geometry":{"type":"Point","coordinates":[79.85859085688834,6.903027754935622]}},{"type":"Feature","properties":{"ID":"3149","Elevation":"5.27","Type":"Informative","Condition":"Good","Material":"Metal"},"geometry":{"type":"Point","coordinates":[79.85854271584117,6.903091716406579]}},{"type":"Feature","properties":{"ID":"3161","Elevation":"5.09","Type":"Informative","Condition":"Good","Material":"Metal"},"geometry":{"type":"Point","coordinates":[79.85844518105309,6.903456449077987]}},{"type":"Feature","properties":{"ID":"3167","Elevation":"5.093","Type":"Informative","Condition":"Good","Material":"Metal"},"geometry":{"type":"Point","coordinates":[79.8583677843083,6.903672369705107]}},{"type":"Feature","properties":{"ID":"3182","Elevation":"5.006","Type":"Directions","Condition":"Good","Material":"Metal"},"geometry":{"type":"Point","coordinates":[79.85825520494863,6.904209388298114]}},{"type":"Feature","properties":{"ID":"3187","Elevation":"5.174","Type":"Directions","Condition":"Good","Material":"Metal"},"geometry":{"type":"Point","coordinates":[79.85832178876777,6.904256652878374]}},{"type":"Feature","properties":{"ID":"3189","Elevation":"5.235","Type":"Directions","Condition":"Good","Material":"Metal"},"geometry":{"type":"Point","coordinates":[79.85834311829358,6.904325332395033]}},{"type":"Feature","properties":{"ID":"3191","Elevation":"5.149","Type":"Directions","Condition":"Good","Material":"Metal"},"geometry":{"type":"Point","coordinates":[79.85836136869426,6.904620736204978]}},{"type":"Feature","properties":{"ID":"3202","Elevation":"5.029","Type":"Directions","Condition":"Good","Material":"Metal"},"geometry":{"type":"Point","coordinates":[79.85838127077315,6.905087219394671]}},{"type":"Feature","properties":{"ID":"3209","Elevation":"4.975","Type":"Directions","Condition":"Good","Material":"Metal"},"geometry":{"type":"Point","coordinates":[79.85841684480374,6.905206046602738]}},{"type":"Feature","properties":{"ID":"3227","Elevation":"5.2","Type":"Directions","Condition":"Good","Material":"Metal"},"geometry":{"type":"Point","coordinates":[79.85856734932099,6.9056898798289]}},{"type":"Feature","properties":{"ID":"3248","Elevation":"6.09","Type":"Informative","Condition":"Good","Material":"Metal"},"geometry":{"type":"Point","coordinates":[79.85882874934704,6.906050556324306]}},{"type":"Feature","properties":{"ID":"3277","Elevation":"6.022","Type":"Informative","Condition":"Good","Material":"Metal"},"geometry":{"type":"Point","coordinates":[79.85942197611044,6.906520701691128]}},{"type":"Feature","properties":{"ID":"3284","Elevation":"6.01","Type":"Directions","Condition":"Good","Material":"Metal"},"geometry":{"type":"Point","coordinates":[79.85955698673223,6.906701712666523]}},{"type":"Feature","properties":{"ID":"3294","Elevation":"5.956","Type":"Directions","Condition":"Good","Material":"Metal"},"geometry":{"type":"Point","coordinates":[79.85976775355874,6.907002016862654]}},{"type":"Feature","properties":{"ID":"3312","Elevation":"6.193","Type":"Directions","Condition":"Good","Material":"Metal"},"geometry":{"type":"Point","coordinates":[79.86009164045873,6.9072409347524975]}},{"type":"Feature","properties":{"ID":"3314","Elevation":"6.183","Type":"Informative","Condition":"Good","Material":"Metal"},"geometry":{"type":"Point","coordinates":[79.85999080231323,6.907093761779437]}},{"type":"Feature","properties":{"ID":"4004","Elevation":"6.448","Type":"Informative","Condition":"Good","Material":"Metal"},"geometry":{"type":"Point","coordinates":[79.86017251711915,6.9076849843156]}},{"type":"Feature","properties":{"ID":"4021","Elevation":"6.88","Type":"Directions","Condition":"Good","Material":"Metal"},"geometry":{"type":"Point","coordinates":[79.8605357850874,6.9084583288426025]}},{"type":"Feature","properties":{"ID":"4059","Elevation":"6.945","Type":"Directions","Condition":"Good","Material":"Metal"},"geometry":{"type":"Point","coordinates":[79.86051012589738,6.909289789784168]}},{"type":"Feature","properties":{"ID":"4080","Elevation":"7.239","Type":"Informative","Condition":"Good","Material":"Metal"},"geometry":{"type":"Point","coordinates":[79.85996105180365,6.909480968778614]}},{"type":"Feature","properties":{"ID":"4083","Elevation":"7.228","Type":"Directions","Condition":"Good","Material":"Metal"},"geometry":{"type":"Point","coordinates":[79.85985719029128,6.909531585517878]}},{"type":"Feature","properties":{"ID":"4092","Elevation":"7.027","Type":"Directions","Condition":"Good","Material":"Metal"},"geometry":{"type":"Point","coordinates":[79.85995238000292,6.909628518921422]}},{"type":"Feature","properties":{"ID":"4097","Elevation":"6.878","Type":"Directions","Condition":"Good","Material":"Metal"},"geometry":{"type":"Point","coordinates":[79.86028718558768,6.9095030256856225]}},{"type":"Feature","properties":{"ID":"4100","Elevation":"6.909","Type":"Directions","Condition":"Good","Material":"Metal"},"geometry":{"type":"Point","coordinates":[79.86060139092737,6.909395034245349]}},{"type":"Feature","properties":{"ID":"4118","Elevation":"6.579","Type":"Directions","Condition":"Good","Material":"Metal"},"geometry":{"type":"Point","coordinates":[79.86121698773012,6.909316194548952]}},{"type":"Feature","properties":{"ID":"4144","Elevation":"6.424","Type":"Directions","Condition":"Good","Material":"Metal"},"geometry":{"type":"Point","coordinates":[79.86219242096895,6.909495744128128]}},{"type":"Feature","properties":{"ID":"4149","Elevation":"6.541","Type":"Directions","Condition":"Good","Material":"Metal"},"geometry":{"type":"Point","coordinates":[79.86234740862062,6.909546496341719]}},{"type":"Feature","properties":{"ID":"4172","Elevation":"6.841","Type":"Directions","Condition":"Good","Material":"Metal"},"geometry":{"type":"Point","coordinates":[79.86073386811441,6.908847790495158]}},{"type":"Feature","properties":{"ID":"4198","Elevation":"6.368","Type":"Directions","Condition":"Good","Material":"Metal"},"geometry":{"type":"Point","coordinates":[79.86145383587338,6.9091916877390505]}},{"type":"Feature","properties":{"ID":"4220","Elevation":"6.548","Type":"Directions","Condition":"Good","Material":"Metal"},"geometry":{"type":"Point","coordinates":[79.86207563147094,6.909253553703582]}},{"type":"Feature","properties":{"ID":"4227","Elevation":"6.247","Type":"Directions","Condition":"Good","Material":"Metal"},"geometry":{"type":"Point","coordinates":[79.86241518552866,6.909340647531095]}},{"type":"Feature","properties":{"ID":"4245","Elevation":"6.662","Type":"Informative","Condition":"Good","Material":"Metal"},"geometry":{"type":"Point","coordinates":[79.86265340170988,6.909417718053618]}},{"type":"Feature","properties":{"ID":"4286","Elevation":"6.546","Type":"Directions","Condition":"Good","Material":"Metal"},"geometry":{"type":"Point","coordinates":[79.86276753486649,6.909700511317529]}},{"type":"Feature","properties":{"ID":"4299","Elevation":"6.808","Type":"Directions","Condition":"Good","Material":"Metal"},"geometry":{"type":"Point","coordinates":[79.86340548406261,6.909851136687073]}},{"type":"Feature","properties":{"ID":"4300","Elevation":"6.923","Type":"Directions","Condition":"Good","Material":"Metal"},"geometry":{"type":"Point","coordinates":[79.8634400325492,6.909920492448578]}},{"type":"Feature","properties":{"ID":"4347","Elevation":"7.096","Type":"Informative","Condition":"Good","Material":"Metal"},"geometry":{"type":"Point","coordinates":[79.86442234657652,6.910925286778332]}},{"type":"Feature","properties":{"ID":"4375","Elevation":"6.969","Type":"Directions","Condition":"Good","Material":"Metal"},"geometry":{"type":"Point","coordinates":[79.86371360152076,6.91043091832602]}},{"type":"Feature","properties":{"ID":"4379","Elevation":"6.969","Type":"Directions","Condition":"Good","Material":"Metal"},"geometry":{"type":"Point","coordinates":[79.86352953612052,6.910246287808221]}},{"type":"Feature","properties":{"ID":"5000","Elevation":"5.392","Type":"Directions","Condition":"Good","Material":"Metal"},"geometry":{"type":"Point","coordinates":[79.85922313539304,6.905877372706542]}},{"type":"Feature","properties":{"ID":"5002","Elevation":"5.311","Type":"Directions","Condition":"Good","Material":"Metal"},"geometry":{"type":"Point","coordinates":[79.85925615724416,6.905827569142295]}},{"type":"Feature","properties":{"ID":"5015","Elevation":"5.077","Type":"Informative","Condition":"Good","Material":"Metal"},"geometry":{"type":"Point","coordinates":[79.85959935767997,6.905654603166487]}},{"type":"Feature","properties":{"ID":"5019","Elevation":"5.313","Type":"Directions","Condition":"Good","Material":"Metal"},"geometry":{"type":"Point","coordinates":[79.85975838067277,6.905587093312879]}},{"type":"Feature","properties":{"ID":"5020","Elevation":"7.507","Type":"Directions","Condition":"Good","Material":"Metal"},"geometry":{"type":"Point","coordinates":[79.8598334408375,6.905508517228349]}},{"type":"Feature","properties":{"ID":"5080","Elevation":"7.389","Type":"Directions","Condition":"Good","Material":"Metal"},"geometry":{"type":"Point","coordinates":[79.8630148494794,6.905555194933528]}},{"type":"Feature","properties":{"ID":"5082","Elevation":"7.916","Type":"Directions","Condition":"Good","Material":"Metal"},"geometry":{"type":"Point","coordinates":[79.86273264075056,6.905352183620077]}},{"type":"Feature","properties":{"ID":"5090","Elevation":"7.994","Type":"Informative","Condition":"Good","Material":"Metal"},"geometry":{"type":"Point","coordinates":[79.86252912713226,6.905345138575971]}},{"type":"Feature","properties":{"ID":"5108","Elevation":"7.301","Type":"Directions","Condition":"Good","Material":"Metal"},"geometry":{"type":"Point","coordinates":[79.86207505498993,6.9052672112638005]}},{"type":"Feature","properties":{"ID":"5122","Elevation":"7.341","Type":"Directions","Condition":"Good","Material":"Metal"},"geometry":{"type":"Point","coordinates":[79.8616249281818,6.905245704709942]}},{"type":"Feature","properties":{"ID":"5128","Elevation":"7.397","Type":"Directions","Condition":"Good","Material":"Metal"},"geometry":{"type":"Point","coordinates":[79.86125679940133,6.905240721320105]}},{"type":"Feature","properties":{"ID":"5133","Elevation":"7.464","Type":"Directions","Condition":"Good","Material":"Metal"},"geometry":{"type":"Point","coordinates":[79.86092720244883,6.905251879428495]}},{"type":"Feature","properties":{"ID":"5135","Elevation":"7.41","Type":"Directions","Condition":"Good","Material":"Metal"},"geometry":{"type":"Point","coordinates":[79.86082960558399,6.905258934726392]}},{"type":"Feature","properties":{"ID":"5140","Elevation":"8.147","Type":"Directions","Condition":"Good","Material":"Metal"},"geometry":{"type":"Point","coordinates":[79.86067917384361,6.90529591730035]}},{"type":"Feature","properties":{"ID":"5151","Elevation":"8.821","Type":"Informative","Condition":"Good","Material":"Metal"},"geometry":{"type":"Point","coordinates":[79.86015143615825,6.905352709429097]}},{"type":"Feature","properties":{"ID":"5157","Elevation":"5.656","Type":"Directions","Condition":"Good","Material":"Metal"},"geometry":{"type":"Point","coordinates":[79.85983584503907,6.905411156669512]}},{"type":"Feature","properties":{"ID":"5161","Elevation":"5.439","Type":"Directions","Condition":"Good","Material":"Metal"},"geometry":{"type":"Point","coordinates":[79.85970880793566,6.905454685156794]}},{"type":"Feature","properties":{"ID":"5163","Elevation":"5.255","Type":"Directions","Condition":"Good","Material":"Metal"},"geometry":{"type":"Point","coordinates":[79.8595575000379,6.9055143251380215]}},{"type":"Feature","properties":{"ID":"5164","Elevation":"5.21","Type":"Directions","Condition":"Good","Material":"Metal"},"geometry":{"type":"Point","coordinates":[79.85953079763216,6.9055104489828345]}},{"type":"Feature","properties":{"ID":"5173","Elevation":"4.544","Type":"Directions","Condition":"Good","Material":"Metal"},"geometry":{"type":"Point","coordinates":[79.85929392576155,6.905657487856417]}},{"type":"Feature","properties":{"ID":"5180","Elevation":"5.179","Type":"Directions","Condition":"Good","Material":"Metal"},"geometry":{"type":"Point","coordinates":[79.85911360397454,6.905752959896426]}},{"type":"Feature","properties":{"ID":"5189","Elevation":"5.161","Type":"Directions","Condition":"Good","Material":"Metal"},"geometry":{"type":"Point","coordinates":[79.85911280551808,6.905754115746843]}},{"type":"Feature","properties":{"ID":"5221","Elevation":"5.021","Type":"Directions","Condition":"Good","Material":"Metal"},"geometry":{"type":"Point","coordinates":[79.85853579888622,6.905192296567675]}},{"type":"Feature","properties":{"ID":"5227","Elevation":"5.181","Type":"Directions","Condition":"Good","Material":"Metal"},"geometry":{"type":"Point","coordinates":[79.85854288371515,6.904966891081416]}},{"type":"Feature","properties":{"ID":"5229","Elevation":"5.302","Type":"Directions","Condition":"Good","Material":"Metal"},"geometry":{"type":"Point","coordinates":[79.85852950656933,6.904790671301094]}},{"type":"Feature","properties":{"ID":"5235","Elevation":"5.41","Type":"Directions","Condition":"Good","Material":"Metal"},"geometry":{"type":"Point","coordinates":[79.85850101912942,6.904605100044168]}},{"type":"Feature","properties":{"ID":"5240","Elevation":"5.221","Type":"Informative","Condition":"Poor","Material":"Metal"},"geometry":{"type":"Point","coordinates":[79.85845269603962,6.904190762070838]}},{"type":"Feature","properties":{"ID":"5247","Elevation":"5.08","Type":"Directions","Condition":"Good","Material":"Metal"},"geometry":{"type":"Point","coordinates":[79.85848859058886,6.903711428963365]}},{"type":"Feature","properties":{"ID":"5253","Elevation":"5.258","Type":"Directions","Condition":"Good","Material":"Metal"},"geometry":{"type":"Point","coordinates":[79.85858574390663,6.903497716435203]}},{"type":"Feature","properties":{"ID":"5263","Elevation":"5.291","Type":"Directions","Condition":"Good","Material":"Metal"},"geometry":{"type":"Point","coordinates":[79.85866941130145,6.903182923592802]}},{"type":"Feature","properties":{"ID":"5315","Elevation":"7.487","Type":"Directions","Condition":"Good","Material":"Metal"},"geometry":{"type":"Point","coordinates":[79.85943410653934,6.900822104304675]}},{"type":"Feature","properties":{"ID":"5370","Elevation":"7.348","Type":"Directions","Condition":"Good","Material":"Metal"},"geometry":{"type":"Point","coordinates":[79.86032479053615,6.89902336372592]}},{"type":"Feature","properties":{"ID":"5373","Elevation":"7.366","Type":"Directions","Condition":"Good","Material":"Metal"},"geometry":{"type":"Point","coordinates":[79.86036827911451,6.898983526386237]}},{"type":"Feature","properties":{"ID":"5383","Elevation":"7.207","Type":"Informative","Condition":"Good","Material":"Metal"},"geometry":{"type":"Point","coordinates":[79.86066874751735,6.899004728098097]}},{"type":"Feature","properties":{"ID":"5390","Elevation":"7.545","Type":"Directions","Condition":"Good","Material":"Metal"},"geometry":{"type":"Point","coordinates":[79.86052411671706,6.898806736183506]}},{"type":"Feature","properties":{"ID":"5391","Elevation":"7.625","Type":"Directions","Condition":"Good","Material":"Metal"},"geometry":{"type":"Point","coordinates":[79.86054058986319,6.898765997015673]}},{"type":"Feature","properties":{"ID":"5393","Elevation":"7.661","Type":"Directions","Condition":"Good","Material":"Metal"},"geometry":{"type":"Point","coordinates":[79.86055338169274,6.898724635919516]}}]}