{
"type": "FeatureCollection",
"name": "signalLightPosts",
"crs": { "type": "name", "properties": { "name": "urn:ogc:def:crs:OGC:1.3:CRS84" } },
"features": [
{ "type": "Feature", "properties": { "signalLightPostId": "171", "type": "Traffic Signal", "authority": "SL Police", "material": "Metal", "condition": "Good", "elevation": "4.508" }, "geometry": { "type": "Point", "coordinates": [ 79.858118021425781, 6.912231610732051 ] } },
{ "type": "Feature", "properties": { "signalLightPostId": "172", "type": "Traffic Signal", "authority": "SL Police", "material": "Metal", "condition": "Good", "elevation": "4.595" }, "geometry": { "type": "Point", "coordinates": [ 79.85808728155196, 6.912331683448745 ] } },
{ "type": "Feature", "properties": { "signalLightPostId": "243", "type": "Traffic Signal", "authority": "SL Police", "material": "Metal", "condition": "Good", "elevation": "7.214" }, "geometry": { "type": "Point", "coordinates": [ 79.864238842727417, 6.911584800378416 ] } },
{ "type": "Feature", "properties": { "signalLightPostId": "246", "type": "Traffic Signal", "authority": "SL Police", "material": "Metal", "condition": "Good", "elevation": "7.322" }, "geometry": { "type": "Point", "coordinates": [ 79.864224875523718, 6.911748281824125 ] } },
{ "type": "Feature", "properties": { "signalLightPostId": "247", "type": "Traffic Signal", "authority": "SL Police", "material": "Metal", "condition": "Good", "elevation": "7.27" }, "geometry": { "type": "Point", "coordinates": [ 79.864081182843663, 6.911742726043095 ] } },
{ "type": "Feature", "properties": { "signalLightPostId": "1029", "type": "Traffic Signal", "authority": "SL Police", "material": "Metal", "condition": "Moderate", "elevation": "7.354" }, "geometry": { "type": "Point", "coordinates": [ 79.863883141512858, 6.90673841545745 ] } },
{ "type": "Feature", "properties": { "signalLightPostId": "1048", "type": "Traffic Signal", "authority": "SL Police", "material": "Metal", "condition": "Good", "elevation": "7.334" }, "geometry": { "type": "Point", "coordinates": [ 79.86301539918918, 6.905556353374706 ] } },
{ "type": "Feature", "properties": { "signalLightPostId": "1053", "type": "Traffic Signal", "authority": "SL Police", "material": "Metal", "condition": "Good", "elevation": "7.81" }, "geometry": { "type": "Point", "coordinates": [ 79.862732450099912, 6.905352517812151 ] } },
{ "type": "Feature", "properties": { "signalLightPostId": "1100", "type": "Traffic Signal", "authority": "SL Police", "material": "Metal", "condition": "Good", "elevation": "7.274" }, "geometry": { "type": "Point", "coordinates": [ 79.864009068817836, 6.906669719578151 ] } },
{ "type": "Feature", "properties": { "signalLightPostId": "3028", "type": "Traffic Signal", "authority": "SL Police", "material": "Metal", "condition": "Good", "elevation": "7.467" }, "geometry": { "type": "Point", "coordinates": [ 79.859913889797326, 6.899238599250697 ] } },
{ "type": "Feature", "properties": { "signalLightPostId": "3101", "type": "Traffic Signal", "authority": "SL Police", "material": "Metal", "condition": "Good", "elevation": "11.395" }, "geometry": { "type": "Point", "coordinates": [ 79.859172059013119, 6.901273397409895 ] } },
{ "type": "Feature", "properties": { "signalLightPostId": "3168", "type": "Traffic Signal", "authority": "SL Police", "material": "Metal", "condition": "Good", "elevation": "5.041" }, "geometry": { "type": "Point", "coordinates": [ 79.858370222717539, 6.903679427224066 ] } },
{ "type": "Feature", "properties": { "signalLightPostId": "3192", "type": "Traffic Signal", "authority": "SL Police", "material": "Metal", "condition": "Good", "elevation": "5.274" }, "geometry": { "type": "Point", "coordinates": [ 79.858367576934626, 6.904629455683859 ] } },
{ "type": "Feature", "properties": { "signalLightPostId": "3238", "type": "Traffic Signal", "authority": "SL Police", "material": "Metal", "condition": "Good", "elevation": "5.643" }, "geometry": { "type": "Point", "coordinates": [ 79.858744656515881, 6.905881614931971 ] } },
{ "type": "Feature", "properties": { "signalLightPostId": "3260", "type": "Traffic Signal", "authority": "SL Police", "material": "Metal", "condition": "Good", "elevation": "6.107" }, "geometry": { "type": "Point", "coordinates": [ 79.859018652652793, 6.906190142776835 ] } },
{ "type": "Feature", "properties": { "signalLightPostId": "3266", "type": "Traffic Signal", "authority": "SL Police", "material": "Metal", "condition": "Good", "elevation": "6.034" }, "geometry": { "type": "Point", "coordinates": [ 79.859092337433012, 6.906210330873802 ] } },
{ "type": "Feature", "properties": { "signalLightPostId": "3291", "type": "Traffic Signal", "authority": "SL Police", "material": "Metal", "condition": "Good", "elevation": "5.944" }, "geometry": { "type": "Point", "coordinates": [ 79.859689261329748, 6.906889291949426 ] } },
{ "type": "Feature", "properties": { "signalLightPostId": "3317", "type": "Traffic Signal", "authority": "SL Police", "material": "Metal", "condition": "Good", "elevation": "5.993" }, "geometry": { "type": "Point", "coordinates": [ 79.859798969022521, 6.906809588980663 ] } },
{ "type": "Feature", "properties": { "signalLightPostId": "3332", "type": "Traffic Signal", "authority": "SL Police", "material": "Metal", "condition": "Good", "elevation": "5.712" }, "geometry": { "type": "Point", "coordinates": [ 79.859239262825398, 6.906067974702127 ] } },
{ "type": "Feature", "properties": { "signalLightPostId": "4050", "type": "Traffic Signal", "authority": "SL Police", "material": "Metal", "condition": "Good", "elevation": "6.92" }, "geometry": { "type": "Point", "coordinates": [ 79.860656366514633, 6.909141599799526 ] } },
{ "type": "Feature", "properties": { "signalLightPostId": "4184", "type": "Traffic Signal", "authority": "SL Police", "material": "Metal", "condition": "Good", "elevation": "6.741" }, "geometry": { "type": "Point", "coordinates": [ 79.860796000053298, 6.909116640706913 ] } },
{ "type": "Feature", "properties": { "signalLightPostId": "4323", "type": "Traffic Signal", "authority": "SL Police", "material": "Metal", "condition": "Good", "elevation": "7.414" }, "geometry": { "type": "Point", "coordinates": [ 79.86444753309118, 6.91129532848507 ] } },
{ "type": "Feature", "properties": { "signalLightPostId": "4325", "type": "Traffic Signal", "authority": "SL Police", "material": "Metal", "condition": "Good", "elevation": "7.552" }, "geometry": { "type": "Point", "coordinates": [ 79.864464869688391, 6.911417900147176 ] } },
{ "type": "Feature", "properties": { "signalLightPostId": "4326", "type": "Traffic Signal", "authority": "SL Police", "material": "Metal", "condition": "Good", "elevation": "7.931" }, "geometry": { "type": "Point", "coordinates": [ 79.864486736848889, 6.91142853934554 ] } },
{ "type": "Feature", "properties": { "signalLightPostId": "4327", "type": "Traffic Signal", "authority": "SL Police", "material": "Metal", "condition": "Good", "elevation": "7.32" }, "geometry": { "type": "Point", "coordinates": [ 79.864586509217503, 6.911637259141155 ] } },
{ "type": "Feature", "properties": { "signalLightPostId": "4328", "type": "Traffic Signal", "authority": "SL Police", "material": "Metal", "condition": "Good", "elevation": "7.361" }, "geometry": { "type": "Point", "coordinates": [ 79.86460129354063, 6.911741325790112 ] } },
{ "type": "Feature", "properties": { "signalLightPostId": "4329", "type": "Traffic Signal", "authority": "SL Police", "material": "Metal", "condition": "Good", "elevation": "7.356" }, "geometry": { "type": "Point", "coordinates": [ 79.864454903395654, 6.911774094398244 ] } },
{ "type": "Feature", "properties": { "signalLightPostId": "4337", "type": "Traffic Signal", "authority": "SL Police", "material": "Metal", "condition": "Good", "elevation": "6.98" }, "geometry": { "type": "Point", "coordinates": [ 79.864614515195413, 6.911263367852999 ] } },
{ "type": "Feature", "properties": { "signalLightPostId": "5191", "type": "Traffic Signal", "authority": "SL Police", "material": "Metal", "condition": "Good", "elevation": "5.356" }, "geometry": { "type": "Point", "coordinates": [ 79.85883371878063, 6.905777205627951 ] } },
{ "type": "Feature", "properties": { "signalLightPostId": "5234", "type": "Traffic Signal", "authority": "SL Police", "material": "Metal", "condition": "Good", "elevation": "5.171" }, "geometry": { "type": "Point", "coordinates": [ 79.858489534409472, 6.904620612233151 ] } },
{ "type": "Feature", "properties": { "signalLightPostId": "5246", "type": "Traffic Signal", "authority": "SL Police", "material": "Metal", "condition": "Good", "elevation": "5.15" }, "geometry": { "type": "Point", "coordinates": [ 79.858499554857517, 6.903721821337747 ] } },
{ "type": "Feature", "properties": { "signalLightPostId": "5302", "type": "Traffic Signal", "authority": "SL Police", "material": "Metal", "condition": "Good", "elevation": "7.972" }, "geometry": { "type": "Point", "coordinates": [ 79.859279718359019, 6.901321717344457 ] } },
{ "type": "Feature", "properties": { "signalLightPostId": "5357", "type": "Traffic Signal", "authority": "SL Police", "material": "Metal", "condition": "Good", "elevation": "7.423" }, "geometry": { "type": "Point", "coordinates": [ 79.860012650863098, 6.899321840513444 ] } }
]
}
