{"type":"FeatureCollection","features":[{"type":"Feature","properties":{"Type":null,"ImageName":null,"Width":null,"MCode":null,"SCode":null,"ID":null},"geometry":{"type":"LineString","coordinates":[[79.8642256660973,6.908687239721543],[79.86431246225393,6.908748479646552],[79.86431246225393,6.908748479646552]]}},{"type":"Feature","properties":{"Type":null,"ImageName":null,"Width":null,"MCode":null,"SCode":null,"ID":null},"geometry":{"type":"LineString","coordinates":[[79.86421004195762,6.908708866833676],[79.86429639323624,6.90877046263607]]}},{"type":"Feature","properties":{"Type":null,"ImageName":null,"Width":null,"MCode":null,"SCode":null,"ID":null},"geometry":{"type":"LineString","coordinates":[[79.86419724375023,6.908725887199005],[79.86428483253783,6.908786563015494]]}},{"type":"Feature","properties":{"Type":null,"ImageName":null,"Width":null,"MCode":null,"SCode":null,"ID":null},"geometry":{"type":"LineString","coordinates":[[79.86310371295271,6.909630050313962],[79.86305468449234,6.90960481713032]]}},{"type":"Feature","properties":{"Type":null,"ImageName":null,"Width":null,"MCode":null,"SCode":null,"ID":null},"geometry":{"type":"LineString","coordinates":[[79.86340634553609,6.909864985455209],[79.86343407450617,6.909905056357049]]}},{"type":"Feature","properties":{"Type":null,"ImageName":null,"Width":null,"MCode":null,"SCode":null,"ID":null},"geometry":{"type":"LineString","coordinates":[[79.86340139918823,6.909866633802212],[79.86343027000342,6.909908143161057]]}},{"type":"Feature","properties":{"Type":null,"ImageName":null,"Width":null,"MCode":null,"SCode":null,"ID":null},"geometry":{"type":"LineString","coordinates":[[79.86345190655007,6.910020349412357],[79.86348263598708,6.910049989105055],[79.86351304256726,6.910078881026459],[79.86351304256726,6.910078881026459]]}},{"type":"Feature","properties":{"Type":null,"ImageName":null,"Width":null,"MCode":null,"SCode":null,"ID":null},"geometry":{"type":"LineString","coordinates":[[79.86349685780537,6.910056352213899],[79.86345448110211,6.9100166986594775]]}},{"type":"Feature","properties":{"Type":null,"ImageName":null,"Width":null,"MCode":null,"SCode":null,"ID":null},"geometry":{"type":"LineString","coordinates":[[79.86403192784438,6.906735833235528],[79.86392184852647,6.90679247282076]]}},{"type":"Feature","properties":{"Type":null,"ImageName":null,"Width":null,"MCode":null,"SCode":null,"ID":null},"geometry":{"type":"LineString","coordinates":[[79.86401928076226,6.906716108171952],[79.86391278884429,6.90677415753548]]}},{"type":"Feature","properties":{"Type":null,"ImageName":null,"Width":null,"MCode":null,"SCode":null,"ID":null},"geometry":{"type":"LineString","coordinates":[[79.8640022229361,6.906681965268622],[79.86389702391608,6.906737807165535]]}},{"type":"Feature","properties":{"Type":null,"ImageName":null,"Width":null,"MCode":null,"SCode":null,"ID":null},"geometry":{"type":"LineString","coordinates":[[79.86260313006628,6.9042275140543765],[79.86249806842561,6.904238708139578]]}},{"type":"Feature","properties":{"Type":null,"ImageName":null,"Width":null,"MCode":null,"SCode":null,"ID":null},"geometry":{"type":"LineString","coordinates":[[79.86249482910874,6.904217879607299],[79.86259952666151,6.904202333093968]]}},{"type":"Feature","properties":{"Type":null,"ImageName":null,"Width":null,"MCode":null,"SCode":null,"ID":null},"geometry":{"type":"LineString","coordinates":[[79.86259689138328,6.904168451839805],[79.86249166497323,6.904180598380499]]}},{"type":"Feature","properties":{"Type":null,"ImageName":null,"Width":null,"MCode":null,"SCode":null,"ID":null},"geometry":{"type":"LineString","coordinates":[[79.8619066523634,6.901729559036121],[79.86182301348406,6.901765304813918],[79.86182289039942,6.901765307980362]]}},{"type":"Feature","properties":{"Type":null,"ImageName":null,"Width":null,"MCode":null,"SCode":null,"ID":null},"geometry":{"type":"LineString","coordinates":[[79.86190230603343,6.901717264058532],[79.86181775635531,6.901754076034287]]}},{"type":"Feature","properties":{"Type":null,"ImageName":null,"Width":null,"MCode":null,"SCode":null,"ID":null},"geometry":{"type":"LineString","coordinates":[[79.86188401987629,6.9016741303075575],[79.86179944938726,6.901709665110583],[79.86179956015948,6.901709684696169]]}},{"type":"Feature","properties":{"Type":null,"ImageName":null,"Width":null,"MCode":null,"SCode":null,"ID":null},"geometry":{"type":"LineString","coordinates":[[79.86057107410058,6.898604831298421],[79.86054707555104,6.898559945423077]]}},{"type":"Feature","properties":{"Type":null,"ImageName":null,"Width":null,"MCode":null,"SCode":null,"ID":null},"geometry":{"type":"LineString","coordinates":[[79.86066381063324,6.909186689153914],[79.86078630702372,6.909160759564387]]}},{"type":"Feature","properties":{"Type":null,"ImageName":null,"Width":null,"MCode":null,"SCode":null,"ID":null},"geometry":{"type":"LineString","coordinates":[[79.86078554626421,6.9091232143994],[79.86067083217982,6.9091433921306695],[79.86067075202294,6.90914357566778]]}},{"type":"Feature","properties":{"Type":null,"ImageName":null,"Width":null,"MCode":null,"SCode":null,"ID":null},"geometry":{"type":"LineString","coordinates":[[79.86067207704122,6.909119715650477],[79.86077774158245,6.909102474192293]]}},{"type":"Feature","properties":{"Type":null,"ImageName":null,"Width":null,"MCode":null,"SCode":null,"ID":null},"geometry":{"type":"LineString","coordinates":[[79.86009415540138,6.907269639691005],[79.86015331767626,6.907364986781233]]}},{"type":"Feature","properties":{"Type":null,"ImageName":null,"Width":null,"MCode":null,"SCode":null,"ID":null},"geometry":{"type":"LineString","coordinates":[[79.86014906014825,6.907367618822211],[79.86009121282284,6.90727189174527]]}},{"type":"Feature","properties":{"Type":null,"ImageName":null,"Width":null,"MCode":null,"SCode":null,"ID":null},"geometry":{"type":"LineString","coordinates":[[79.85911831078641,6.906199642170476],[79.85924176475069,6.906074723819969]]}},{"type":"Feature","properties":{"Type":null,"ImageName":null,"Width":null,"MCode":null,"SCode":null,"ID":null},"geometry":{"type":"LineString","coordinates":[[79.85914486278479,6.9062156994471495],[79.85926246777495,6.906103168453621]]}},{"type":"Feature","properties":{"Type":null,"ImageName":null,"Width":null,"MCode":null,"SCode":null,"ID":null},"geometry":{"type":"LineString","coordinates":[[79.85968412048871,6.9068555194760926],[79.85977612580972,6.906789111597738]]}},{"type":"Feature","properties":{"Type":null,"ImageName":null,"Width":null,"MCode":null,"SCode":null,"ID":null},"geometry":{"type":"LineString","coordinates":[[79.8597954985299,6.906816011802593],[79.85970219328395,6.906882392107474]]}},{"type":"Feature","properties":{"Type":null,"ImageName":null,"Width":null,"MCode":null,"SCode":null,"ID":null},"geometry":{"type":"LineString","coordinates":[[79.8598222116037,6.906854307190957],[79.85972924231483,6.906921398490215]]}},{"type":"Feature","properties":{"Type":null,"ImageName":null,"Width":null,"MCode":null,"SCode":null,"ID":null},"geometry":{"type":"LineString","coordinates":[[79.85949696814912,6.90660927893414],[79.85952987323377,6.906651958737773]]}},{"type":"Feature","properties":{"Type":null,"ImageName":null,"Width":null,"MCode":null,"SCode":null,"ID":null},"geometry":{"type":"LineString","coordinates":[[79.85949479041861,6.906613178547281],[79.85952314788116,6.906650752972592]]}},{"type":"Feature","properties":{"Type":null,"ImageName":null,"Width":null,"MCode":null,"SCode":null,"ID":null},"geometry":{"type":"LineString","coordinates":[[79.85891826354985,6.906122315354558],[79.85901074544533,6.906181669762002]]}},{"type":"Feature","properties":{"Type":null,"ImageName":null,"Width":null,"MCode":null,"SCode":null,"ID":null},"geometry":{"type":"LineString","coordinates":[[79.8587823802146,6.905910283498783],[79.85886945356084,6.905798326799727]]}},{"type":"Feature","properties":{"Type":null,"ImageName":null,"Width":null,"MCode":null,"SCode":null,"ID":null},"geometry":{"type":"LineString","coordinates":[[79.85874029786899,6.905860240196914],[79.85881934468617,6.905775565199271]]}},{"type":"Feature","properties":{"Type":null,"ImageName":null,"Width":null,"MCode":null,"SCode":null,"ID":null},"geometry":{"type":"LineString","coordinates":[[79.85875424158534,6.905875050555423],[79.85883563716557,6.905785988148559]]}},{"type":"Feature","properties":{"Type":null,"ImageName":null,"Width":null,"MCode":null,"SCode":null,"ID":null},"geometry":{"type":"LineString","coordinates":[[79.85846085279528,6.905502679116984],[79.85847988469622,6.905567214814296]]}},{"type":"Feature","properties":{"Type":null,"ImageName":null,"Width":null,"MCode":null,"SCode":null,"ID":null},"geometry":{"type":"LineString","coordinates":[[79.85848614817547,6.905571565461047],[79.85846510013238,6.905500262567618]]}},{"type":"Feature","properties":{"Type":null,"ImageName":null,"Width":null,"MCode":null,"SCode":null,"ID":null},"geometry":{"type":"LineString","coordinates":[[79.8584875911703,6.904654880800942],[79.85838211464672,6.904662278588999],[79.85838183970658,6.904662140791567]]}},{"type":"Feature","properties":{"Type":null,"ImageName":null,"Width":null,"MCode":null,"SCode":null,"ID":null},"geometry":{"type":"LineString","coordinates":[[79.85848331594468,6.904612025404145],[79.85837769770893,6.904622929646161]]}},{"type":"Feature","properties":{"Type":null,"ImageName":null,"Width":null,"MCode":null,"SCode":null,"ID":null},"geometry":{"type":"LineString","coordinates":[[79.85848225783465,6.904593286526234],[79.8583766393143,6.90460334534066]]}},{"type":"Feature","properties":{"Type":null,"ImageName":null,"Width":null,"MCode":null,"SCode":null,"ID":null},"geometry":{"type":"LineString","coordinates":[[79.85832418317905,6.904234313029798],[79.85831590278717,6.904187300517429]]}},{"type":"Feature","properties":{"Type":null,"ImageName":null,"Width":null,"MCode":null,"SCode":null,"ID":null},"geometry":{"type":"LineString","coordinates":[[79.8583111748664,6.904185950710095],[79.85831976813029,6.904232147445538],[79.85831973088726,6.904232065828383]]}},{"type":"Feature","properties":{"Type":null,"ImageName":null,"Width":null,"MCode":null,"SCode":null,"ID":null},"geometry":{"type":"LineString","coordinates":[[79.85850178173224,6.903258795849675],[79.8584627318071,6.903356256154998]]}},{"type":"Feature","properties":{"Type":null,"ImageName":null,"Width":null,"MCode":null,"SCode":null,"ID":null},"geometry":{"type":"LineString","coordinates":[[79.8584958220981,6.903261887099462],[79.85846172755198,6.9033512281062075]]}},{"type":"Feature","properties":{"Type":null,"ImageName":null,"Width":null,"MCode":null,"SCode":null,"ID":null},"geometry":{"type":"LineString","coordinates":[[79.85926476946787,6.9013249725547166],[79.85916378404582,6.901293596625839]]}},{"type":"Feature","properties":{"Type":null,"ImageName":null,"Width":null,"MCode":null,"SCode":null,"ID":null},"geometry":{"type":"LineString","coordinates":[[79.8592784942788,6.90128185493702],[79.85917761434511,6.901250476034271]]}},{"type":"Feature","properties":{"Type":null,"ImageName":null,"Width":null,"MCode":null,"SCode":null,"ID":null},"geometry":{"type":"LineString","coordinates":[[79.85928413368863,6.901261147728655],[79.85918520160541,6.901233194514823]]}},{"type":"Feature","properties":{"Type":null,"ImageName":null,"Width":null,"MCode":null,"SCode":null,"ID":null},"geometry":{"type":"LineString","coordinates":[[79.85962391067434,6.89978116048661],[79.85961326863364,6.899819452381194]]}},{"type":"Feature","properties":{"Type":null,"ImageName":null,"Width":null,"MCode":null,"SCode":null,"ID":null},"geometry":{"type":"LineString","coordinates":[[79.85962878071034,6.899782639470804],[79.85961702758026,6.899822847360243]]}},{"type":"Feature","properties":{"Type":null,"ImageName":null,"Width":null,"MCode":null,"SCode":null,"ID":null},"geometry":{"type":"LineString","coordinates":[[79.85997827446106,6.899343224759618],[79.85989806657543,6.899274034157009],[79.8598980110122,6.899274080468579]]}},{"type":"Feature","properties":{"Type":null,"ImageName":null,"Width":null,"MCode":null,"SCode":null,"ID":null},"geometry":{"type":"LineString","coordinates":[[79.85992831207608,6.899239485637289],[79.860009224661,6.899308118706524]]}},{"type":"Feature","properties":{"Type":null,"ImageName":null,"Width":null,"MCode":null,"SCode":null,"ID":null},"geometry":{"type":"LineString","coordinates":[[79.85994180768093,6.899225077426131],[79.86002216351979,6.899292236543303]]}}]}