{
"type": "FeatureCollection",
"name": "structures",
"crs": { "type": "name", "properties": { "name": "urn:ogc:def:crs:OGC:1.3:CRS84" } },
"features": [
{ "type": "Feature", "properties": { "structureId": "2262", "name": "N.V.Jayawardena statue", "type": "Statue", "condition": "Good", "material": "Concrete", "authority": "CMC", "elevation": "6.18" }, "geometry": { "type": "Point", "coordinates": [ 79.859899771649367, 6.906848265927985 ] } },
{ "type": "Feature", "properties": { "structureId": "3276", "name": null, "type": "Concrete Structure", "condition": "Good", "material": "Concrete", "authority": "CMC", "elevation": "6.218" }, "geometry": { "type": "Point", "coordinates": [ 79.859376548132218, 6.906481868967702 ] } },
{ "type": "Feature", "properties": { "structureId": "3285", "name": null, "type": "Concrete Structure", "condition": "Good", "material": "Concrete", "authority": "CMC", "elevation": "6.23" }, "geometry": { "type": "Point", "coordinates": [ 79.859540002657837, 6.906702141144314 ] } },
{ "type": "Feature", "properties": { "structureId": "3295", "name": null, "type": "Concrete Structure", "condition": "Good", "material": "Concrete", "authority": "CMC", "elevation": "6.129" }, "geometry": { "type": "Point", "coordinates": [ 79.859800611999916, 6.907074687996101 ] } },
{ "type": "Feature", "properties": { "structureId": "3299", "name": null, "type": "Concrete Structure", "condition": "Good", "material": "Concrete", "authority": "CMC", "elevation": "6.064" }, "geometry": { "type": "Point", "coordinates": [ 79.859894241193217, 6.907206493678372 ] } },
{ "type": "Feature", "properties": { "structureId": "3311", "name": null, "type": "Concrete Structure", "condition": "Good", "material": "Concrete", "authority": "CMC", "elevation": "6.119" }, "geometry": { "type": "Point", "coordinates": [ 79.860027761515497, 6.907414519449921 ] } },
{ "type": "Feature", "properties": { "structureId": "3334", "name": null, "type": "Statue", "condition": "Good", "material": "Concrete", "authority": "CMC", "elevation": "6.546" }, "geometry": { "type": "Point", "coordinates": [ 79.85925794082155, 6.90601956314989 ] } },
{ "type": "Feature", "properties": { "structureId": "4006", "name": null, "type": "Concrete Structure", "condition": "Good", "material": "Concrete", "authority": "CMC", "elevation": "6.261" }, "geometry": { "type": "Point", "coordinates": [ 79.860225607509378, 6.907724600291609 ] } },
{ "type": "Feature", "properties": { "structureId": "4010", "name": null, "type": "Concrete Structure", "condition": "Good", "material": "Concrete", "authority": "CMC", "elevation": "6.36" }, "geometry": { "type": "Point", "coordinates": [ 79.860333906756594, 6.907883135397506 ] } },
{ "type": "Feature", "properties": { "structureId": "4030", "name": null, "type": "Concrete Structure", "condition": "Good", "material": "Concrete", "authority": "CMC", "elevation": "7" }, "geometry": { "type": "Point", "coordinates": [ 79.86056786175314, 6.908655236713645 ] } },
{ "type": "Feature", "properties": { "structureId": "4038", "name": null, "type": "Concrete Structure", "condition": "Good", "material": "Concrete", "authority": "CMC", "elevation": "6.926" }, "geometry": { "type": "Point", "coordinates": [ 79.860617032715041, 6.908883824739862 ] } },
{ "type": "Feature", "properties": { "structureId": "4049", "name": null, "type": "Concrete Structure", "condition": "Good", "material": "Concrete", "authority": "CMC", "elevation": "6.956" }, "geometry": { "type": "Point", "coordinates": [ 79.860656261591785, 6.90913029698968 ] } },
{ "type": "Feature", "properties": { "structureId": "4309", "name": null, "type": "Concrete Structure", "condition": "Good", "material": "Concrete", "authority": "CMC", "elevation": "7.213" }, "geometry": { "type": "Point", "coordinates": [ 79.863991386666555, 6.910564333029267 ] } },
{ "type": "Feature", "properties": { "structureId": "4310", "name": null, "type": "Concrete Structure", "condition": "Good", "material": "Concrete", "authority": "CMC", "elevation": "7.21" }, "geometry": { "type": "Point", "coordinates": [ 79.8640014806126, 6.91057575444196 ] } },
{ "type": "Feature", "properties": { "structureId": "4311", "name": null, "type": "Concrete Structure", "condition": "Good", "material": "Concrete", "authority": "CMC", "elevation": "7.24" }, "geometry": { "type": "Point", "coordinates": [ 79.864011953384235, 6.910587800484513 ] } },
{ "type": "Feature", "properties": { "structureId": "5034", "name": null, "type": "Concrete Structure", "condition": "Good", "material": "Concrete", "authority": "CMC", "elevation": "7.536" }, "geometry": { "type": "Point", "coordinates": [ 79.860663792677812, 6.905385024660449 ] } },
{ "type": "Feature", "properties": { "structureId": "5035", "name": null, "type": "Concrete Structure", "condition": "Good", "material": "Concrete", "authority": "CMC", "elevation": "7.695" }, "geometry": { "type": "Point", "coordinates": [ 79.860665668411372, 6.905392985300741 ] } },
{ "type": "Feature", "properties": { "structureId": "5036", "name": null, "type": "Concrete Structure", "condition": "Good", "material": "Concrete", "authority": "CMC", "elevation": "7.691" }, "geometry": { "type": "Point", "coordinates": [ 79.860666746875211, 6.905401486934927 ] } },
{ "type": "Feature", "properties": { "structureId": "5037", "name": null, "type": "Concrete Structure", "condition": "Good", "material": "Concrete", "authority": "CMC", "elevation": "7.679" }, "geometry": { "type": "Point", "coordinates": [ 79.860667146528414, 6.905410095770318 ] } },
{ "type": "Feature", "properties": { "structureId": "5038", "name": null, "type": "Concrete Structure", "condition": "Good", "material": "Concrete", "authority": "CMC", "elevation": "7.581" }, "geometry": { "type": "Point", "coordinates": [ 79.860710911826928, 6.905405477946138 ] } },
{ "type": "Feature", "properties": { "structureId": "5039", "name": null, "type": "Concrete Structure", "condition": "Good", "material": "Concrete", "authority": "CMC", "elevation": "7.575" }, "geometry": { "type": "Point", "coordinates": [ 79.860710881994279, 6.905397466598803 ] } },
{ "type": "Feature", "properties": { "structureId": "5040", "name": null, "type": "Concrete Structure", "condition": "Good", "material": "Concrete", "authority": "CMC", "elevation": "7.778" }, "geometry": { "type": "Point", "coordinates": [ 79.860710019499749, 6.905389580241412 ] } },
{ "type": "Feature", "properties": { "structureId": "5041", "name": null, "type": "Concrete Structure", "condition": "Good", "material": "Concrete", "authority": "CMC", "elevation": "7.483" }, "geometry": { "type": "Point", "coordinates": [ 79.860709575857669, 6.905380320291118 ] } },
{ "type": "Feature", "properties": { "structureId": "5084", "name": null, "type": "Statue", "condition": "Good", "material": "Concrete", "authority": "CMC", "elevation": "8.721" }, "geometry": { "type": "Point", "coordinates": [ 79.86264849275743, 6.905300844102934 ] } },
{ "type": "Feature", "properties": { "structureId": "5340", "name": null, "type": "Metal Structure", "condition": "Moderate", "material": "Metal", "authority": "CMC", "elevation": "8.044" }, "geometry": { "type": "Point", "coordinates": [ 79.859753348739645, 6.899851868874853 ] } },
{ "type": "Feature", "properties": { "structureId": "5384", "name": null, "type": "Concrete Structure", "condition": "Good", "material": "Concrete", "authority": "CMC", "elevation": "7.474" }, "geometry": { "type": "Point", "coordinates": [ 79.860624363941241, 6.898888804703965 ] } },
{ "type": "Feature", "properties": { "structureId": "5387", "name": null, "type": "Concrete Structure", "condition": "Good", "material": "Concrete", "authority": "CMC", "elevation": "7.637" }, "geometry": { "type": "Point", "coordinates": [ 79.860571387204601, 6.89879048784996 ] } },
{ "type": "Feature", "properties": { "structureId": "5388", "name": null, "type": "Concrete Structure", "condition": "Good", "material": "Concrete", "authority": "CMC", "elevation": "7.488" }, "geometry": { "type": "Point", "coordinates": [ 79.860532764195071, 6.898826790052041 ] } },
{ "type": "Feature", "properties": { "structureId": "5395", "name": null, "type": "Concrete Structure", "condition": "Good", "material": "Concrete", "authority": "CMC", "elevation": "7.607" }, "geometry": { "type": "Point", "coordinates": [ 79.86056377031079, 6.898676723737183 ] } }
]
}
