{
"type": "FeatureCollection",
"name": "trafficSigns",
"crs": { "type": "name", "properties": { "name": "urn:ogc:def:crs:OGC:1.3:CRS84" } },
"features": [
{ "type": "Feature", "properties": { "trafficSignId": "1" }, "geometry": { "type": "MultiPoint", "coordinates": [ [ 79.864059747009435, 6.907583064568735 ] ] } },
{ "type": "Feature", "properties": { "trafficSignId": "2" }, "geometry": { "type": "MultiPoint", "coordinates": [ [ 79.864033251293009, 6.907600844145092 ] ] } },
{ "type": "Feature", "properties": { "trafficSignId": "3" }, "geometry": { "type": "MultiPoint", "coordinates": [ [ 79.864016734852697, 6.907602651817338 ] ] } },
{ "type": "Feature", "properties": { "trafficSignId": "4" }, "geometry": { "type": "MultiPoint", "coordinates": [ [ 79.864024283585067, 6.907602240293066 ] ] } },
{ "type": "Feature", "properties": { "trafficSignId": "5" }, "geometry": { "type": "MultiPoint", "coordinates": [ [ 79.864021040282196, 6.907601459178625 ] ] } },
{ "type": "Feature", "properties": { "trafficSignId": "6" }, "geometry": { "type": "MultiPoint", "coordinates": [ [ 79.864074419782796, 6.907570763979132 ] ] } },
{ "type": "Feature", "properties": { "trafficSignId": "7" }, "geometry": { "type": "MultiPoint", "coordinates": [ [ 79.864078667830228, 6.907564292412771 ] ] } },
{ "type": "Feature", "properties": { "trafficSignId": "8" }, "geometry": { "type": "MultiPoint", "coordinates": [ [ 79.864802422756128, 6.908289785863204 ] ] } },
{ "type": "Feature", "properties": { "trafficSignId": "9" }, "geometry": { "type": "MultiPoint", "coordinates": [ [ 79.864795868446592, 6.908285091824653 ] ] } },
{ "type": "Feature", "properties": { "trafficSignId": "10" }, "geometry": { "type": "MultiPoint", "coordinates": [ [ 79.864663856163745, 6.908321427351453 ] ] } },
{ "type": "Feature", "properties": { "trafficSignId": "11" }, "geometry": { "type": "MultiPoint", "coordinates": [ [ 79.864659172840945, 6.908327449470552 ] ] } },
{ "type": "Feature", "properties": { "trafficSignId": "12" }, "geometry": { "type": "MultiPoint", "coordinates": [ [ 79.864588290006665, 6.908380541088311 ] ] } },
{ "type": "Feature", "properties": { "trafficSignId": "13" }, "geometry": { "type": "MultiPoint", "coordinates": [ [ 79.864457548747012, 6.908350788796003 ] ] } },
{ "type": "Feature", "properties": { "trafficSignId": "14" }, "geometry": { "type": "MultiPoint", "coordinates": [ [ 79.864077510856319, 6.90887765355291 ] ] } },
{ "type": "Feature", "properties": { "trafficSignId": "15" }, "geometry": { "type": "MultiPoint", "coordinates": [ [ 79.864076433545094, 6.909007587787666 ] ] } },
{ "type": "Feature", "properties": { "trafficSignId": "16" }, "geometry": { "type": "MultiPoint", "coordinates": [ [ 79.863979524919174, 6.909010742123486 ] ] } },
{ "type": "Feature", "properties": { "trafficSignId": "17" }, "geometry": { "type": "MultiPoint", "coordinates": [ [ 79.86397048284141, 6.909239696499487 ] ] } },
{ "type": "Feature", "properties": { "trafficSignId": "18" }, "geometry": { "type": "MultiPoint", "coordinates": [ [ 79.863881346756614, 6.909358316057129 ] ] } },
{ "type": "Feature", "properties": { "trafficSignId": "19" }, "geometry": { "type": "MultiPoint", "coordinates": [ [ 79.863624821257091, 6.90972799224259 ] ] } },
{ "type": "Feature", "properties": { "trafficSignId": "20" }, "geometry": { "type": "MultiPoint", "coordinates": [ [ 79.863774850252312, 6.909302193448232 ] ] } },
{ "type": "Feature", "properties": { "trafficSignId": "21" }, "geometry": { "type": "MultiPoint", "coordinates": [ [ 79.863702261845063, 6.909415436937592 ] ] } },
{ "type": "Feature", "properties": { "trafficSignId": "22" }, "geometry": { "type": "MultiPoint", "coordinates": [ [ 79.863656903775109, 6.909422659750533 ] ] } },
{ "type": "Feature", "properties": { "trafficSignId": "23" }, "geometry": { "type": "MultiPoint", "coordinates": [ [ 79.863534318789988, 6.909594637206641 ] ] } },
{ "type": "Feature", "properties": { "trafficSignId": "24" }, "geometry": { "type": "MultiPoint", "coordinates": [ [ 79.863529912424255, 6.909600870950454 ] ] } },
{ "type": "Feature", "properties": { "trafficSignId": "25" }, "geometry": { "type": "MultiPoint", "coordinates": [ [ 79.863117806974699, 6.909606055205849 ] ] } },
{ "type": "Feature", "properties": { "trafficSignId": "26" }, "geometry": { "type": "MultiPoint", "coordinates": [ [ 79.863117806974699, 6.909606055205849 ] ] } },
{ "type": "Feature", "properties": { "trafficSignId": "27" }, "geometry": { "type": "MultiPoint", "coordinates": [ [ 79.862767621750592, 6.909702310483698 ] ] } },
{ "type": "Feature", "properties": { "trafficSignId": "28" }, "geometry": { "type": "MultiPoint", "coordinates": [ [ 79.862767621750592, 6.909702310483698 ] ] } },
{ "type": "Feature", "properties": { "trafficSignId": "29" }, "geometry": { "type": "MultiPoint", "coordinates": [ [ 79.863110419856397, 6.909879461388585 ] ] } },
{ "type": "Feature", "properties": { "trafficSignId": "30" }, "geometry": { "type": "MultiPoint", "coordinates": [ [ 79.863115497434848, 6.909884553040657 ] ] } },
{ "type": "Feature", "properties": { "trafficSignId": "31" }, "geometry": { "type": "MultiPoint", "coordinates": [ [ 79.86352836934924, 6.910248179150472 ] ] } },
{ "type": "Feature", "properties": { "trafficSignId": "32" }, "geometry": { "type": "MultiPoint", "coordinates": [ [ 79.864319566832791, 6.911409805344269 ] ] } },
{ "type": "Feature", "properties": { "trafficSignId": "33" }, "geometry": { "type": "MultiPoint", "coordinates": [ [ 79.864316624741292, 6.911417440143937 ] ] } },
{ "type": "Feature", "properties": { "trafficSignId": "34" }, "geometry": { "type": "MultiPoint", "coordinates": [ [ 79.864206351917176, 6.911576561057217 ] ] } },
{ "type": "Feature", "properties": { "trafficSignId": "35" }, "geometry": { "type": "MultiPoint", "coordinates": [ [ 79.864201854913119, 6.911581977076731 ] ] } },
{ "type": "Feature", "properties": { "trafficSignId": "36" }, "geometry": { "type": "MultiPoint", "coordinates": [ [ 79.862903184892474, 6.911644146395043 ] ] } },
{ "type": "Feature", "properties": { "trafficSignId": "37" }, "geometry": { "type": "MultiPoint", "coordinates": [ [ 79.86272566178404, 6.911648015273591 ] ] } },
{ "type": "Feature", "properties": { "trafficSignId": "38" }, "geometry": { "type": "MultiPoint", "coordinates": [ [ 79.862684331123376, 6.911648362111872 ] ] } },
{ "type": "Feature", "properties": { "trafficSignId": "39" }, "geometry": { "type": "MultiPoint", "coordinates": [ [ 79.862416951163809, 6.911648500837695 ] ] } },
{ "type": "Feature", "properties": { "trafficSignId": "40" }, "geometry": { "type": "MultiPoint", "coordinates": [ [ 79.862030829711543, 6.911614773498212 ] ] } },
{ "type": "Feature", "properties": { "trafficSignId": "41" }, "geometry": { "type": "MultiPoint", "coordinates": [ [ 79.861638637945717, 6.911577505203995 ] ] } },
{ "type": "Feature", "properties": { "trafficSignId": "42" }, "geometry": { "type": "MultiPoint", "coordinates": [ [ 79.861912611963774, 6.911825018875557 ] ] } },
{ "type": "Feature", "properties": { "trafficSignId": "43" }, "geometry": { "type": "MultiPoint", "coordinates": [ [ 79.863050889056467, 6.911876817100235 ] ] } },
{ "type": "Feature", "properties": { "trafficSignId": "44" }, "geometry": { "type": "MultiPoint", "coordinates": [ [ 79.86375577140933, 6.911845198788203 ] ] } },
{ "type": "Feature", "properties": { "trafficSignId": "45" }, "geometry": { "type": "MultiPoint", "coordinates": [ [ 79.864233313719112, 6.911898655234963 ] ] } },
{ "type": "Feature", "properties": { "trafficSignId": "46" }, "geometry": { "type": "MultiPoint", "coordinates": [ [ 79.864240768923594, 6.91190061081819 ] ] } },
{ "type": "Feature", "properties": { "trafficSignId": "47" }, "geometry": { "type": "MultiPoint", "coordinates": [ [ 79.86461434898645, 6.911261643257781 ] ] } },
{ "type": "Feature", "properties": { "trafficSignId": "48" }, "geometry": { "type": "MultiPoint", "coordinates": [ [ 79.863640225887139, 6.909949187297149 ] ] } },
{ "type": "Feature", "properties": { "trafficSignId": "49" }, "geometry": { "type": "MultiPoint", "coordinates": [ [ 79.8636352381085, 6.909942839719271 ] ] } },
{ "type": "Feature", "properties": { "trafficSignId": "50" }, "geometry": { "type": "MultiPoint", "coordinates": [ [ 79.863631530500243, 6.909748405844539 ] ] } },
{ "type": "Feature", "properties": { "trafficSignId": "51" }, "geometry": { "type": "MultiPoint", "coordinates": [ [ 79.863635777944054, 6.909741894696768 ] ] } },
{ "type": "Feature", "properties": { "trafficSignId": "52" }, "geometry": { "type": "MultiPoint", "coordinates": [ [ 79.864167493566498, 6.908961235631397 ] ] } }
]
}
